{
  "type": "FeatureCollection",
  "features": [
    {
      "type": "Feature",
      "id": "way/390456143",
      "properties": {
        "building": "apartments",
        "building:levels": "28",
        "name": "å¯ŒåŠ›ç›ˆç››å¹¿åœº",
        "name:zh": "å¯ŒåŠ›ç›ˆç››å¹¿åœº",
        "id": "way/390456143"
      },
      "geometry": {
        "type": "Polygon",
        "coordinates": [
          [
            [113.3382104, 23.1210216],
            [113.3381996, 23.1205479],
            [113.3387626, 23.120511],
            [113.338766, 23.1208216],
            [113.3384754, 23.1208452],
            [113.3384785, 23.1219051],
            [113.3381889, 23.1219096],
            [113.3382017, 23.1214193],
            [113.3382104, 23.1210216]
          ]
        ]
      }
    },
    {
      "type": "Feature",
      "id": "way/442558279",
      "properties": { "building": "yes", "id": "way/442558279" },
      "geometry": {
        "type": "Polygon",
        "coordinates": [
          [
            [113.3366835, 23.124171],
            [113.3366867, 23.1241094],
            [113.3366261, 23.1241064],
            [113.3366356, 23.12386],
            [113.3367728, 23.1238542],
            [113.3367664, 23.1241739],
            [113.3366835, 23.124171]
          ]
        ]
      }
    },
    {
      "type": "Feature",
      "id": "way/442558280",
      "properties": { "building": "yes", "id": "way/442558280" },
      "geometry": {
        "type": "Polygon",
        "coordinates": [
          [
            [113.3368493, 23.1241666],
            [113.3368462, 23.1239451],
            [113.3371316, 23.123929],
            [113.3371364, 23.1242047],
            [113.3369993, 23.1242054],
            [113.3369953, 23.1241603],
            [113.3368493, 23.1241666]
          ]
        ]
      }
    },
    {
      "type": "Feature",
      "id": "way/442558286",
      "properties": { "building": "yes", "id": "way/442558286" },
      "geometry": {
        "type": "Polygon",
        "coordinates": [
          [
            [113.3347753, 23.1221654],
            [113.3347564, 23.122018],
            [113.3348455, 23.1220014],
            [113.3348284, 23.1218723],
            [113.3349366, 23.1218706],
            [113.3349536, 23.1220006],
            [113.3348853, 23.1220163],
            [113.3349081, 23.1221305],
            [113.3347753, 23.1221654]
          ]
        ]
      }
    },
    {
      "type": "Feature",
      "id": "way/503998306",
      "properties": {
        "alt_name": "Tam Tsuen",
        "building": "train_station",
        "layer": "-1",
        "location": "underground",
        "name": "æ½­æ‘",
        "name:en": "Tancun",
        "name:zh": "æ½­æ‘",
        "opening_hours": "06:05-00:05",
        "operator": "å¹¿å·žåœ°é“é›†å›¢æœ‰é™å…¬å¸",
        "start_date": "2009-12-28",
        "wikidata": "Q5963516",
        "wikimedia_commons": "Category:Tancun Station",
        "wikipedia": "zh:æ½­æ‘ç«™",
        "id": "way/503998306"
      },
      "geometry": {
        "type": "Polygon",
        "coordinates": [
          [
            [113.339839, 23.1200174],
            [113.3398769, 23.1200159],
            [113.3409284, 23.119975],
            [113.3409676, 23.1199734],
            [113.3409743, 23.1201182],
            [113.3409106, 23.1201207],
            [113.3400055, 23.1201559],
            [113.3398456, 23.1201622],
            [113.339839, 23.1200174]
          ]
        ]
      }
    },
    {
      "type": "Feature",
      "id": "way/809962212",
      "properties": {
        "addr:city": "å¹¿å·žå¸‚",
        "addr:district": "å¤©æ²³åŒº",
        "addr:housenumber": "26",
        "addr:province": "å¹¿ä¸œçœ",
        "addr:street": "é©¬åœºè·¯",
        "building": "commercial",
        "building:levels": "58",
        "height": "308",
        "name": "å¹¿å‘è¯åˆ¸æ€»éƒ¨",
        "name:en": "Guangfa Securities Headquarters",
        "name:zh": "å¹¿å‘è¯åˆ¸æ€»éƒ¨",
        "wikidata": "Q29837572",
        "wikipedia": "en:Guangfa Securities Headquarters",
        "id": "way/809962212"
      },
      "geometry": {
        "type": "Polygon",
        "coordinates": [
          [
            [113.3385635, 23.1239873],
            [113.3384685, 23.1236301],
            [113.3388795, 23.1235376],
            [113.3389744, 23.1238949],
            [113.3385635, 23.1239873]
          ]
        ]
      }
    },
    {
      "type": "Feature",
      "id": "way/809962214",
      "properties": { "building": "yes", "id": "way/809962214" },
      "geometry": {
        "type": "Polygon",
        "coordinates": [
          [
            [113.3402837, 23.1265778],
            [113.3395518, 23.1242488],
            [113.3398233, 23.1241766],
            [113.3405557, 23.1265054],
            [113.3402837, 23.1265778]
          ]
        ]
      }
    },
    {
      "type": "Feature",
      "id": "way/839912066",
      "properties": {
        "building": "commercial",
        "name": "ç å…‰NT",
        "id": "way/839912066"
      },
      "geometry": {
        "type": "Polygon",
        "coordinates": [
          [
            [113.3425932, 23.119337],
            [113.3425692, 23.1190643],
            [113.3430433, 23.1190289],
            [113.3430674, 23.1193017],
            [113.3425932, 23.119337]
          ]
        ]
      }
    },
    {
      "type": "Feature",
      "id": "way/939181565",
      "properties": { "building": "apartments", "id": "way/939181565" },
      "geometry": {
        "type": "Polygon",
        "coordinates": [
          [
            [113.3391558, 23.1182422],
            [113.3391506, 23.1179418],
            [113.3394994, 23.1179367],
            [113.3395046, 23.1182371],
            [113.3391558, 23.1182422]
          ]
        ]
      }
    },
    {
      "type": "Feature",
      "id": "way/939181566",
      "properties": { "building": "apartments", "id": "way/939181566" },
      "geometry": {
        "type": "Polygon",
        "coordinates": [
          [
            [113.3396956, 23.1181548],
            [113.3395334, 23.1178821],
            [113.3398033, 23.1177462],
            [113.3399656, 23.1180189],
            [113.3396956, 23.1181548]
          ]
        ]
      }
    },
    {
      "type": "Feature",
      "id": "way/942117538",
      "properties": {
        "building": "office",
        "building:levels": "30",
        "name": "å¹¿å·žå˜‰æ˜±ä¸­å¿ƒ",
        "id": "way/942117538"
      },
      "geometry": {
        "type": "Polygon",
        "coordinates": [
          [
            [113.3435601, 23.1209059],
            [113.3434206, 23.1204126],
            [113.3436674, 23.1203435],
            [113.343823, 23.1208369],
            [113.3435601, 23.1209059]
          ]
        ]
      }
    },
    {
      "type": "Feature",
      "id": "way/981305134",
      "properties": {
        "building": "apartments",
        "building:levels": "29",
        "id": "way/981305134"
      },
      "geometry": {
        "type": "Polygon",
        "coordinates": [
          [
            [113.3357734, 23.1182708],
            [113.3356583, 23.1182631],
            [113.3355591, 23.1181965],
            [113.3355564, 23.1176341],
            [113.3356208, 23.1175206],
            [113.3357307, 23.1175206],
            [113.3358058, 23.1175206],
            [113.3358085, 23.117602],
            [113.3357307, 23.1175971],
            [113.3356825, 23.1176661],
            [113.3356798, 23.118157],
            [113.335728, 23.1181866],
            [113.3357708, 23.1181892],
            [113.3357734, 23.1182708]
          ]
        ]
      }
    },
    {
      "type": "Feature",
      "id": "way/981305135",
      "properties": {
        "building": "apartments",
        "building:levels": "29",
        "id": "way/981305135"
      },
      "geometry": {
        "type": "Polygon",
        "coordinates": [
          [
            [113.335835, 23.1182758],
            [113.3358346, 23.1181342],
            [113.3366646, 23.1181321],
            [113.336665, 23.1182737],
            [113.335835, 23.1182758]
          ]
        ]
      }
    },
    {
      "type": "Feature",
      "id": "way/981533294",
      "properties": { "building": "yes", "id": "way/981533294" },
      "geometry": {
        "type": "Polygon",
        "coordinates": [
          [
            [113.3397732, 23.120381],
            [113.339773, 23.120327],
            [113.3398937, 23.1203266],
            [113.3398939, 23.1203806],
            [113.3397732, 23.120381]
          ]
        ]
      }
    },
    {
      "type": "Feature",
      "id": "way/981533295",
      "properties": { "building": "yes", "id": "way/981533295" },
      "geometry": {
        "type": "Polygon",
        "coordinates": [
          [
            [113.340888, 23.1196566],
            [113.3408884, 23.1195938],
            [113.3410127, 23.1195945],
            [113.3410123, 23.1196572],
            [113.3409497, 23.1196569],
            [113.340888, 23.1196566]
          ]
        ]
      }
    },
    {
      "type": "Feature",
      "id": "way/981533296",
      "properties": { "building": "yes", "id": "way/981533296" },
      "geometry": {
        "type": "Polygon",
        "coordinates": [
          [
            [113.3412276, 23.1202999],
            [113.3412249, 23.1202339],
            [113.3413684, 23.120229],
            [113.3413711, 23.120295],
            [113.3412276, 23.1202999]
          ]
        ]
      }
    },
    {
      "type": "Feature",
      "id": "way/1144924594",
      "properties": {
        "amenity": "cafe",
        "building": "yes",
        "name": "å®¶Â·æ¹¾åŒºä¹¦å±‹",
        "id": "way/1144924594"
      },
      "geometry": {
        "type": "Polygon",
        "coordinates": [
          [
            [113.3358589, 23.122877],
            [113.3358584, 23.1227761],
            [113.3361397, 23.1227748],
            [113.3361402, 23.1228758],
            [113.3358589, 23.122877]
          ]
        ]
      }
    },
    {
      "type": "Feature",
      "id": "way/1149085367",
      "properties": {
        "building": "apartments",
        "building:levels": "27",
        "name": "T32",
        "id": "way/1149085367"
      },
      "geometry": {
        "type": "Polygon",
        "coordinates": [
          [
            [113.3341463, 23.1197723],
            [113.3341866, 23.1200649],
            [113.3338362, 23.1201056],
            [113.333796, 23.119813],
            [113.3341463, 23.1197723]
          ]
        ]
      }
    },
    {
      "type": "Feature",
      "id": "way/1149085368",
      "properties": {
        "building": "apartments",
        "building:levels": "27",
        "name": "T1",
        "id": "way/1149085368"
      },
      "geometry": {
        "type": "Polygon",
        "coordinates": [
          [
            [113.3345461, 23.1197314],
            [113.3345843, 23.1200265],
            [113.3342635, 23.1200616],
            [113.3342253, 23.1197666],
            [113.3345461, 23.1197314]
          ]
        ]
      }
    },
    {
      "type": "Feature",
      "id": "way/1149085369",
      "properties": {
        "building": "apartments",
        "building:levels": "23",
        "name": "T2",
        "id": "way/1149085369"
      },
      "geometry": {
        "type": "Polygon",
        "coordinates": [
          [
            [113.3347251, 23.1199649],
            [113.3345601, 23.1198043],
            [113.3345952, 23.1197738],
            [113.3345615, 23.1197409],
            [113.334723, 23.1196006],
            [113.3349217, 23.1197941],
            [113.3347251, 23.1199649]
          ]
        ]
      }
    },
    {
      "type": "Feature",
      "id": "way/1149085370",
      "properties": {
        "building": "apartments",
        "building:levels": "21",
        "name": "T3",
        "id": "way/1149085370"
      },
      "geometry": {
        "type": "Polygon",
        "coordinates": [
          [
            [113.3349217, 23.1197941],
            [113.334723, 23.1196006],
            [113.3349158, 23.1194332],
            [113.3350736, 23.1195869],
            [113.3350296, 23.119625],
            [113.3350705, 23.1196648],
            [113.3349217, 23.1197941]
          ]
        ]
      }
    },
    {
      "type": "Feature",
      "id": "way/1149085371",
      "properties": {
        "building": "apartments",
        "building:levels": "17",
        "name": "T4",
        "id": "way/1149085371"
      },
      "geometry": {
        "type": "Polygon",
        "coordinates": [
          [
            [113.3350724, 23.1194125],
            [113.3347858, 23.1194089],
            [113.3347887, 23.119187],
            [113.3350753, 23.1191906],
            [113.3350724, 23.1194125]
          ]
        ]
      }
    },
    {
      "type": "Feature",
      "id": "way/1149085372",
      "properties": {
        "building": "apartments",
        "building:levels": "15",
        "name": "T5",
        "id": "way/1149085372"
      },
      "geometry": {
        "type": "Polygon",
        "coordinates": [
          [
            [113.3350753, 23.1191906],
            [113.3347887, 23.119187],
            [113.3347916, 23.1189652],
            [113.3350782, 23.1189687],
            [113.3350753, 23.1191906]
          ]
        ]
      }
    },
    {
      "type": "Feature",
      "id": "way/1149085373",
      "properties": {
        "building": "apartments",
        "building:levels": "13",
        "name": "T6",
        "id": "way/1149085373"
      },
      "geometry": {
        "type": "Polygon",
        "coordinates": [
          [
            [113.3350813, 23.1187553],
            [113.3350782, 23.1189687],
            [113.3347916, 23.1189652],
            [113.3347947, 23.1187518],
            [113.3350813, 23.1187553]
          ]
        ]
      }
    },
    {
      "type": "Feature",
      "id": "way/1149085374",
      "properties": {
        "building": "apartments",
        "building:levels": "10",
        "name": "T7",
        "id": "way/1149085374"
      },
      "geometry": {
        "type": "Polygon",
        "coordinates": [
          [
            [113.3348043, 23.1183285],
            [113.3346482, 23.1181705],
            [113.3348603, 23.1179932],
            [113.3350164, 23.1181511],
            [113.3348043, 23.1183285]
          ]
        ]
      }
    },
    {
      "type": "Feature",
      "id": "way/1149085377",
      "properties": {
        "building": "apartments",
        "building:levels": "8",
        "name": "T8",
        "id": "way/1149085377"
      },
      "geometry": {
        "type": "Polygon",
        "coordinates": [
          [
            [113.3350229, 23.1179548],
            [113.3347896, 23.1179562],
            [113.3347869, 23.1175896],
            [113.3350203, 23.1175882],
            [113.3350229, 23.1179548]
          ]
        ]
      }
    },
    {
      "type": "Feature",
      "id": "way/1172079634",
      "properties": {
        "building": "apartments",
        "building:levels": "20",
        "id": "way/1172079634"
      },
      "geometry": {
        "type": "Polygon",
        "coordinates": [
          [
            [113.335839, 23.1197815],
            [113.3358413, 23.1196809],
            [113.3360933, 23.1196856],
            [113.336091, 23.1197863],
            [113.335839, 23.1197815]
          ]
        ]
      }
    },
    {
      "type": "Feature",
      "id": "way/1172079635",
      "properties": {
        "building": "apartments",
        "building:levels": "20",
        "id": "way/1172079635"
      },
      "geometry": {
        "type": "Polygon",
        "coordinates": [
          [
            [113.3360919, 23.119763],
            [113.3360942, 23.1196625],
            [113.3363462, 23.1196672],
            [113.3363439, 23.1197678],
            [113.3360919, 23.119763]
          ]
        ]
      }
    },
    {
      "type": "Feature",
      "id": "way/1172079636",
      "properties": {
        "building": "apartments",
        "building:levels": "20",
        "id": "way/1172079636"
      },
      "geometry": {
        "type": "Polygon",
        "coordinates": [
          [
            [113.336345, 23.1197258],
            [113.3363472, 23.1196252],
            [113.3365992, 23.1196299],
            [113.336597, 23.1197305],
            [113.336345, 23.1197258]
          ]
        ]
      }
    },
    {
      "type": "Feature",
      "id": "way/1172079637",
      "properties": {
        "building": "apartments",
        "building:levels": "20",
        "id": "way/1172079637"
      },
      "geometry": {
        "type": "Polygon",
        "coordinates": [
          [
            [113.3367194, 23.1197312],
            [113.3367217, 23.1196307],
            [113.3369737, 23.1196354],
            [113.3369714, 23.119736],
            [113.3367194, 23.1197312]
          ]
        ]
      }
    },
    {
      "type": "Feature",
      "id": "way/1172079638",
      "properties": {
        "building": "apartments",
        "building:levels": "20",
        "id": "way/1172079638"
      },
      "geometry": {
        "type": "Polygon",
        "coordinates": [
          [
            [113.3369715, 23.1197498],
            [113.3369737, 23.1196492],
            [113.3372257, 23.1196539],
            [113.3372235, 23.1197545],
            [113.3369715, 23.1197498]
          ]
        ]
      }
    },
    {
      "type": "Feature",
      "id": "way/1172079639",
      "properties": {
        "building": "apartments",
        "building:levels": "20",
        "id": "way/1172079639"
      },
      "geometry": {
        "type": "Polygon",
        "coordinates": [
          [
            [113.3372296, 23.1196419],
            [113.337237, 23.1193225],
            [113.3376108, 23.1193298],
            [113.3376034, 23.1196493],
            [113.3372296, 23.1196419]
          ]
        ]
      }
    },
    {
      "type": "Feature",
      "id": "way/1172079640",
      "properties": {
        "building": "apartments",
        "building:levels": "20",
        "id": "way/1172079640"
      },
      "geometry": {
        "type": "Polygon",
        "coordinates": [
          [
            [113.3374256, 23.1189354],
            [113.337428, 23.1187672],
            [113.3376426, 23.1187697],
            [113.3376403, 23.118938],
            [113.3374256, 23.1189354]
          ]
        ]
      }
    },
    {
      "type": "Feature",
      "id": "way/1172079641",
      "properties": {
        "building": "apartments",
        "building:levels": "20",
        "id": "way/1172079641"
      },
      "geometry": {
        "type": "Polygon",
        "coordinates": [
          [
            [113.3372109, 23.1189038],
            [113.3372133, 23.1187356],
            [113.3374279, 23.1187381],
            [113.3374256, 23.1189064],
            [113.3372109, 23.1189038]
          ]
        ]
      }
    },
    {
      "type": "Feature",
      "id": "way/1172079642",
      "properties": {
        "building": "apartments",
        "building:levels": "20",
        "id": "way/1172079642"
      },
      "geometry": {
        "type": "Polygon",
        "coordinates": [
          [
            [113.3369956, 23.1188715],
            [113.336998, 23.1187033],
            [113.3372126, 23.1187058],
            [113.3372103, 23.1188741],
            [113.3369956, 23.1188715]
          ]
        ]
      }
    },
    {
      "type": "Feature",
      "id": "way/1172079643",
      "properties": {
        "building": "apartments",
        "building:levels": "20",
        "id": "way/1172079643"
      },
      "geometry": {
        "type": "Polygon",
        "coordinates": [
          [
            [113.3367089, 23.1188685],
            [113.3367113, 23.1187002],
            [113.336926, 23.1187028],
            [113.3369236, 23.1188711],
            [113.3367089, 23.1188685]
          ]
        ]
      }
    },
    {
      "type": "Feature",
      "id": "way/1172079644",
      "properties": {
        "building": "apartments",
        "building:levels": "20",
        "id": "way/1172079644"
      },
      "geometry": {
        "type": "Polygon",
        "coordinates": [
          [
            [113.3364914, 23.1188654],
            [113.3364938, 23.1186972],
            [113.3367085, 23.1186997],
            [113.3367061, 23.118868],
            [113.3364914, 23.1188654]
          ]
        ]
      }
    },
    {
      "type": "Feature",
      "id": "way/1172079645",
      "properties": {
        "building": "apartments",
        "building:levels": "20",
        "id": "way/1172079645"
      },
      "geometry": {
        "type": "Polygon",
        "coordinates": [
          [
            [113.3358763, 23.1192053],
            [113.3358837, 23.1188859],
            [113.3362575, 23.1188932],
            [113.3362501, 23.1192126],
            [113.3358763, 23.1192053]
          ]
        ]
      }
    },
    {
      "type": "Feature",
      "id": "way/1172079646",
      "properties": { "building": "apartments", "id": "way/1172079646" },
      "geometry": {
        "type": "Polygon",
        "coordinates": [
          [
            [113.3381068, 23.1196109],
            [113.3380945, 23.1194537],
            [113.3393901, 23.1193679],
            [113.3394024, 23.1195254],
            [113.3381068, 23.1196109]
          ]
        ]
      }
    },
    {
      "type": "Feature",
      "id": "way/1172079647",
      "properties": { "building": "apartments", "id": "way/1172079647" },
      "geometry": {
        "type": "Polygon",
        "coordinates": [
          [
            [113.3381284, 23.1183335],
            [113.3380877, 23.1173594],
            [113.338319, 23.1173513],
            [113.3383453, 23.1179852],
            [113.3389063, 23.1179655],
            [113.3389204, 23.1183055],
            [113.3381284, 23.1183335]
          ]
        ]
      }
    },
    {
      "type": "Feature",
      "id": "way/1172079655",
      "properties": { "building": "apartments", "id": "way/1172079655" },
      "geometry": {
        "type": "Polygon",
        "coordinates": [
          [
            [113.3408756, 23.1194483],
            [113.3408581, 23.1191537],
            [113.3420827, 23.1190921],
            [113.3421002, 23.1193871],
            [113.3408756, 23.1194483]
          ]
        ]
      }
    },
    {
      "type": "Feature",
      "id": "way/1172079656",
      "properties": { "building": "apartments", "id": "way/1172079656" },
      "geometry": {
        "type": "Polygon",
        "coordinates": [
          [
            [113.3404057, 23.1182968],
            [113.3404204, 23.1181013],
            [113.3406651, 23.1181384],
            [113.3408947, 23.1181547],
            [113.341115, 23.118139],
            [113.341106, 23.1183399],
            [113.3409343, 23.1183638],
            [113.340609, 23.1183345],
            [113.3404057, 23.1182968]
          ]
        ]
      }
    },
    {
      "type": "Feature",
      "id": "way/1181759355",
      "properties": { "building": "yes", "id": "way/1181759355" },
      "geometry": {
        "type": "Polygon",
        "coordinates": [
          [
            [113.338246, 23.123308],
            [113.3382479, 23.1231593],
            [113.3387131, 23.1231644],
            [113.3387122, 23.1232372],
            [113.3388083, 23.1232383],
            [113.3388392, 23.1233187],
            [113.338246, 23.123308]
          ]
        ]
      }
    },
    {
      "type": "Feature",
      "id": "way/1181759356",
      "properties": {
        "amenity": "fire_station",
        "building": "yes",
        "name": "ç æ±Ÿä¸œæ¶ˆé˜²æ•‘æ´ç«™",
        "id": "way/1181759356"
      },
      "geometry": {
        "type": "Polygon",
        "coordinates": [
          [
            [113.3382685, 23.1225648],
            [113.3382703, 23.1223316],
            [113.3385134, 23.1223332],
            [113.3385124, 23.1224551],
            [113.338357, 23.1224541],
            [113.3383562, 23.1225654],
            [113.3382685, 23.1225648]
          ]
        ]
      }
    },
    {
      "type": "Feature",
      "id": "way/1181759357",
      "properties": { "building": "retail", "id": "way/1181759357" },
      "geometry": {
        "type": "Polygon",
        "coordinates": [
          [
            [113.3397188, 23.1222348],
            [113.3393681, 23.1209041],
            [113.3398518, 23.1208374],
            [113.3404684, 23.120741],
            [113.3410609, 23.1206001],
            [113.3415768, 23.1204519],
            [113.342133, 23.1202406],
            [113.3424877, 23.1215639],
            [113.3419677, 23.1216306],
            [113.3413672, 23.1217492],
            [113.3408029, 23.121879],
            [113.340416, 23.1219753],
            [113.3397188, 23.1222348]
          ]
        ]
      }
    },
    {
      "type": "Feature",
      "id": "way/1188099017",
      "properties": { "building": "yes", "id": "way/1188099017" },
      "geometry": {
        "type": "Polygon",
        "coordinates": [
          [
            [113.3402156, 23.1196013],
            [113.3401994, 23.1193771],
            [113.3405942, 23.1193528],
            [113.3406104, 23.1195771],
            [113.3402156, 23.1196013]
          ]
        ]
      }
    },
    {
      "type": "Feature",
      "id": "way/1188099021",
      "properties": { "building": "apartments", "id": "way/1188099021" },
      "geometry": {
        "type": "Polygon",
        "coordinates": [
          [
            [113.3413557, 23.1183223],
            [113.3413061, 23.1181316],
            [113.3415517, 23.1180997],
            [113.341776, 23.118052],
            [113.3419812, 23.1179764],
            [113.342038, 23.1181706],
            [113.3418819, 23.1182407],
            [113.341562, 23.1183023],
            [113.3413557, 23.1183223]
          ]
        ]
      }
    },
    {
      "type": "Feature",
      "id": "way/1188101788",
      "properties": { "building": "yes", "id": "way/1188101788" },
      "geometry": {
        "type": "Polygon",
        "coordinates": [
          [
            [113.341622, 23.1189436],
            [113.3415922, 23.1186204],
            [113.3419233, 23.1185967],
            [113.3419368, 23.1189262],
            [113.341622, 23.1189436]
          ]
        ]
      }
    }
  ]
}
