{"type":"FeatureCollection","features":[{"type":"Feature","id":"way/15240997","properties":{"name":"棒棰岛","name:en":"Bangchui Island","name:zh":"棒棰岛","name:zh-Latn-pinyin":"bàngchuí dǎo","natural":"coastline","place":"islet","source":"digitalGlobe Premium","id":"way/15240997"},"geometry":{"type":"Polygon","coordinates":[[[121.7146276,38.8830499],[121.7147857,38.8832124],[121.7148621,38.8831375],[121.7151459,38.8831164],[121.7153329,38.8833767],[121.7155145,38.8834884],[121.7155392,38.8834224],[121.7160578,38.8833389],[121.7165049,38.8834462],[121.7168146,38.8837171],[121.7167399,38.88397],[121.7164547,38.8841362],[121.7163863,38.8843047],[121.7156503,38.8843188],[121.7149595,38.8843932],[121.7140368,38.8847575],[121.7128636,38.8849563],[121.7125071,38.8848471],[121.7120286,38.8848786],[121.7116338,38.8849533],[121.7109693,38.8854598],[121.7108506,38.8854015],[121.7116009,38.884596],[121.7114565,38.8844625],[121.7118101,38.8841699],[121.7119777,38.8839558],[121.712403,38.8838813],[121.7127354,38.883656],[121.7128604,38.8833425],[121.7134594,38.8835144],[121.7137316,38.8835468],[121.7139923,38.8832072],[121.71413,38.8832799],[121.7146276,38.8830499]]]}},{"type":"Feature","id":"way/15241013","properties":{"natural":"coastline","place":"islet","source":"digitalGlobe Premium","id":"way/15241013"},"geometry":{"type":"Polygon","coordinates":[[[121.6170863,38.8522053],[121.6176537,38.8523739],[121.6178284,38.8522911],[121.6180214,38.8521066],[121.6184669,38.8522086],[121.6187651,38.8527452],[121.6186037,38.8530874],[121.6184973,38.8533223],[121.6186068,38.8534427],[121.6187096,38.8538375],[121.6187501,38.85408],[121.6187234,38.854668],[121.6183704,38.8548922],[121.6182289,38.8552578],[121.6184056,38.855452],[121.61806,38.85563],[121.6178841,38.8557649],[121.6175802,38.8556419],[121.617151,38.8553038],[121.6169177,38.8552746],[121.6166079,38.8548015],[121.6164679,38.8546426],[121.6165087,38.8541267],[121.6168151,38.8542],[121.6168104,38.8540613],[121.6167257,38.8537891],[121.6167704,38.8533333],[121.6169734,38.8529861],[121.6168297,38.8527493],[121.6170863,38.8522053]]]}},{"type":"Feature","id":"way/15241186","properties":{"natural":"coastline","place":"islet","source":"digitalGlobe Premium","id":"way/15241186"},"geometry":{"type":"Polygon","coordinates":[[[121.6235752,38.85042],[121.62407,38.85042],[121.6244634,38.8502598],[121.62473,38.85043],[121.6248933,38.8506429],[121.6253021,38.8505825],[121.625562,38.8507713],[121.6259688,38.8507531],[121.62603,38.85097],[121.6262594,38.8512492],[121.6262342,38.8515496],[121.6260211,38.8516639],[121.6254991,38.8517138],[121.62503,38.8514601],[121.62472,38.8512],[121.62406,38.85119],[121.6234,38.85144],[121.6232039,38.8516524],[121.6231524,38.8518944],[121.6229691,38.8519219],[121.6230379,38.8520855],[121.6228539,38.8524033],[121.6223206,38.8526629],[121.62206,38.8525801],[121.6218507,38.8523023],[121.6219796,38.8519383],[121.6222857,38.8515903],[121.6223697,38.8513741],[121.6224308,38.8512112],[121.622597,38.8511195],[121.6226896,38.8508192],[121.6235752,38.85042]]]}},{"type":"Feature","id":"way/15240565","properties":{"natural":"coastline","source":"PGS","id":"way/15240565"},"geometry":{"type":"LineString","coordinates":[[121.70756,38.88297],[121.7073899,38.88309],[121.70722,38.88386],[121.70623,38.8838499],[121.7060599,38.8843601],[121.7057101,38.88564],[121.7057101,38.8859],[121.7057101,38.8861599],[121.7056901,38.88641],[121.70601,38.88719],[121.70632,38.8877001],[121.70665,38.8879599],[121.7069599,38.88899],[121.7072429,38.8894804],[121.7075901,38.8900301],[121.7078338,38.8901844],[121.7079639,38.8906765],[121.7081416,38.8909823],[121.7083999,38.8909401],[121.7087299,38.8912],[121.7090599,38.89146],[121.7094143,38.8914841],[121.7098499,38.8926199],[121.7101699,38.89288],[121.7104999,38.8931401],[121.7108201,38.8933999],[121.7111401,38.89391],[121.7111885,38.8943354],[121.7115359,38.8944121],[121.71146,38.89469],[121.7112799,38.89521]]}},{"type":"Feature","id":"way/15240897","properties":{"natural":"coastline","source":"PGS & BIng","id":"way/15240897"},"geometry":{"type":"LineString","coordinates":[[121.6577617,38.9723078],[121.6617564,38.9748875],[121.6647409,38.9797583],[121.6648336,38.9798087],[121.660672,38.9838795],[121.6602805,38.984304],[121.6602149,38.9846722],[121.6603363,38.9847301],[121.6603401,38.9848328],[121.6599132,38.9848013],[121.6598318,38.9849918],[121.6596643,38.9849589],[121.6595744,38.9854476],[121.6595846,38.9857881],[121.6597378,38.9859402],[121.6596013,38.9861003],[121.6596023,38.9862932],[121.6596356,38.9865706],[121.6595401,38.9867615],[121.6595304,38.9871038],[121.6598956,38.9876663],[121.6601997,38.9880014],[121.6605334,38.9882778],[121.6606088,38.988726],[121.6606871,38.9888197],[121.6609043,38.9889644],[121.6606928,38.9893001],[121.6602201,38.98939],[121.6599363,38.9895626],[121.6598591,38.9898657],[121.660001,38.9904914],[121.660295,38.99097],[121.6607846,38.9915658],[121.6612511,38.9917957],[121.661736,38.9918851],[121.6621047,38.9919854],[121.6629317,38.9921653],[121.6630777,38.9920895],[121.6632418,38.9920503],[121.6635642,38.9922102],[121.6639358,38.992395],[121.66443,38.9926501],[121.6647797,38.9929273],[121.665236,38.9930585],[121.6652816,38.9932095],[121.6655088,38.9932818],[121.6656316,38.9932128],[121.6657339,38.9932449],[121.6657424,38.993338],[121.6658333,38.9933696],[121.6658716,38.9935497],[121.6659541,38.9938115],[121.6662044,38.9940019],[121.6666167,38.9939612],[121.6667582,38.9937418],[121.666854,38.9937462],[121.6668329,38.9939586],[121.6666687,38.9940531],[121.6661597,38.9941722],[121.665724,38.994515],[121.6650449,38.994826],[121.6646967,38.9950566],[121.6640777,38.9950628],[121.6637048,38.9950291],[121.6622479,38.9948774],[121.6618721,38.9948298],[121.6618012,38.9950714],[121.6628151,38.9952584],[121.6628029,38.9952913],[121.6625093,38.9952436],[121.6624302,38.995287],[121.6620687,38.9953367],[121.6611589,38.9957344]]}},{"type":"Feature","id":"way/15241167","properties":{"natural":"coastline","source":"PGS","id":"way/15241167"},"geometry":{"type":"LineString","coordinates":[[121.6552666,38.8607213],[121.6553386,38.860644],[121.6554559,38.8606835],[121.6555107,38.8608193],[121.6554244,38.8609618],[121.6552917,38.860996],[121.6553375,38.8610913],[121.6554584,38.8611583],[121.6556009,38.8612436],[121.6560429,38.8611628],[121.6561304,38.8611737],[121.6562887,38.8611764],[121.6561414,38.8615008],[121.6561462,38.8616332],[121.6564852,38.8620789],[121.6567519,38.8622725],[121.6574382,38.86244],[121.6576232,38.8625555],[121.6581068,38.8628423],[121.65865,38.8629101],[121.6589902,38.8630648],[121.659367,38.8630804],[121.6595302,38.8631217],[121.6596101,38.8632409],[121.6597073,38.8632418],[121.6596449,38.8631467],[121.659688,38.8630895],[121.6598196,38.8630843],[121.6598644,38.8632039],[121.659978,38.8632239],[121.6600318,38.8631764],[121.6600531,38.8631099],[121.6605506,38.8631144],[121.6608975,38.8632923],[121.6608725,38.8634023],[121.6609943,38.8634287],[121.6609997,38.8634447],[121.660831,38.8634484],[121.6608356,38.8635355],[121.6609855,38.8635559],[121.6609794,38.8636464],[121.6610492,38.8637539],[121.6624915,38.8638377],[121.6630569,38.8637519],[121.6631909,38.8636528],[121.6630947,38.8635666],[121.6631654,38.8634931],[121.6633069,38.8634081],[121.6634386,38.8633886],[121.6635818,38.8627248],[121.6638637,38.8612105],[121.6627573,38.8605406],[121.6628838,38.8604025],[121.6640935,38.8611388],[121.663739,38.8631177],[121.663942,38.8631472],[121.6638874,38.863461],[121.6641236,38.8635075],[121.6640845,38.8635623],[121.6639151,38.8635445],[121.6638231,38.8637873],[121.6642871,38.8638926],[121.664585,38.8638597],[121.6649308,38.8638346],[121.6650746,38.8638925],[121.6650767,38.863959],[121.6659868,38.8639517],[121.6663155,38.8639905],[121.6664618,38.8640501],[121.6666036,38.8640075],[121.6667433,38.864141],[121.6669919,38.8641597],[121.6681177,38.8638015],[121.6690753,38.8636301],[121.6692586,38.8635019],[121.6692332,38.8633989],[121.6692697,38.8633661],[121.6694104,38.8633525],[121.669556,38.8631396],[121.6697348,38.8631066],[121.6699453,38.8631463],[121.6701638,38.86314],[121.6704695,38.8630163],[121.6706365,38.8628634],[121.6707283,38.8628142],[121.670757,38.8625498],[121.6706777,38.8624721],[121.6707276,38.8621987],[121.6708192,38.8621373],[121.6711819,38.8622408],[121.671261,38.8623103],[121.671336,38.8623594],[121.6714397,38.8623135],[121.6714582,38.8621316],[121.6716732,38.8622509],[121.6715905,38.8623374],[121.6716505,38.8623492],[121.671663,38.8624447],[121.6719174,38.8625029],[121.6720555,38.8626069],[121.6720227,38.8627131],[121.6722766,38.8628054],[121.6723241,38.8627176],[121.6724139,38.8627151],[121.6724586,38.8627719],[121.6724929,38.8628744],[121.6724501,38.8629299],[121.672348,38.8629442],[121.6718944,38.8629129],[121.6717901,38.8630399],[121.67162,38.8631699],[121.671433,38.8633141],[121.6714783,38.8636604],[121.6715691,38.8637469],[121.6715237,38.8639735],[121.6714826,38.8641896],[121.6715389,38.8642363],[121.67155,38.8644432],[121.6716317,38.8646897],[121.6717097,38.8646837],[121.6717655,38.8648108],[121.6719156,38.8648921],[121.6723388,38.8649834],[121.672379,38.8650056],[121.6724614,38.8650096],[121.6724635,38.8650995],[121.672835,38.8651385],[121.6727188,38.8653892],[121.6730499,38.86601],[121.6733699,38.8661499],[121.6736999,38.86641],[121.6740201,38.86667],[121.6746801,38.8668001],[121.6756671,38.8670716],[121.6767086,38.8674554],[121.677053,38.8680507],[121.6770294,38.8683844],[121.6773446,38.8684328],[121.6773643,38.8692065],[121.6771298,38.8691937],[121.6771212,38.870049],[121.6762818,38.8706422],[121.67571,38.8701477],[121.674563,38.8709874],[121.6740068,38.8713992]]}},{"type":"Feature","id":"way/15241447","properties":{"natural":"coastline","id":"way/15241447"},"geometry":{"type":"LineString","coordinates":[[121.571873,38.8747996],[121.5717384,38.8747975],[121.5716796,38.8747242],[121.5709959,38.8747223],[121.5709708,38.8749497],[121.5710937,38.8750389],[121.5713532,38.8752485],[121.5718944,38.8755693],[121.5725408,38.8757878],[121.5730065,38.8758624],[121.5736499,38.8759271],[121.5744615,38.8757888],[121.5752583,38.875414],[121.5753077,38.875014],[121.575229,38.8749623],[121.5746085,38.8749325],[121.5744258,38.8749803],[121.5743552,38.8748883],[121.5744409,38.8748249],[121.5764185,38.8749372],[121.5764612,38.8750241],[121.5763994,38.8751042],[121.5762641,38.8750905],[121.5761583,38.8750195],[121.5754849,38.8749989],[121.5754684,38.8753134],[121.5760956,38.8757388],[121.5765917,38.8759563],[121.5774032,38.8761862],[121.5779019,38.8763013],[121.57824,38.87633],[121.5785609,38.8763558],[121.57889,38.87633],[121.5794206,38.8761873],[121.5799219,38.8759836],[121.580244,38.875847],[121.5802614,38.8757198],[121.5802985,38.8754232],[121.5802782,38.8753471],[121.580214,38.8752859],[121.5796313,38.8752553],[121.5795313,38.8753126],[121.5794669,38.8753224],[121.5793993,38.8752977],[121.5793575,38.8752457],[121.5793529,38.8751837],[121.579402,38.8751399],[121.57947,38.8751069],[121.5804288,38.8751711],[121.5804224,38.8752117],[121.5804481,38.8752167],[121.5810751,38.8752462],[121.5813408,38.8749969],[121.5817017,38.8748577],[121.5821075,38.874889],[121.5824575,38.87506],[121.5825236,38.8750794],[121.5826278,38.8750768],[121.5828754,38.8748761],[121.5830513,38.8745731],[121.5831217,38.874303],[121.5831172,38.8739943],[121.5831335,38.8739643],[121.5836133,38.873903],[121.583578,38.8738768],[121.5835874,38.8738214],[121.5836411,38.8738011],[121.5837132,38.873834],[121.5842413,38.8737734],[121.58436,38.87396],[121.5844712,38.8742021],[121.5851807,38.8741377]]}},{"type":"Feature","id":"way/54145706","properties":{"natural":"coastline","id":"way/54145706"},"geometry":{"type":"LineString","coordinates":[[121.5851807,38.8741377],[121.5870162,38.8740532],[121.5903476,38.8738997],[121.5904756,38.8739261],[121.5905128,38.8739822],[121.5905073,38.8740383],[121.5903222,38.8742676],[121.5905147,38.8744415],[121.5906539,38.8745295],[121.590965,38.8746126],[121.5912801,38.8746337],[121.5916122,38.8745746],[121.5918935,38.8743742],[121.591888,38.874196],[121.5921595,38.8737224],[121.5930253,38.8735274],[121.593622,38.8734984],[121.5939492,38.8734629],[121.5939948,38.8734838],[121.5940806,38.8734817],[121.5944669,38.8734086],[121.5947351,38.8734608],[121.5958697,38.8732081],[121.5960789,38.8731893],[121.5972698,38.8728573],[121.5977392,38.872732],[121.5980905,38.8725879],[121.5985519,38.8725649],[121.5989676,38.8725107]]}},{"type":"Feature","id":"way/153200589","properties":{"natural":"coastline","source":"bing","id":"way/153200589"},"geometry":{"type":"LineString","coordinates":[[121.6200105,38.9358345],[121.619956,38.9357639],[121.6200165,38.9357074],[121.620146,38.9357116],[121.6206579,38.9355879],[121.6308374,38.939524],[121.6309518,38.939526],[121.6310154,38.9395895],[121.6309942,38.939653],[121.6308823,38.939686],[121.6308151,38.9396089],[121.6206515,38.9356753],[121.6201603,38.9358119],[121.6200105,38.9358345]]}},{"type":"Feature","id":"way/153200591","properties":{"natural":"coastline","source":"bing","id":"way/153200591"},"geometry":{"type":"LineString","coordinates":[[121.6161732,38.9357171],[121.6160363,38.9360299],[121.6153432,38.9358968],[121.6148811,38.9372147],[121.6155742,38.9373612],[121.6146843,38.939724],[121.6089595,38.9387123],[121.6096099,38.9406093],[121.6140339,38.9415877],[121.6139569,38.9417873],[121.6115951,38.9412682],[121.6101311,38.9413273],[121.6099324,38.9413045],[121.6097192,38.9419583],[121.611347,38.9422865],[121.610534,38.9451683],[121.6124765,38.9455277],[121.6119203,38.9472647],[121.612023,38.9472913],[121.6119231,38.947551],[121.6113698,38.9493233]]}},{"type":"Feature","id":"way/153200593","properties":{"natural":"coastline","source":"bing","id":"way/153200593"},"geometry":{"type":"LineString","coordinates":[[121.6706001,38.9382956],[121.6706318,38.9382555],[121.6706726,38.9382414],[121.6707125,38.9382668],[121.6707135,38.9383085],[121.6706701,38.9383468],[121.6682743,38.9392127],[121.6654978,38.9401918],[121.6612711,38.941709],[121.6509097,38.9448365],[121.6499258,38.9450295],[121.6490017,38.9450894],[121.6480862,38.9450694],[121.6471365,38.9449563],[121.646825,38.9448754],[121.6466478,38.9448294],[121.6465948,38.9447913],[121.6466771,38.9447612],[121.6471583,38.9448862],[121.6480946,38.9449977],[121.6489992,38.9450175],[121.6499106,38.9449584],[121.6508816,38.9447679],[121.661235,38.9416428],[121.6654593,38.9401264],[121.6682358,38.9391474],[121.6706001,38.9382956]]}},{"type":"Feature","id":"way/153200621","properties":{"natural":"coastline","source":"bing","id":"way/153200621"},"geometry":{"type":"LineString","coordinates":[[121.6242769,38.9316833],[121.6236775,38.9326391],[121.6236949,38.932665],[121.6241508,38.93284],[121.6241129,38.9329021],[121.6236316,38.9327123],[121.6223943,38.9346854],[121.6204262,38.9339199],[121.6211963,38.9327484],[121.6217183,38.9308579],[121.6193907,38.9299792],[121.6180729,38.9320295],[121.6171435,38.931637],[121.6175512,38.9310099],[121.617865,38.9311188],[121.6179324,38.9310059],[121.6176373,38.9308872],[121.618447,38.929599],[121.6184387,38.9295774],[121.6186179,38.9292435],[121.6185503,38.9292013],[121.6183259,38.929495],[121.6180078,38.9293629],[121.6178224,38.9296458],[121.6177259,38.9296082],[121.6179134,38.9293065],[121.6177112,38.9292077],[121.617315,38.9298153],[121.6172844,38.929802],[121.6174733,38.9295112],[121.6172185,38.9294207],[121.6170412,38.9297019],[121.6167963,38.9296182],[121.6164043,38.9302388],[121.6160192,38.9300924],[121.6163872,38.9294733],[121.6158908,38.9292736],[121.6157747,38.9294305],[121.6141778,38.9287448],[121.6144704,38.9282884],[121.6144789,38.9281086],[121.6146774,38.9277673],[121.6145407,38.9277345],[121.6138559,38.928621],[121.6118104,38.9277856],[121.6117989,38.9278132],[121.6118149,38.9278569],[121.61192,38.9279092],[121.6118803,38.9279745],[121.6118035,38.9279361],[121.6117449,38.9279],[121.6117095,38.9278712],[121.6116943,38.927828],[121.6116965,38.9277353],[121.6106792,38.9285083],[121.6104741,38.9283641],[121.6096436,38.9289478],[121.609837,38.9291308],[121.6080494,38.930501],[121.6075576,38.9302958]]}},{"type":"Feature","id":"way/153200628","properties":{"bollard":"11","natural":"coastline","source":"bing","id":"way/153200628"},"geometry":{"type":"LineString","coordinates":[[121.6435005,38.9304326],[121.6430895,38.9304016],[121.6424758,38.9303392],[121.6423945,38.9305277],[121.6425143,38.9305742],[121.6419232,38.9317251],[121.641596,38.9316136],[121.6415788,38.9316468],[121.6414817,38.9316183],[121.6414383,38.931692],[121.6414958,38.9317155],[121.641483,38.9317463],[121.6414642,38.9317921],[121.6415396,38.9318506],[121.6415631,38.9319285],[121.6415888,38.9323478],[121.6417503,38.9326296],[121.6418197,38.9327466],[121.6422948,38.9325507],[121.6423312,38.9325918],[121.6414402,38.9329628],[121.6415509,38.9331356],[121.6424524,38.9327815],[121.6425072,38.9328914],[121.6413621,38.9333631],[121.6415204,38.9335928],[121.6426953,38.9331218],[121.6427808,38.9332805],[121.6427713,38.9333388],[121.6426995,38.933368],[121.6425852,38.9333452],[121.6425262,38.9333647],[121.6427058,38.9336608],[121.6429046,38.9336834],[121.6429914,38.9336488],[121.643012,38.9336745],[121.6453009,38.9327274],[121.6457043,38.9333528],[121.6421963,38.9347638],[121.6466611,38.9394049],[121.6468764,38.9396287],[121.6466117,38.9398022],[121.6462756,38.9394646],[121.6453192,38.9400346],[121.6456187,38.9403541],[121.6423558,38.942345],[121.6427182,38.9426234],[121.6441471,38.9436665],[121.6447203,38.9440142],[121.6450455,38.9441872],[121.6452679,38.9442803],[121.6453545,38.9442745],[121.6453787,38.944331],[121.6453303,38.944378],[121.6452351,38.9443278],[121.6450093,38.9442333],[121.6446797,38.9440579],[121.6441034,38.9437076],[121.6426706,38.9426625],[121.6422901,38.9423772],[121.6398168,38.9405227],[121.6375748,38.9388987],[121.6366934,38.9396175],[121.6332962,38.9382997],[121.6282303,38.9363494],[121.6289902,38.9350919],[121.629401,38.9350249],[121.6294188,38.9349271],[121.6292562,38.9348751],[121.6293684,38.9346987],[121.6293085,38.9345656],[121.6294711,38.9343326],[121.6289834,38.9345057],[121.6287438,38.9344258],[121.6286068,38.9345855],[121.6280848,38.9344724],[121.6278538,38.9345456],[121.6275115,38.9343992],[121.6271436,38.9349982],[121.6248417,38.9341196],[121.6259518,38.9323192],[121.6242769,38.9316833]]}},{"type":"Feature","id":"way/153243527","properties":{"natural":"coastline","source":"bing","id":"way/153243527"},"geometry":{"type":"LineString","coordinates":[[121.638205,38.9640566],[121.6386406,38.9626225],[121.6390577,38.9627018],[121.6397899,38.9603307],[121.6401699,38.9603811],[121.6393914,38.9630405],[121.6392431,38.963199],[121.6395489,38.9634513],[121.6395026,38.9637179],[121.6400772,38.9639053],[121.6401328,38.9637828],[121.6404665,38.9638621],[121.6402904,38.9643882],[121.6412358,38.9645251],[121.6411895,38.9647052],[121.6413934,38.9647341],[121.6413007,38.96508],[121.641727,38.9651376],[121.6418568,38.964698],[121.6426261,38.9648061],[121.6427558,38.9647341],[121.6435807,38.9610154],[121.6434998,38.9605987],[121.6427188,38.9583703],[121.6428763,38.9583343],[121.6429968,38.9582046],[121.6429783,38.9581037],[121.6431607,38.9580347],[121.6432378,38.9582478],[121.6438866,38.9603379],[121.6438681,38.9606406],[121.6436456,38.9617721],[121.6505044,38.9661466],[121.6504488,38.9663195],[121.6504858,38.9664708],[121.6495219,38.9690651],[121.650699,38.9697641],[121.6508181,38.9698961],[121.6510276,38.9700105],[121.6514664,38.9696383],[121.6513742,38.9695636],[121.6516853,38.9692568],[121.6521391,38.9688494],[121.6521934,38.9688879],[121.6535773,38.9675525],[121.6540442,38.9671097],[121.6539623,38.9670608],[121.6546977,38.9663379],[121.6548061,38.9664104],[121.6549971,38.9662308],[121.6549567,38.9662034],[121.655102,38.9660566],[121.6551441,38.9660906],[121.6553474,38.9658934],[121.6552894,38.96585],[121.6554306,38.9657196],[121.6554946,38.9657542],[121.6557595,38.9655005],[121.6557044,38.9654667],[121.6557976,38.9653819],[121.6559339,38.9654672],[121.6558501,38.9655468],[121.655823,38.9655337],[121.6555446,38.965797],[121.6555744,38.9658209],[121.6554374,38.9659485],[121.6554073,38.9659243],[121.6551995,38.9661265],[121.6552249,38.966152],[121.6550845,38.9662798],[121.6550666,38.966268],[121.6548709,38.9664647],[121.6549713,38.9665301],[121.6542355,38.9672267],[121.6541543,38.9671869],[121.6536527,38.9676595],[121.6523223,38.9689709],[121.6523735,38.969023],[121.651628,38.9697377],[121.6515596,38.9696913],[121.6511413,38.9700496],[121.6519059,38.9705511],[121.6520937,38.970619],[121.6549162,38.9724591],[121.655046,38.9727041],[121.6561675,38.9734175],[121.6570572,38.9726177],[121.6572704,38.9726537],[121.6575021,38.9724375],[121.6560284,38.9715368],[121.6561489,38.9714215],[121.6575856,38.9723294],[121.6579285,38.9720052],[121.6595783,38.9728771],[121.6594671,38.9729852],[121.6579007,38.9721637],[121.6577617,38.9723078]]}},{"type":"Feature","id":"way/154542349","properties":{"natural":"coastline","id":"way/154542349"},"geometry":{"type":"LineString","coordinates":[[121.5404939,38.8574101],[121.5408024,38.8577845],[121.5411509,38.8580717],[121.5416056,38.8583302],[121.5421366,38.8584835],[121.5424729,38.8585524],[121.5429528,38.858573],[121.5434134,38.858536],[121.5439785,38.8583906],[121.5443759,38.8581855],[121.5442742,38.8580596],[121.544421,38.8579776],[121.5444323,38.8579907],[121.5445665,38.857925],[121.5449139,38.8578445],[121.5452537,38.8578706],[121.5455683,38.8579412],[121.545869,38.8581412],[121.5460567,38.8583931],[121.5463469,38.8589216],[121.5465005,38.8594914],[121.5464893,38.8602043],[121.5463351,38.8605909],[121.5461928,38.8609396],[121.5458888,38.8614156],[121.5453101,38.8618944],[121.545003,38.8620899],[121.5445365,38.8623067],[121.5439094,38.8625161],[121.5434654,38.8625945],[121.5428823,38.8626363],[121.5422625,38.8627189],[121.5413452,38.8629474],[121.541306,38.8628451],[121.5398661,38.8632285]]}},{"type":"Feature","id":"way/154543104","properties":{"natural":"coastline","source":"PGS","id":"way/154543104"},"geometry":{"type":"LineString","coordinates":[[121.67284,38.9311916],[121.6728049,38.9312838],[121.6728169,38.9314221],[121.672832,38.9317043],[121.6727694,38.9319903],[121.6723985,38.9327015],[121.670832,38.9322066],[121.6705488,38.9321592],[121.670134,38.9321249],[121.6695409,38.932141],[121.6690682,38.9321023],[121.6687399,38.9320271],[121.6683215,38.9318727],[121.6677904,38.9315681],[121.6674976,38.9313874],[121.6670823,38.9312217],[121.6666862,38.931205],[121.666235,38.9313486],[121.6663415,38.9315438],[121.6660758,38.9316316],[121.6663605,38.9321569],[121.6682131,38.9355743],[121.6681029,38.9356166],[121.667235,38.9340032],[121.6670316,38.9340734],[121.6662508,38.9326539],[121.6646266,38.9331786],[121.6619818,38.9283387],[121.6591801,38.9292538]]}},{"type":"Feature","id":"way/157332637","properties":{"natural":"coastline","source":"Bing","id":"way/157332637"},"geometry":{"type":"LineString","coordinates":[[121.5398661,38.8632285],[121.5397962,38.8632644],[121.5396931,38.8633181],[121.5393975,38.8634397],[121.5388933,38.8636723],[121.5382168,38.863994],[121.5383041,38.8641131],[121.5383294,38.8641501],[121.5383715,38.8641663],[121.538415,38.8641521],[121.5384638,38.8642302],[121.5385327,38.8642194],[121.5386174,38.8641796],[121.5392103,38.8639044],[121.5393267,38.8640575],[121.5386892,38.8643471],[121.5386928,38.8644178],[121.5384167,38.8645463],[121.5384804,38.8646567]]}},{"type":"Feature","id":"way/157332642","properties":{"natural":"coastline","source":"PGS","id":"way/157332642"},"geometry":{"type":"LineString","coordinates":[[121.5384804,38.8646567],[121.5388469,38.8647135],[121.5393491,38.8646078],[121.53938,38.8647024],[121.5391114,38.8647508],[121.5394921,38.8648563],[121.5397518,38.8649388],[121.539971,38.8649615],[121.5402083,38.8649683],[121.5403924,38.8649759],[121.5405904,38.8649747],[121.5408063,38.8649449],[121.540935,38.8648957],[121.5413125,38.8645],[121.5413909,38.8643999],[121.5415184,38.8643555],[121.5416324,38.8643544],[121.5416479,38.8643429],[121.5415999,38.8643194],[121.5415011,38.8642966],[121.5414262,38.8642821],[121.5413213,38.8642525],[121.5413305,38.8642036],[121.5414761,38.8642115],[121.5416411,38.8642503],[121.5417191,38.8642803],[121.5417527,38.8643174],[121.5417233,38.8643784],[121.5418142,38.8644024],[121.541874,38.8643415],[121.5420477,38.8642623],[121.542237,38.8641872],[121.5424268,38.8641451],[121.5426351,38.8640544],[121.5425194,38.8637845],[121.5424455,38.8637507],[121.5424755,38.8636971],[121.5425778,38.8636557],[121.5426278,38.8637259],[121.5427025,38.863746],[121.5428116,38.8639806],[121.5428918,38.8640497],[121.5430132,38.8640832],[121.5431277,38.8640631],[121.5429912,38.8639003],[121.5428827,38.8637243],[121.542916,38.863676],[121.5430699,38.863755],[121.5432193,38.864043],[121.5433919,38.864175],[121.543787,38.864307],[121.5438658,38.8643831],[121.5438609,38.8644102],[121.5439278,38.8644414],[121.5441967,38.8646152],[121.5444681,38.8647898],[121.5446191,38.8649295],[121.5447706,38.864969],[121.5448141,38.8650444],[121.5450369,38.8651066],[121.5452494,38.8651285],[121.5453675,38.8651876],[121.5459375,38.8652205],[121.5462683,38.865391],[121.5463204,38.8655224],[121.5470426,38.8658623],[121.547612,38.8661222],[121.5477617,38.8660538],[121.5478692,38.8660336],[121.5481855,38.8660311],[121.5483126,38.8659925],[121.5483119,38.8659644],[121.5483694,38.8658935],[121.5484971,38.8658741],[121.5485597,38.8658925],[121.5485964,38.8659172],[121.5487255,38.8658697],[121.5492809,38.8656451],[121.5493128,38.8654616],[121.5494801,38.8650917],[121.5494642,38.8650445],[121.5494689,38.8649725],[121.5496835,38.864869],[121.5496903,38.864922],[121.5496383,38.8649378],[121.5496931,38.8649439],[121.5496955,38.8649631],[121.5496843,38.8650083],[121.5497158,38.8650274],[121.5497428,38.8648404],[121.5498338,38.8647965],[121.5498556,38.864833],[121.5498473,38.8648911],[121.5498939,38.8648858],[121.5499292,38.8649345],[121.5499973,38.86498],[121.5500805,38.8649664],[121.550093,38.8649944],[121.5500815,38.8650546],[121.5501427,38.8651454],[121.5501973,38.8652052],[121.5503324,38.8652562],[121.5505145,38.8652767],[121.5506337,38.865275],[121.5509922,38.8652589],[121.5516557,38.8652256],[121.5523311,38.8652126],[121.5525639,38.8652298],[121.552716,38.8653053],[121.5527841,38.8655036],[121.5526523,38.8656493],[121.5525315,38.8657609],[121.5524786,38.865857],[121.5525103,38.8659143],[121.5525317,38.8659949],[121.5527198,38.8660282],[121.5528784,38.86598],[121.553004,38.8659862],[121.5534099,38.8660061],[121.5534476,38.866008],[121.5535735,38.8660151],[121.5536301,38.8660183],[121.5538414,38.8660301],[121.5539551,38.8660365],[121.554169,38.8660443],[121.5542189,38.8660531],[121.5542658,38.8660779],[121.5543287,38.8661223],[121.5543536,38.8661748],[121.5543303,38.8663197],[121.5542623,38.8665716],[121.5541879,38.8669891],[121.5540881,38.8671926],[121.5538246,38.867689],[121.5538614,38.867816],[121.5544292,38.8684163],[121.55481,38.8687512],[121.5551336,38.8689839],[121.5552766,38.8690333],[121.5553397,38.8690763],[121.5554128,38.8690956],[121.5554042,38.8691469],[121.5553471,38.8692368],[121.5551533,38.8692791],[121.5551628,38.8693318],[121.5553431,38.8693559],[121.5554307,38.8693601],[121.5554908,38.8692983],[121.5555345,38.8692711],[121.5556607,38.8692364],[121.5557275,38.8692517],[121.5558166,38.8693285],[121.5559679,38.8692229],[121.5560402,38.8691049],[121.5561178,38.8690701],[121.5561884,38.8688832],[121.5562817,38.8687461],[121.5563934,38.8686939],[121.5569685,38.8686505],[121.5570234,38.8688996],[121.5571448,38.8689715],[121.5571887,38.8690996],[121.5574575,38.8691679],[121.5575278,38.8693321],[121.5576669,38.86932],[121.557773,38.8694195],[121.557751,38.8694813],[121.5577427,38.8695608],[121.5575672,38.8696505],[121.5576385,38.8697743],[121.5578359,38.8698042],[121.5580224,38.8700263],[121.5577153,38.87018],[121.5575836,38.8703465],[121.5576234,38.8704433],[121.5578963,38.8705643],[121.5579018,38.8706583],[121.5574794,38.8707565],[121.5575692,38.871148],[121.5579109,38.8717208],[121.5581086,38.8720069],[121.5583855,38.8723047],[121.55852,38.8723251],[121.5584541,38.8723728],[121.5584954,38.8724354],[121.558562,38.8724317],[121.5585788,38.8724487],[121.5585352,38.872468],[121.5586782,38.8726317],[121.5587587,38.8726801],[121.5591175,38.8730075],[121.5591579,38.8730017],[121.5592719,38.8729662],[121.5594028,38.8729852],[121.5594205,38.8730166],[121.5596544,38.8730186],[121.5594782,38.8731423],[121.5594228,38.8731201],[121.5593407,38.873177],[121.5592757,38.8732151],[121.5593228,38.873291],[121.559347,38.8733106],[121.559413,38.873329],[121.559511,38.87333],[121.5595238,38.8734741],[121.5594387,38.8734797],[121.5595288,38.8739271],[121.5595775,38.8742492],[121.5595795,38.8743331],[121.5595463,38.8744253],[121.559479,38.8744786],[121.5594579,38.8746511],[121.5593698,38.8747106],[121.5593288,38.8747722],[121.5594389,38.8749013],[121.5596342,38.8750671],[121.5598895,38.8752169]]}},{"type":"Feature","id":"way/695903205","properties":{"natural":"coastline","source":"PGS","id":"way/695903205"},"geometry":{"type":"LineString","coordinates":[[121.621193,38.862726],[121.6213633,38.8627629],[121.6222236,38.8625374],[121.6225246,38.8623825],[121.6233027,38.8623776],[121.6239571,38.8626377],[121.62482,38.8630201],[121.6251208,38.8630807],[121.6251451,38.8630415],[121.6251671,38.8630397],[121.6252094,38.8630363],[121.6252248,38.863035],[121.6252367,38.8630341],[121.625288,38.8631084],[121.62548,38.8632799],[121.6257827,38.8634027],[121.626084,38.8635249],[121.6265367,38.8635812],[121.627032,38.8635863],[121.6271631,38.8633972],[121.6271628,38.8632202],[121.6273978,38.8632378],[121.6274105,38.8633645],[121.6274744,38.8634912],[121.6278638,38.86362],[121.6282938,38.8636824],[121.6291399,38.8636871],[121.62925,38.8633464],[121.6294832,38.8631799],[121.6294371,38.8629864],[121.6295117,38.8626743],[121.629668,38.8626009],[121.629798,38.8624633],[121.6298687,38.8621411],[121.6298489,38.8616847],[121.630207,38.8609968],[121.63078,38.8608907],[121.6310368,38.8613875],[121.6319247,38.8618731],[121.6329612,38.8620257],[121.6337,38.8623501],[121.6350094,38.8622841],[121.6354208,38.8621097],[121.635527,38.8622416],[121.6358742,38.8620469],[121.6360099,38.86186],[121.6363401,38.86187],[121.6366601,38.8621301],[121.63764,38.8624],[121.63828,38.86266],[121.6383457,38.8627885],[121.6384927,38.8627544],[121.6385556,38.8628316],[121.6388913,38.8627146],[121.6391434,38.862724],[121.6393901,38.8627775],[121.6397108,38.8627063],[121.6401353,38.8628342],[121.6406552,38.8628946],[121.6410535,38.8627285],[121.6414581,38.8626837],[121.642287,38.8627476],[121.6429533,38.8629128],[121.643891,38.8627913],[121.6445359,38.8628326],[121.645148,38.8625453],[121.6454872,38.8624995],[121.6458981,38.8623478],[121.6461057,38.8623074],[121.6462866,38.8622149],[121.6479659,38.8621476],[121.6488325,38.8618716],[121.6491757,38.8619537],[121.6498099,38.86177],[121.6504145,38.8616559],[121.6509143,38.8613832],[121.651044,38.8613902],[121.6511612,38.861474],[121.6512094,38.8614846],[121.6511724,38.8613436],[121.6523793,38.8611441],[121.6524264,38.8611832],[121.6525428,38.8612009],[121.6526151,38.8611481],[121.6526448,38.8611129],[121.6528959,38.86115],[121.6529588,38.861158],[121.6531137,38.8611321],[121.6532527,38.8609982],[121.6535881,38.8608869],[121.6539561,38.8609189],[121.6543075,38.8612317],[121.6548625,38.861155],[121.6550838,38.8610433],[121.6551278,38.8609712],[121.6550707,38.8609091],[121.6550574,38.8608318],[121.6552206,38.8608242],[121.6552666,38.8607213]]}},{"type":"Feature","id":"way/695903206","properties":{"natural":"coastline","source":"bing","id":"way/695903206"},"geometry":{"type":"LineString","coordinates":[[121.611179,38.9499345],[121.6147856,38.9505204],[121.6167146,38.9508657],[121.617341,38.9505604],[121.6188777,38.9497474],[121.6191162,38.9496506],[121.6248631,38.9501122],[121.6252835,38.9502422],[121.625664,38.9504077],[121.6260038,38.9506245],[121.6263158,38.9509114],[121.6265549,38.9512391],[121.6267203,38.9515488],[121.6268297,38.9519154],[121.6268361,38.9522587],[121.6268139,38.9524462],[121.6266772,38.9528979],[121.6265893,38.9532933],[121.6265711,38.9536664],[121.6266341,38.9538435],[121.6267581,38.9539723],[121.6267143,38.9540817],[121.626612,38.9541572],[121.6265015,38.9541618],[121.6263878,38.9540738],[121.6263228,38.9540106],[121.6261342,38.9539579],[121.6260265,38.9537228],[121.6259587,38.9536977],[121.624798,38.9541291],[121.6246969,38.9541195],[121.6245945,38.9540824],[121.6245664,38.9539773],[121.6246029,38.9538753],[121.6240052,38.9527273],[121.6224385,38.9532073],[121.6213712,38.9542359],[121.6218066,38.9545378],[121.6220485,38.9546988],[121.6223457,38.9548698],[121.6234286,38.9549209],[121.6234685,38.9554037],[121.6234028,38.9554855],[121.6234011,38.955695],[121.6244604,38.9565385],[121.6250558,38.9565574],[121.6250295,38.9570542],[121.6251093,38.9570545],[121.625144,38.9569975],[121.6252254,38.9569578],[121.6253254,38.9569762],[121.6268305,38.9555817],[121.6269701,38.9556706],[121.6255242,38.9571307],[121.6255123,38.9571852],[121.6255865,38.9572655],[121.6268046,38.958046],[121.626888,38.9579811],[121.62813,38.9587235],[121.629988,38.9568985],[121.6322745,38.9583193],[121.6321765,38.9584202],[121.6302123,38.9572174],[121.6284356,38.9590357],[121.6284124,38.9593089],[121.6286046,38.9594464],[121.6287897,38.9595827],[121.6285764,38.9598125],[121.6286135,38.9598415],[121.6285828,38.9598751],[121.6285416,38.9598498],[121.6285047,38.9598955],[121.6284057,38.9598302],[121.6284221,38.9598172],[121.6282495,38.9597192],[121.6276103,38.9603181],[121.6298587,38.9613132],[121.6303518,38.961545],[121.6303674,38.9616316],[121.630488,38.9616953],[121.6304641,38.9619619],[121.6302633,38.9636898],[121.6295864,38.9636484],[121.629347,38.9666177],[121.6311807,38.9667067],[121.6315825,38.962048],[121.6344067,38.9622122],[121.6345699,38.9604314],[121.6340303,38.9593295],[121.6339932,38.9593382],[121.6338954,38.9591431],[121.6338688,38.9591184],[121.633844,38.9591293],[121.6332666,38.9585599],[121.6333969,38.9584826],[121.6340527,38.9591199],[121.6346659,38.9603754],[121.6344975,38.9622838],[121.6344975,38.9624784],[121.63435,38.9631429],[121.635205,38.9632626],[121.6354229,38.9631964],[121.6374095,38.960474],[121.6375915,38.9605614],[121.6365155,38.962043],[121.6369675,38.9622328],[121.6380604,38.9607456],[121.6382623,38.960834],[121.636438,38.9632673],[121.6366984,38.9633282],[121.637356,38.9634651],[121.6374357,38.9635017],[121.6373523,38.9639125],[121.638205,38.9640566]]}},{"type":"Feature","id":"way/695903207","properties":{"natural":"coastline","source":"Bing","id":"way/695903207"},"geometry":{"type":"LineString","coordinates":[[121.5168834,38.8337265],[121.5178786,38.8341805],[121.5180327,38.8343025],[121.518041,38.8345491],[121.5187289,38.8348697],[121.5197052,38.8355876],[121.5203757,38.8363991],[121.5207394,38.8372989],[121.5208414,38.8379427],[121.5208063,38.8386578],[121.520648,38.8392523],[121.5204791,38.8396359],[121.5200676,38.839803],[121.5197581,38.8400249],[121.51954,38.840414],[121.5194907,38.8407756],[121.519635,38.8411537],[121.5197055,38.8414949],[121.5196209,38.8417352],[121.5193274,38.8419327],[121.5189951,38.8419804],[121.5186898,38.8419272],[121.5181913,38.8416882],[121.5166783,38.8409299],[121.5162585,38.8411056],[121.516342,38.8413523],[121.5163918,38.8415833],[121.5170773,38.8420027],[121.5173371,38.8420466],[121.5178162,38.8424615],[121.5181187,38.8426848],[121.5183847,38.8428232],[121.5185382,38.8429296],[121.5186825,38.8430519],[121.5188449,38.8432842],[121.5192611,38.8440314],[121.5198489,38.8445918],[121.5204123,38.8450067],[121.5205625,38.8451098],[121.5208762,38.8452944],[121.5219042,38.8459278],[121.5219166,38.8459355],[121.5224762,38.8461131],[121.523337,38.8466442],[121.5236771,38.84658],[121.5239593,38.8467116],[121.5243503,38.8466828],[121.5246537,38.8466597],[121.524669,38.8466585],[121.5249292,38.8465324],[121.5251715,38.8462672],[121.525324,38.8461522],[121.5264119,38.846684],[121.5271495,38.8472389],[121.5277101,38.8473563],[121.5280743,38.8475439],[121.5289107,38.8476801],[121.5291161,38.8477231],[121.52935,38.8476249],[121.5299996,38.8470968],[121.5307517,38.8463895],[121.5310741,38.8458204],[121.5311712,38.8451827],[121.5310175,38.8450905],[121.5312392,38.8445419],[121.5316454,38.8442857],[121.532351,38.8442377],[121.5333835,38.8446702],[121.5344492,38.8452651],[121.5351739,38.8457887],[121.5358733,38.8465199],[121.5361029,38.8463985],[121.5362901,38.8465528],[121.5360557,38.8467291],[121.5364316,38.8472171],[121.5369927,38.8478752],[121.5375519,38.8490706],[121.5378104,38.8490435],[121.537861,38.8492326],[121.5376481,38.8492655],[121.5377545,38.8497232],[121.5379352,38.8505619],[121.5383381,38.8513248],[121.5391301,38.8522737],[121.5397701,38.8528297],[121.5403089,38.8531899],[121.5407835,38.8536498],[121.5410189,38.8541322],[121.541077,38.8546768],[121.5409643,38.8551396],[121.5407859,38.8554326],[121.5408439,38.8554636],[121.5407605,38.8555793],[121.5405903,38.8555144],[121.5403149,38.8559573],[121.5402557,38.8563305],[121.5402409,38.8566229],[121.540324,38.8570271],[121.5404939,38.8574101]]}},{"type":"Feature","id":"way/695904224","properties":{"natural":"coastline","id":"way/695904224"},"geometry":{"type":"LineString","coordinates":[[121.5989676,38.8725107],[121.5995765,38.8724062],[121.5999681,38.8723144],[121.6000593,38.8722037],[121.6002309,38.8720283],[121.6003299,38.87197],[121.600872,38.8718821],[121.6015833,38.8717299],[121.6016739,38.8716307],[121.6018142,38.8715748],[121.6019681,38.8715919],[121.6023438,38.871364],[121.602708,38.8711961],[121.6031089,38.8710353],[121.6030355,38.8708731],[121.6032393,38.870743],[121.6035465,38.8707097],[121.6047135,38.8700191],[121.6047799,38.8699472],[121.6051598,38.8692947],[121.6049663,38.868743],[121.6056599,38.86843],[121.6076501,38.8676901],[121.60896,38.86745],[121.6094266,38.8672646],[121.6098868,38.8669877],[121.6103629,38.8666452],[121.6110033,38.8662162],[121.6114599,38.86555],[121.6116044,38.8650491],[121.6120234,38.8644931],[121.6121126,38.8639447],[121.6127509,38.8637693],[121.6132988,38.8639689],[121.6139974,38.8638012],[121.6140859,38.8638722],[121.6141435,38.8637949],[121.614401,38.8633595],[121.6146909,38.8632138],[121.6151141,38.8632718],[121.6152762,38.8634657],[121.6157368,38.8635349],[121.6160452,38.8636665],[121.6165361,38.8637417],[121.6171235,38.8638106],[121.6188899,38.8637199],[121.6198075,38.8634583],[121.6202327,38.863309],[121.6207403,38.8631113],[121.6208283,38.8627988]]}},{"type":"Feature","id":"way/695930100","properties":{"natural":"coastline","id":"way/695930100"},"geometry":{"type":"LineString","coordinates":[[121.6591801,38.9292538],[121.6587433,38.9293939],[121.6584174,38.9294982],[121.6583329,38.9295181],[121.6583128,38.9295311],[121.6583034,38.9295473],[121.6583101,38.9295786],[121.658628,38.930168],[121.6588098,38.9305079],[121.6588297,38.9305451],[121.6588747,38.9306291],[121.6593522,38.9315055],[121.6601193,38.9329618],[121.6609333,38.9344833],[121.6609434,38.9345107],[121.660937,38.9345251],[121.6609173,38.9345371],[121.6595627,38.9350023],[121.6594816,38.9350206],[121.659434,38.9350175],[121.6594018,38.9349914],[121.6593656,38.9349231],[121.6583598,38.9331413],[121.6583076,38.933052],[121.6575283,38.9317183],[121.6567411,38.9303235],[121.6567102,38.930288],[121.6566794,38.9302797],[121.6566432,38.9302859],[121.6562301,38.9304281],[121.6561848,38.9304296],[121.6561429,38.9304171],[121.6561188,38.9303876],[121.6560819,38.9303152],[121.65605,38.9302525],[121.6560242,38.9302327],[121.6559927,38.9302296],[121.6559632,38.9302369],[121.6538431,38.9309306],[121.6538149,38.9309399],[121.6537955,38.930951],[121.6537941,38.9309615],[121.6538012,38.9309788],[121.6544464,38.932194],[121.6545483,38.9323401],[121.6546476,38.9325299],[121.6547415,38.9327135],[121.6548246,38.9328554],[121.6548729,38.9329743],[121.6549161,38.933068],[121.6549342,38.9331008],[121.654952,38.933136],[121.6549711,38.933171],[121.6549946,38.9332203],[121.6550224,38.9332657],[121.6550432,38.9333061],[121.6551103,38.9334407],[121.6552719,38.9337348],[121.6553751,38.9339247],[121.6554194,38.9339456],[121.6554476,38.9339492],[121.6554811,38.9339487],[121.6555696,38.9339231],[121.6556413,38.9339023],[121.6556796,38.9339065],[121.6556963,38.9339153],[121.6557084,38.9339414],[121.6560249,38.934511],[121.6560397,38.9345412],[121.6560343,38.9345663],[121.6560209,38.9345903],[121.6559087,38.9346259],[121.6558532,38.9346435],[121.6558264,38.9346643],[121.6558211,38.9346967],[121.6558385,38.9347353],[121.6561711,38.9353341],[121.6564527,38.9358619],[121.6564956,38.9359391],[121.6565117,38.9359735],[121.6565104,38.9359923],[121.6564903,38.9360038],[121.6564554,38.9360184],[121.6557017,38.9362688],[121.6552559,38.9364315],[121.6552086,38.9364482],[121.65243,38.9314497],[121.6495965,38.9323323],[121.6523315,38.9374077],[121.6521075,38.9374688],[121.6515979,38.9376207],[121.6505485,38.9379816],[121.6504835,38.9380014],[121.6504543,38.9380017],[121.6504245,38.9379824],[121.6503775,38.9379003],[121.6502924,38.9377287],[121.6498545,38.9369343],[121.6495031,38.9362625],[121.6492912,38.9358744],[121.6487789,38.9349231],[121.6483927,38.9342199],[121.647985,38.9334959],[121.6475934,38.9327678],[121.6472393,38.9321043],[121.647005,38.931658],[121.646902,38.9314669],[121.6468551,38.9314017],[121.6468021,38.9313584],[121.6466975,38.9313219],[121.6460632,38.9310537],[121.6455777,38.930843],[121.6452558,38.9307043],[121.6450292,38.9306093],[121.6449501,38.930578],[121.6448817,38.9305603],[121.6448052,38.9305467],[121.6447583,38.9305436],[121.6446979,38.9305426],[121.6445759,38.9305227],[121.6445196,38.9305154],[121.6442031,38.9304831],[121.6441615,38.930481],[121.6437216,38.9304445],[121.6436867,38.9304424],[121.6435005,38.9304326]]}},{"type":"Feature","id":"way/695959603","properties":{"natural":"coastline","source":"PGS","id":"way/695959603"},"geometry":{"type":"LineString","coordinates":[[121.7112799,38.89521],[121.7116099,38.89534],[121.7124128,38.8957318],[121.712302,38.8960167],[121.7124113,38.8961158],[121.7126848,38.8960596],[121.7127705,38.8962429],[121.7124047,38.8964106],[121.7122504,38.8965692],[121.7123653,38.8967745],[121.7125718,38.8969154],[121.7128322,38.8970239],[121.7131835,38.8968008],[121.7132404,38.896652],[121.7137492,38.8966336],[121.7139771,38.8969018],[121.7140401,38.8970301],[121.7139342,38.8971098],[121.7137721,38.8971459],[121.7136284,38.8973015],[121.7138917,38.8974152],[121.71387,38.89755],[121.7142,38.89768],[121.7142229,38.8978207],[121.7147579,38.8981831],[121.7145705,38.8983038],[121.7146618,38.8984978],[121.7145392,38.8986593],[121.7143484,38.8986848],[121.7142409,38.8987449],[121.7142257,38.8990413],[121.7142169,38.8992563],[121.7144587,38.8996707],[121.7146396,38.899813],[121.7149972,38.900217],[121.7155856,38.9003134],[121.7156391,38.9005165],[121.71544,38.90142],[121.7159398,38.901631],[121.7162083,38.902001],[121.7164555,38.9025675],[121.7163927,38.9026857],[121.7166915,38.9027325],[121.7166838,38.9027915],[121.7165824,38.9029392],[121.7167209,38.9030381],[121.7166763,38.9031673],[121.7166195,38.9033246],[121.7164726,38.9033374],[121.7166922,38.9038617],[121.7170452,38.9040282],[121.7172,38.904],[121.71736,38.90425],[121.7172086,38.9044246],[121.7168368,38.9044409],[121.7168002,38.9045105],[121.7165188,38.9045243],[121.7164903,38.904581],[121.7163475,38.9046077],[121.7162727,38.9047772],[121.7162554,38.9049468],[121.7161179,38.9049509],[121.7157101,38.9050423],[121.7150864,38.9049046],[121.7147157,38.9049849],[121.7145535,38.9050946],[121.7146106,38.9052293],[121.7140755,38.905461],[121.7138222,38.9058533],[121.7136112,38.9058416],[121.7135138,38.9059711],[121.713556,38.9063056],[121.7137586,38.9070065],[121.7138262,38.9072427],[121.7139693,38.907655],[121.7141253,38.9078477],[121.7143405,38.9086623],[121.7144958,38.9092144],[121.7146739,38.9098289],[121.7150997,38.9113639],[121.7153434,38.9120919],[121.7156019,38.9129574],[121.7158315,38.9137023],[121.7159535,38.9142029],[121.7159845,38.9147459],[121.7158103,38.9154526],[121.7155278,38.9160112],[121.7151014,38.9165507],[121.7146107,38.9169959],[121.7138393,38.9174491],[121.7128591,38.9177813],[121.711556,38.9181381],[121.7097361,38.9186683],[121.70878,38.9189631],[121.7080335,38.9191776],[121.7079236,38.91924],[121.7079091,38.9192837],[121.7079334,38.91932],[121.7078961,38.9194008],[121.7078179,38.9194314],[121.707715,38.9194287],[121.7075224,38.9194955],[121.7073407,38.9196351],[121.7071668,38.9199348],[121.7071602,38.9200308],[121.7071953,38.9200812],[121.7071629,38.9201517],[121.7070164,38.9202564],[121.7065389,38.9204901],[121.7027999,38.9215544],[121.7025585,38.9216003],[121.7022206,38.921617],[121.7017378,38.9215251],[121.7012174,38.9213832],[121.7007561,38.9213665],[121.7002135,38.9214314],[121.7001433,38.9213464],[121.6941517,38.9231258],[121.6892808,38.9245447],[121.6882059,38.9248546],[121.6846781,38.9258719],[121.6826718,38.9264394],[121.6791723,38.9274847],[121.6790275,38.9275432],[121.6789202,38.9276517],[121.6788183,38.927852],[121.6786091,38.9288118],[121.6785501,38.9290121],[121.6783583,38.9291102],[121.6749563,38.9300756],[121.6749119,38.9300298],[121.6748464,38.930032],[121.6747607,38.9299789],[121.6746943,38.9298859],[121.674717,38.9297749],[121.6748077,38.9297012],[121.6749241,38.9296809],[121.6750509,38.9297131],[121.6752222,38.9296674],[121.675114,38.9294837],[121.6755182,38.9293647],[121.6755736,38.9294787],[121.6778446,38.928811],[121.6770495,38.9271744],[121.6768879,38.9271087],[121.676977,38.9270295],[121.6771292,38.9270761],[121.6769411,38.9269469],[121.6738515,38.927857],[121.6735379,38.927944],[121.6741643,38.9293063],[121.6741423,38.9293774],[121.6732787,38.9310006],[121.6729783,38.9311092],[121.67284,38.9311916]]}},{"type":"Feature","id":"way/695959605","properties":{"natural":"coastline","source":"PGS","id":"way/695959605"},"geometry":{"type":"LineString","coordinates":[[121.6740068,38.8713992],[121.6750795,38.8723849],[121.6751259,38.8724039],[121.6751462,38.8724369],[121.6751351,38.8724722],[121.675108,38.872501],[121.6750674,38.8725146],[121.6750144,38.8725135],[121.6749768,38.8724861],[121.6749768,38.8724563],[121.6749527,38.8724377],[121.6742912,38.8729057],[121.6747914,38.8733498],[121.6751948,38.8735816],[121.6753667,38.8735469],[121.675424,38.8735922],[121.6756211,38.8735299],[121.6758031,38.8734875],[121.6761989,38.8735849],[121.6762393,38.8739714],[121.6764494,38.8745331],[121.676793,38.8745768],[121.6770597,38.8748686],[121.6769214,38.8754932],[121.6771962,38.8758135],[121.677675,38.8759365],[121.6789179,38.8760555],[121.6788938,38.8757523],[121.6790301,38.8757514],[121.6790579,38.8760525],[121.6792705,38.8760471],[121.6792601,38.8758192],[121.6794328,38.875818],[121.6796307,38.8756218],[121.6797622,38.875453],[121.6798874,38.87516],[121.67949,38.8746636],[121.6795782,38.874634],[121.6799559,38.8750866],[121.6803848,38.8750051],[121.6808017,38.873902],[121.6806141,38.8735375],[121.6790263,38.8724353],[121.6785007,38.8723492],[121.6785519,38.8720985],[121.6791477,38.8721745],[121.6809766,38.8735725],[121.6811764,38.8735533],[121.6813036,38.8736379],[121.6819973,38.8735809],[121.6825708,38.8729583],[121.68278,38.8729299],[121.6830697,38.8728501],[121.6831555,38.8728636],[121.6834597,38.8727524],[121.6835385,38.8726409],[121.6832038,38.8721504],[121.683154,38.8721656],[121.6831064,38.8721436],[121.6829346,38.8716609],[121.6828607,38.8709561],[121.683298,38.8698734],[121.6832176,38.8692716],[121.682851,38.8692674],[121.6828416,38.8684238],[121.6831057,38.8684167],[121.683146,38.8678618],[121.6832247,38.867471],[121.6834617,38.8670588],[121.6841835,38.8665062],[121.6850072,38.8662938],[121.685923,38.8662862],[121.6871657,38.8665822],[121.6879932,38.8668325],[121.6884372,38.8669083],[121.6888001,38.86696],[121.6896565,38.8670447],[121.6902799,38.8667199],[121.6907678,38.8662676],[121.6908519,38.8656032],[121.6905194,38.8654732],[121.6901991,38.8654008],[121.6899355,38.8649191],[121.6901174,38.8646865],[121.690194,38.8642445],[121.6898698,38.8641004],[121.689303,38.863771],[121.6893747,38.8636612],[121.6901944,38.8637706],[121.690442,38.8640526],[121.690337,38.8640984],[121.6903875,38.864301],[121.6904872,38.8643426],[121.690826,38.8641603],[121.6909535,38.8641305],[121.6911091,38.8641644],[121.6911501,38.8640399],[121.691313,38.8638622],[121.6916173,38.8637967],[121.6918705,38.8639939],[121.6918613,38.8641397],[121.6930656,38.8644132],[121.6930278,38.8647152],[121.6925939,38.8647688],[121.6925837,38.8648772],[121.69289,38.8650126],[121.69277,38.86521],[121.6925405,38.8652626],[121.6923478,38.8652876],[121.6922671,38.865379],[121.6920215,38.8653474],[121.6921554,38.8656788],[121.6922983,38.8656471],[121.6923922,38.865565],[121.6925601,38.8654181],[121.6927458,38.8654567],[121.6930061,38.8653095],[121.69343,38.86534],[121.6936908,38.8653698],[121.6944369,38.8656684],[121.6947299,38.866],[121.6950248,38.8660267],[121.6954498,38.8663912],[121.6957605,38.8664338],[121.6958894,38.8666903],[121.6963143,38.8669565],[121.6964433,38.867177],[121.6963031,38.8672246],[121.6960476,38.8671621],[121.6958572,38.8670459],[121.6957204,38.8671539],[121.6958276,38.8672364],[121.6958754,38.8673421],[121.695739,38.8674327],[121.695539,38.8674611],[121.6950427,38.8674163],[121.6950593,38.8675621],[121.6956603,38.8676377],[121.6963285,38.8678834],[121.6966065,38.8681245],[121.6964852,38.8682876],[121.696,38.8684601],[121.6958299,38.8685901],[121.6956694,38.8686789],[121.6953146,38.8687435],[121.6955021,38.8690198],[121.69565,38.86909],[121.6962284,38.8691484],[121.6963535,38.8693268],[121.6963473,38.8697097],[121.6963117,38.8699365],[121.6965294,38.8699365],[121.6965455,38.8699962],[121.6961301,38.8701301],[121.6960009,38.8704212],[121.6958174,38.8707563],[121.6959399,38.87089],[121.696078,38.8709464],[121.6966216,38.8706874],[121.6969746,38.8707014],[121.6969336,38.871217],[121.6972423,38.8712849],[121.6975971,38.8711795],[121.6975901,38.8710399],[121.6978456,38.8707619],[121.6985801,38.8708001],[121.6988164,38.8708852],[121.6989919,38.8709659],[121.6994148,38.8709181],[121.6996585,38.8708047],[121.7003521,38.870954],[121.7005452,38.8718595],[121.7003891,38.87198],[121.7004988,38.8723597],[121.7006781,38.872506],[121.701544,38.8723894],[121.7022685,38.8726593],[121.703072,38.8724187],[121.703176,38.8729939],[121.7030137,38.8731761],[121.7032799,38.87432],[121.7036099,38.8745801],[121.70376,38.87509],[121.7044783,38.8752967],[121.7044531,38.8760923],[121.70488,38.8769],[121.70487,38.87741],[121.7046134,38.8777374],[121.7048499,38.8781799],[121.705074,38.8791624],[121.7053177,38.8796187],[121.70565,38.8796099],[121.7058377,38.879828],[121.706503,38.8799309],[121.7066647,38.8795239],[121.7070635,38.8794811],[121.7072643,38.8798898],[121.70712,38.8802601],[121.70711,38.88078],[121.70743,38.8810401],[121.70742,38.8818101],[121.70741,38.8820699],[121.70775,38.88233],[121.7077299,38.8828399],[121.70756,38.88297]]}},{"type":"Feature","id":"way/695973046","properties":{"natural":"coastline","source":"bing","id":"way/695973046"},"geometry":{"type":"LineString","coordinates":[[121.6075576,38.9302958],[121.6064523,38.9298394],[121.6062601,38.9294277],[121.6060543,38.9293919],[121.6059567,38.9293403],[121.6059268,38.9292886],[121.6058727,38.9291138],[121.6057924,38.9290156],[121.6052029,38.9288808],[121.6049431,38.9287157],[121.6047106,38.9290861],[121.6047479,38.9291412],[121.6047583,38.9292005],[121.6047509,38.9296525],[121.6047702,38.9296351],[121.6052199,38.9300146],[121.6058263,38.9303186],[121.6060119,38.9304417],[121.6058938,38.9305386],[121.6069653,38.931278],[121.6066922,38.9315243],[121.6068887,38.9315768],[121.6069062,38.9315016],[121.607017,38.9315305],[121.6069202,38.9317236],[121.6084375,38.932096],[121.6076246,38.9338267],[121.6161732,38.9357171]]}},{"type":"Feature","id":"way/696070775","properties":{"natural":"coastline","source":"PGS","id":"way/696070775"},"geometry":{"type":"LineString","coordinates":[[121.5598895,38.8752169],[121.5605101,38.8755999],[121.5608714,38.8758145],[121.5620725,38.8762411],[121.5624462,38.8763116],[121.5631081,38.8763535],[121.5637522,38.8763574],[121.5640549,38.8763653],[121.5642968,38.8763503],[121.5645377,38.8763161],[121.5647107,38.8761148],[121.5648613,38.8757449],[121.5649788,38.8755164],[121.5648826,38.8753623],[121.5647651,38.8750693],[121.5646776,38.8745881],[121.5646776,38.8741568],[121.5648049,38.8741585],[121.5648022,38.8746088],[121.5647651,38.8746253],[121.564789,38.8748318],[121.5648218,38.875004],[121.5649564,38.8753072],[121.5650766,38.8754559],[121.5659734,38.8752485],[121.5663892,38.8749783],[121.5667746,38.8749328],[121.5669421,38.8745067],[121.5671388,38.8742058],[121.5674832,38.8740282],[121.5691094,38.8735406],[121.5693946,38.8735429],[121.5694446,38.8736001],[121.5693979,38.8736563],[121.5691123,38.8736642],[121.5678714,38.8740305],[121.5678772,38.87409],[121.5676096,38.8741747],[121.5675714,38.8741175],[121.5673126,38.8742388],[121.5671303,38.8744563],[121.5670244,38.8747562],[121.5671274,38.8747814],[121.5670597,38.8750378],[121.5670391,38.8753057],[121.5670568,38.875553],[121.567145,38.8758208],[121.5672332,38.8760337],[121.5672729,38.8760902],[121.5673072,38.8761459],[121.5673506,38.8762094],[121.5674979,38.8764252],[121.5675659,38.8763895],[121.5675704,38.8766114],[121.5677704,38.8767008],[121.5678155,38.8767777],[121.5677452,38.876849],[121.5676729,38.8768128],[121.5676741,38.876783],[121.5674048,38.8766474],[121.5672188,38.876702],[121.5666618,38.8776757],[121.5666699,38.8778278],[121.5667657,38.8779576],[121.568216,38.8784278],[121.5692495,38.8786071],[121.5692645,38.876925],[121.5692651,38.876749],[121.5702499,38.8758582],[121.5703517,38.8747437],[121.5696361,38.8746902],[121.5684835,38.8746273],[121.5684999,38.8744745],[121.570243,38.874577],[121.5703449,38.8745339],[121.571859,38.8746212],[121.5719341,38.8747037],[121.571873,38.8747996]]}},{"type":"Feature","id":"way/924861217","properties":{"natural":"coastline","source":"bing","id":"way/924861217"},"geometry":{"type":"LineString","coordinates":[[121.6113698,38.9493233],[121.611179,38.9499345]]}},{"type":"Feature","id":"way/1228226573","properties":{"natural":"coastline","source":"PGS","id":"way/1228226573"},"geometry":{"type":"LineString","coordinates":[[121.6208283,38.8627988],[121.6208383,38.8627619],[121.6208864,38.8627537],[121.6208895,38.8626102],[121.620932,38.8626386],[121.621172,38.8626739],[121.621193,38.862726]]}}]}