{"type":"FeatureCollection","features":[{"type":"Feature","id":"way/55959661","properties":{"leisure":"park","name":"劳动公园","name:en":"Labor Park","name:ru":"Парк Труда","name:zh-Latn-pinyin":"láodòng gōngyuán","id":"way/55959661"},"geometry":{"type":"Polygon","coordinates":[[[121.6330529,38.9112641],[121.6330491,38.9115039],[121.6336512,38.9116509],[121.6331568,38.9125883],[121.6323499,38.9142886],[121.6322658,38.9143417],[121.6321492,38.9143821],[121.6320014,38.9143976],[121.6287841,38.9136478],[121.6269652,38.9132007],[121.62725,38.9129069],[121.6269454,38.9125995],[121.6267468,38.9116625],[121.6267402,38.9114168],[121.626746,38.9113533],[121.6266965,38.9097914],[121.6271617,38.9097766],[121.6273136,38.9084468],[121.6280447,38.908203],[121.6278548,38.9077967],[121.628396,38.9074199],[121.6288707,38.9075307],[121.6290502,38.9073858],[121.6292504,38.9072204],[121.6295353,38.9071613],[121.6303138,38.9072499],[121.6308683,38.9072068],[121.6313162,38.906994],[121.6315939,38.9068182],[121.6319629,38.9067058],[121.6323525,38.9066822],[121.6327013,38.9067476],[121.6328698,38.9068238],[121.6328452,38.9069131],[121.6328155,38.907045],[121.6325463,38.9071887],[121.6326871,38.9074904],[121.6315573,38.9077665],[121.6313203,38.9087322],[121.6307968,38.9091321],[121.6320931,38.9099828],[121.6319459,38.9105113],[121.6319352,38.9105785],[121.6330529,38.9112641]]]}},{"type":"Feature","id":"way/156122414","properties":{"leisure":"park","name":"西尖山公园","name:en":"Xijianshan Park","name:ru":"Парк Орлиное гнездо","name:zh":"西尖山公园","name:zh-Latn-pinyin":"xījiānshān gōngyuán","natural":"wood","id":"way/156122414"},"geometry":{"type":"Polygon","coordinates":[[[121.5421878,38.8710093],[121.5420239,38.8709717],[121.5422468,38.870199],[121.5425228,38.8696728],[121.543424,38.8695016],[121.5435001,38.869455],[121.5437987,38.8690883],[121.5433992,38.8689461],[121.5432173,38.8688934],[121.5432936,38.8687377],[121.543157,38.8686021],[121.5429951,38.8685503],[121.5430639,38.8683608],[121.5432507,38.8681448],[121.5430507,38.868036],[121.5426852,38.8677515],[121.5425067,38.8679864],[121.5420264,38.868036],[121.5420181,38.8681646],[121.5419685,38.8682645],[121.5418981,38.8683345],[121.5410583,38.868223],[121.5407174,38.8683051],[121.5404241,38.8682273],[121.5403132,38.8680158],[121.5402078,38.8678633],[121.5403085,38.8676882],[121.5402686,38.867561],[121.5400572,38.8675887],[121.5398691,38.8675487],[121.5396524,38.8673693],[121.5393212,38.8672164],[121.5391647,38.8671806],[121.5390434,38.867194],[121.5389022,38.8670437],[121.5390026,38.8668451],[121.5391526,38.866778],[121.5394141,38.8667226],[121.5394488,38.8666422],[121.539652,38.8666766],[121.5396579,38.8665508],[121.5401893,38.8661989],[121.5403852,38.8661676],[121.5404662,38.8660733],[121.540444,38.8660085],[121.5403525,38.865988],[121.5403648,38.8657291],[121.5403681,38.8656583],[121.5404845,38.8655499],[121.5404531,38.8655088],[121.5403514,38.8654852],[121.5404725,38.8654021],[121.5405971,38.8654196],[121.5406605,38.865422],[121.5407293,38.865374],[121.5408077,38.8653426],[121.5408175,38.8652778],[121.5408372,38.8652607],[121.5408881,38.8652659],[121.540942,38.8652352],[121.5411051,38.8652975],[121.5413971,38.8649405],[121.5413496,38.8649114],[121.5413937,38.8648618],[121.5415079,38.8648484],[121.5415448,38.8647871],[121.5416658,38.864699],[121.5417035,38.8645939],[121.5417845,38.8645233],[121.5418142,38.8644024],[121.541874,38.8643415],[121.5420477,38.8642623],[121.542237,38.8641872],[121.5424268,38.8641451],[121.5426351,38.8640544],[121.5425194,38.8637845],[121.5424455,38.8637507],[121.5424755,38.8636971],[121.5425778,38.8636557],[121.5426278,38.8637259],[121.5427025,38.863746],[121.5428116,38.8639806],[121.5428918,38.8640497],[121.5430132,38.8640832],[121.5431277,38.8640631],[121.5429912,38.8639003],[121.5428827,38.8637243],[121.542916,38.863676],[121.5430699,38.863755],[121.5432193,38.864043],[121.5433919,38.864175],[121.543787,38.864307],[121.5438658,38.8643831],[121.5438609,38.8644102],[121.5439278,38.8644414],[121.5441967,38.8646152],[121.5444681,38.8647898],[121.5446191,38.8649295],[121.5447706,38.864969],[121.5448141,38.8650444],[121.5450369,38.8651066],[121.5452494,38.8651285],[121.5453675,38.8651876],[121.5453042,38.8653025],[121.5454605,38.8654019],[121.5457878,38.8654904],[121.546088,38.8656894],[121.5463658,38.8659326],[121.5470204,38.8662755],[121.5470246,38.8663748],[121.5470729,38.8665161],[121.5472288,38.8669722],[121.5472752,38.8670636],[121.5473368,38.8671847],[121.5474501,38.867439],[121.54748,38.8675622],[121.5475306,38.8678247],[121.5475327,38.8678358],[121.5474814,38.8678793],[121.5473844,38.8679045],[121.547285,38.8679304],[121.5470255,38.8680239],[121.5462776,38.868244],[121.5462107,38.8682737],[121.546098,38.8683773],[121.5460609,38.8684114],[121.5460928,38.8685493],[121.5462135,38.8685952],[121.5465974,38.8685451],[121.5474074,38.8685096],[121.5476434,38.8686078],[121.5480592,38.8693616],[121.5481208,38.8696081],[121.5482062,38.8701671],[121.5481127,38.8703921],[121.5478066,38.8704021],[121.5476664,38.8705046],[121.5476451,38.8706535],[121.5477388,38.8707084],[121.5487267,38.8706686],[121.5488473,38.8707924],[121.5488356,38.8709256],[121.5487044,38.8709407],[121.5486439,38.871145],[121.5484105,38.8714123],[121.5482062,38.8715271],[121.5480021,38.8716198],[121.5478847,38.8716266],[121.547634,38.8717616],[121.5475814,38.8719275],[121.5473365,38.8719955],[121.547192,38.8721925],[121.5468439,38.8724001],[121.5467723,38.8725085],[121.5466187,38.8727288],[121.5465753,38.8728592],[121.5465036,38.8729455],[121.5463652,38.8730148],[121.5462292,38.873008],[121.5460904,38.872986],[121.5457885,38.8729764],[121.5454924,38.8730036],[121.5452689,38.8730546],[121.5450701,38.8726078],[121.5449266,38.8726353],[121.5447357,38.8725955],[121.544578,38.8727626],[121.5448525,38.872845],[121.5449332,38.8730055],[121.5449985,38.8731936],[121.5440785,38.8737156],[121.5440397,38.8736782],[121.5441191,38.8732725],[121.5441313,38.8732412],[121.5444437,38.8724414],[121.544578,38.8723613],[121.5446518,38.8721618],[121.5443752,38.8718929],[121.5443781,38.8717486],[121.5444888,38.8713891],[121.5444815,38.8713237],[121.5444189,38.871362],[121.5441147,38.8718208],[121.5439215,38.8721],[121.5435925,38.8722407],[121.5434945,38.8722183],[121.5433873,38.8721937],[121.5431387,38.8720123],[121.5429813,38.871276],[121.5429496,38.8712385],[121.5428353,38.8711984],[121.5426589,38.8711724],[121.5428189,38.870865],[121.5426242,38.8708193],[121.5424257,38.8711482],[121.5422142,38.8711399],[121.5421068,38.871117],[121.5421878,38.8710093]]]}},{"type":"Feature","id":"way/163222355","properties":{"leisure":"park","name":"儿童公园","name:en":"Children's Park","name:zh":"儿童公园","name:zh-Latn-pinyin":"értóng gōngyuán","id":"way/163222355"},"geometry":{"type":"Polygon","coordinates":[[[121.6470381,38.9157149],[121.6459233,38.914861],[121.6465905,38.9140528],[121.6467116,38.9140053],[121.6468475,38.913952],[121.6479204,38.9140146],[121.6486231,38.9141732],[121.6487057,38.9141924],[121.6495726,38.9143944],[121.6498432,38.9144366],[121.6503665,38.9144612],[121.651338,38.914466],[121.6515628,38.9145737],[121.6515794,38.9147039],[121.6514453,38.9147999],[121.6503617,38.9152465],[121.6498575,38.9153676],[121.6490421,38.9155429],[121.6476902,38.9156305],[121.6472136,38.915637],[121.6470381,38.9157149]]]}},{"type":"Feature","id":"way/163224126","properties":{"leisure":"park","name":"大连植物园","name:en":"Dalian Botanical Garden","name:zh-Latn-pinyin":"dàlián zhíwùyuán","id":"way/163224126"},"geometry":{"type":"Polygon","coordinates":[[[121.6516969,38.9113058],[121.6521153,38.9106546],[121.6524801,38.9101955],[121.6524485,38.9096616],[121.6523299,38.9090517],[121.6523519,38.9085262],[121.6529956,38.9078499],[121.6535101,38.907574],[121.6545186,38.9076575],[121.6551521,38.9072572],[121.6556344,38.9070814],[121.6570404,38.9071204],[121.6571261,38.907132],[121.6571943,38.9071538],[121.6572602,38.9072077],[121.6572774,38.9072882],[121.6572547,38.9073652],[121.6569219,38.907933],[121.656504,38.9083509],[121.6555787,38.9089121],[121.6554161,38.9091064],[121.6554305,38.9092771],[121.6554525,38.909553],[121.6550121,38.9098949],[121.6539178,38.9102539],[121.6521373,38.9112394],[121.6516969,38.9113058]]]}},{"type":"Feature","id":"way/163566872","properties":{"leisure":"park","name":"红叶广场","id":"way/163566872"},"geometry":{"type":"Polygon","coordinates":[[[121.6420007,38.9125493],[121.6422375,38.911867],[121.6423329,38.9118064],[121.6426577,38.9118062],[121.6427071,38.9118268],[121.6427458,38.9118548],[121.6427597,38.9119089],[121.642752,38.9119786],[121.6425024,38.9125618],[121.6424778,38.9126016],[121.6424506,38.9126364],[121.642409,38.912653],[121.6420669,38.9126507],[121.6420311,38.9126381],[121.6420099,38.9126206],[121.6419982,38.9125846],[121.6420007,38.9125493]]]}},{"type":"Feature","id":"way/164816992","properties":{"leisure":"park","name":"傅家庄公园","name:en":"Fujiazhuang Park","name:ru":"Парк \"Ракушка\"","name:zh":"傅家庄公园","name:zh-Latn-pinyin":"Fù Jiā Zhuāng Gōngyuán","id":"way/164816992"},"geometry":{"type":"Polygon","coordinates":[[[121.6153262,38.8661267],[121.6151649,38.8658708],[121.6150472,38.865684],[121.6145322,38.8658093],[121.6141353,38.8652997],[121.6141675,38.8650491],[121.6140297,38.8643345],[121.6139422,38.8641636],[121.6141353,38.8639882],[121.614345,38.8637133],[121.6144571,38.8635037],[121.614764,38.8633462],[121.6151331,38.8634702],[121.6153187,38.8635646],[121.6159961,38.8639089],[121.6166244,38.8644243],[121.6177856,38.8644155],[121.6192144,38.8641795],[121.6209633,38.8635942],[121.621113,38.8631646],[121.6213608,38.8628684],[121.62223,38.8628318],[121.6225574,38.8632363],[121.6227183,38.8638295],[121.622638,38.8641603],[121.6226015,38.8641603],[121.6225145,38.8648403],[121.6226754,38.8649405],[121.6226862,38.8655002],[121.6227613,38.8661685],[121.6226491,38.8665369],[121.6221973,38.8659763],[121.6221993,38.8655504],[121.6220666,38.8654124],[121.6220341,38.865221],[121.6216433,38.864986],[121.6206292,38.8649209],[121.6198696,38.865043],[121.6199787,38.8653528],[121.6194254,38.8652641],[121.618487,38.8652135],[121.6177205,38.8653052],[121.6155571,38.8660554],[121.6153262,38.8661267]]]}},{"type":"Feature","id":"way/164817555","properties":{"leisure":"park","name":"星海公园","name:en":"Xinghai Park","name:ru":"Парк Синхай","name:zh":"星海公园","name:zh-Latn-pinyin":"xīnghǎi gōngyuán","id":"way/164817555"},"geometry":{"type":"Polygon","coordinates":[[[121.5583461,38.8763115],[121.5585348,38.8759858],[121.5585068,38.8758084],[121.5583735,38.8757113],[121.5586208,38.8752098],[121.5588014,38.8748459],[121.5588195,38.8747674],[121.558744,38.874727],[121.5589026,38.8746368],[121.559479,38.8744786],[121.5594579,38.8746511],[121.5593698,38.8747106],[121.5593288,38.8747722],[121.5594389,38.8749013],[121.5596342,38.8750671],[121.5598895,38.8752169],[121.5605101,38.8755999],[121.5608714,38.8758145],[121.5620725,38.8762411],[121.5624462,38.8763116],[121.5631081,38.8763535],[121.5637522,38.8763574],[121.5640549,38.8763653],[121.5642968,38.8763503],[121.5645377,38.8763161],[121.5647107,38.8761148],[121.5648613,38.8757449],[121.5649788,38.8755164],[121.5648826,38.8753623],[121.5649564,38.8753072],[121.5650766,38.8754559],[121.5659734,38.8752485],[121.5663892,38.8749783],[121.5668346,38.8757862],[121.5665341,38.8758656],[121.5668024,38.8763792],[121.566333,38.8768772],[121.5652763,38.8769733],[121.5653945,38.8782811],[121.5651837,38.8783242],[121.5651385,38.8783876],[121.5649664,38.8783559],[121.5649312,38.8784236],[121.5646708,38.8783637],[121.5645944,38.878492],[121.5643867,38.8784254],[121.5641051,38.8789769],[121.5639157,38.8789229],[121.5637491,38.8792499],[121.5636518,38.8792212],[121.5636183,38.8792916],[121.5632672,38.8791303],[121.5629307,38.8788727],[121.5626236,38.8785866],[121.5624111,38.8787002],[121.5620485,38.8782794],[121.5621917,38.8780256],[121.5618591,38.8776665],[121.562299,38.8770943],[121.5612476,38.8768145],[121.5609311,38.8772321],[121.5597364,38.8767153],[121.5598067,38.876593],[121.559516,38.8764613],[121.5593936,38.8765782],[121.5592553,38.8764976],[121.558972,38.8766103],[121.5583461,38.8763115]]]}},{"type":"Feature","id":"way/205752266","properties":{"leisure":"park","name":"北海公园","id":"way/205752266"},"geometry":{"type":"Polygon","coordinates":[[[121.630919,38.929512],[121.6296377,38.9292381],[121.6288868,38.9290378],[121.6289629,38.9289058],[121.6293087,38.9289832],[121.6295745,38.92838],[121.6298585,38.9284384],[121.6299229,38.9283466],[121.6306095,38.9285928],[121.630808,38.9288307],[121.6312586,38.9289809],[121.630919,38.929512]]]}},{"type":"Feature","id":"way/207830161","properties":{"leisure":"park","name":"炮台山公园","id":"way/207830161"},"geometry":{"type":"Polygon","coordinates":[[[121.6692291,38.9103486],[121.6690413,38.9101357],[121.6689072,38.9099854],[121.6689072,38.9098602],[121.6691379,38.9098685],[121.6697226,38.9099896],[121.6700391,38.9100856],[121.6699855,38.9102525],[121.669787,38.9102776],[121.6695027,38.9103152],[121.6692291,38.9103486]]]}},{"type":"Feature","id":"way/207869886","properties":{"leisure":"park","name":"富国公园","name:en":"Fuguo Park","name:zh":"富国公园","name:zh-Latn-pinyin":"Fùguó Gōngyuán","natural":"wood","id":"way/207869886"},"geometry":{"type":"Polygon","coordinates":[[[121.5633136,38.8885553],[121.5632018,38.8882885],[121.5634392,38.8880889],[121.563375,38.8875926],[121.5639711,38.8875882],[121.5640012,38.8877803],[121.5641895,38.887721],[121.5643565,38.8875325],[121.5643546,38.8871841],[121.5642002,38.8866645],[121.5641788,38.8861968],[121.5652881,38.8857216],[121.5661679,38.8859054],[121.5674827,38.8863039],[121.5673658,38.8866519],[121.5684235,38.8871215],[121.5698739,38.8877147],[121.5699327,38.8879458],[121.5710479,38.8885266],[121.5717533,38.8889193],[121.5720321,38.8891014],[121.5718542,38.8894128],[121.5726546,38.8897377],[121.5725838,38.8900976],[121.5740642,38.8903959],[121.57465,38.8901617],[121.5751548,38.8902528],[121.5753491,38.8900032],[121.5757035,38.8900627],[121.5757528,38.8899059],[121.5765546,38.8902338],[121.5768934,38.8904634],[121.5762863,38.8909657],[121.5763117,38.8910956],[121.5765128,38.8911928],[121.5765962,38.8911937],[121.5766429,38.8913441],[121.5769236,38.8914498],[121.5769132,38.8916332],[121.5765236,38.891486],[121.5760545,38.8914649],[121.5758608,38.8915864],[121.5758308,38.8917156],[121.5759687,38.8919383],[121.5766026,38.8919646],[121.5767405,38.8922086],[121.5769258,38.8923559],[121.5772476,38.8923602],[121.5771833,38.8925151],[121.5772815,38.8925932],[121.5777385,38.8926394],[121.5779145,38.8927024],[121.5782879,38.8928231],[121.5781783,38.8928802],[121.5780701,38.8934853],[121.5781191,38.8935336],[121.5784477,38.8934696],[121.5784922,38.8935199],[121.578401,38.893622],[121.5786497,38.8938709],[121.5781064,38.894046],[121.5778826,38.8941122],[121.5771528,38.8940953],[121.5767959,38.8942136],[121.5756586,38.894581],[121.5748862,38.8952323],[121.5741716,38.8945234],[121.5723906,38.8941059],[121.5704444,38.893746],[121.5688566,38.8931781],[121.5681635,38.8925861],[121.5685712,38.891584],[121.5682064,38.8912333],[121.5643504,38.8915247],[121.5635072,38.8910663],[121.5636209,38.8901886],[121.5623699,38.8896299],[121.562548,38.8891698],[121.5633136,38.8885553]]]}},{"type":"Feature","id":"way/208638938","properties":{"leisure":"park","id":"way/208638938"},"geometry":{"type":"Polygon","coordinates":[[[121.639616,38.883792],[121.6394868,38.8836855],[121.6393478,38.8835415],[121.63938,38.8834329],[121.6395195,38.8833661],[121.6396691,38.8832262],[121.6398199,38.8831656],[121.6399379,38.8830738],[121.6400983,38.882984],[121.6402914,38.882842],[121.6406455,38.8825915],[121.6410001,38.8823472],[121.6416003,38.882391],[121.6424157,38.8825163],[121.6427161,38.8826082],[121.6427059,38.8827313],[121.6429956,38.8830571],[121.6430922,38.8832408],[121.6429098,38.8833995],[121.6426738,38.883483],[121.639616,38.883792]]]}},{"type":"Feature","id":"way/208643690","properties":{"leisure":"park","id":"way/208643690"},"geometry":{"type":"Polygon","coordinates":[[[121.6094255,38.9012537],[121.6085672,38.9010366],[121.6082024,38.9008613],[121.6079234,38.9000263],[121.6075909,38.899876],[121.6073548,38.8999428],[121.6070914,38.9002952],[121.6069841,38.900554],[121.6067111,38.9004688],[121.6065764,38.9006125],[121.6064107,38.9005941],[121.6063892,38.9004688],[121.606357,38.9003186],[121.6060566,38.9002017],[121.6059172,38.8999679],[121.6061044,38.8995437],[121.6061258,38.8994018],[121.6060078,38.899335],[121.6060674,38.8990828],[121.6063463,38.8987989],[121.6064965,38.8986403],[121.6066038,38.898682],[121.6068339,38.8985668],[121.6071724,38.8984399],[121.6075479,38.8983814],[121.6079068,38.8983246],[121.6080844,38.8981894],[121.6081809,38.8981476],[121.6082501,38.8982578],[121.6079449,38.8985818],[121.6077459,38.8987171],[121.6078746,38.8988674],[121.6080629,38.8989993],[121.6083419,38.8991412],[121.6080629,38.8993333],[121.6078591,38.8993917],[121.6077303,38.8994669],[121.6078483,38.8996339],[121.6081166,38.8998176],[121.6081809,38.9001182],[121.6082346,38.9004271],[121.6084003,38.9007878],[121.6086316,38.900903],[121.6089963,38.9009364],[121.6094255,38.9012537]]]}},{"type":"Feature","id":"way/219032926","properties":{"leisure":"park","natural":"scrub","id":"way/219032926"},"geometry":{"type":"Polygon","coordinates":[[[121.6126901,38.9103138],[121.6140771,38.9106263],[121.6136987,38.9116266],[121.6123079,38.9113264],[121.6126901,38.9103138]]]}},{"type":"Feature","id":"way/219032931","properties":{"leisure":"park","natural":"scrub","id":"way/219032931"},"geometry":{"type":"Polygon","coordinates":[[[121.607873,38.9091958],[121.6092125,38.9096383],[121.6090625,38.9100471],[121.6088729,38.9105741],[121.6074354,38.9102199],[121.607873,38.9091958]]]}},{"type":"Feature","id":"way/219328592","properties":{"leisure":"park","name":"希望广场","name:en":"Xiwang Square","id":"way/219328592"},"geometry":{"type":"Polygon","coordinates":[[[121.6249469,38.9133485],[121.6251301,38.9131817],[121.6263738,38.9135338],[121.6263325,38.9136157],[121.6263157,38.9136399],[121.6262907,38.913661],[121.6262612,38.9136662],[121.6262197,38.9136616],[121.6261772,38.9136639],[121.6261312,38.9136781],[121.6260966,38.9136947],[121.6260556,38.9137144],[121.6260216,38.9137425],[121.6259914,38.9137806],[121.6259793,38.9138172],[121.6259803,38.913846],[121.6259415,38.9138582],[121.6259141,38.9138243],[121.6256514,38.9139129],[121.6256407,38.9139536],[121.6256195,38.9139966],[121.6255924,38.9140228],[121.6254008,38.9140738],[121.6252674,38.9138075],[121.6251965,38.9136894],[121.6249469,38.9133485]]]}},{"type":"Feature","id":"way/219328594","properties":{"leisure":"park","name":"希望广场","name:en":"Xiwang Square","id":"way/219328594"},"geometry":{"type":"Polygon","coordinates":[[[121.6248159,38.9122809],[121.6252874,38.9126103],[121.6255897,38.9128133],[121.625589,38.9128467],[121.6255706,38.9128856],[121.6255186,38.9129252],[121.625463,38.9129387],[121.6248421,38.9127675],[121.6244691,38.9126382],[121.6244111,38.9125741],[121.6244237,38.9125301],[121.6248159,38.9122809]]]}},{"type":"Feature","id":"way/231923765","properties":{"leisure":"park","name":"五一广场","name:en":"Wuyi Square","name:zh":"五一广场","id":"way/231923765"},"geometry":{"type":"Polygon","coordinates":[[[121.5979561,38.9171644],[121.5979561,38.9171276],[121.5991614,38.9165576],[121.5990669,38.9172563],[121.5979561,38.9171644]]]}},{"type":"Feature","id":"way/232461004","properties":{"addr:city":"大连市","addr:district":"沙河口区","addr:province":"辽宁省","leisure":"park","name":"中山公园","id":"way/232461004"},"geometry":{"type":"Polygon","coordinates":[[[121.594259,38.9115356],[121.5943526,38.910759],[121.5967053,38.9109427],[121.5977079,38.911182],[121.5977168,38.9112617],[121.5976678,38.9113796],[121.5977168,38.9114524],[121.5979218,38.9115114],[121.5976277,38.9133316],[121.5953009,38.9131387],[121.5951707,38.914051],[121.5952691,38.9140816],[121.5952755,38.9141577],[121.5951132,38.9141898],[121.5951093,38.9143154],[121.5950532,38.9146542],[121.5947359,38.9146518],[121.5944788,38.9144313],[121.5947675,38.9142212],[121.5943314,38.9138598],[121.5943615,38.9135725],[121.5939515,38.9131756],[121.5931925,38.9131193],[121.5933633,38.9119412],[121.5941765,38.9120059],[121.594259,38.9115356]]]}},{"type":"Feature","id":"way/232560267","properties":{"leisure":"park","name":"水池山公园","id":"way/232560267"},"geometry":{"type":"Polygon","coordinates":[[[121.5906918,38.9747067],[121.5896774,38.9744727],[121.5891698,38.9740797],[121.5890609,38.9737344],[121.5895102,38.9732941],[121.5906138,38.9728001],[121.5902905,38.9720287],[121.5892426,38.9715001],[121.5893987,38.9709281],[121.5915167,38.9710234],[121.5919403,38.9721241],[121.5926872,38.9720981],[121.5926538,38.9718467],[121.5932892,38.9717861],[121.593423,38.9723581],[121.5940027,38.9727307],[121.5940807,38.9730601],[121.5937017,38.9736754],[121.5932335,38.9739701],[121.5927318,38.9737621],[121.5912826,38.9747067],[121.5906918,38.9747067]]]}},{"type":"Feature","id":"way/232981766","properties":{"leisure":"park","id":"way/232981766"},"geometry":{"type":"Polygon","coordinates":[[[121.5947008,38.9060184],[121.5958384,38.9064995],[121.5943351,38.9065076],[121.5947008,38.9060184]]]}},{"type":"Feature","id":"way/232981770","properties":{"barrier":"kerb","leisure":"park","name":"西府园","natural":"scrub","id":"way/232981770"},"geometry":{"type":"Polygon","coordinates":[[[121.6048231,38.9138208],[121.6048192,38.9137411],[121.6061662,38.9131649],[121.6062213,38.9131956],[121.6060126,38.9139403],[121.6048231,38.9138208]]]}},{"type":"Feature","id":"way/232981771","properties":{"barrier":"kerb","leisure":"park","name":"华府园","natural":"scrub","id":"way/232981771"},"geometry":{"type":"Polygon","coordinates":[[[121.6048625,38.912837],[121.6049373,38.9128064],[121.6058314,38.9130148],[121.6058472,38.9131098],[121.6047719,38.9135664],[121.6048625,38.912837]]]}},{"type":"Feature","id":"way/233267044","properties":{"leisure":"park","id":"way/233267044"},"geometry":{"type":"Polygon","coordinates":[[[121.601539,38.9670323],[121.6016153,38.9668273],[121.6033017,38.9669891],[121.6061123,38.9675449],[121.6073199,38.9678794],[121.6073962,38.9677068],[121.6110535,38.968446],[121.6106718,38.9685431],[121.609492,38.9683057],[121.6092144,38.9683597],[121.6089299,38.968651],[121.6070706,38.9682677],[121.6064499,38.9680138],[121.6051721,38.9678234],[121.601539,38.9670323]]]}},{"type":"Feature","id":"way/233267046","properties":{"leisure":"park","natural":"wood","id":"way/233267046"},"geometry":{"type":"Polygon","coordinates":[[[121.6316051,38.8850655],[121.6316691,38.8848956],[121.6322455,38.8848548],[121.6327433,38.8848775],[121.6331101,38.8848412],[121.633439,38.8846871],[121.6340299,38.8847256],[121.6341027,38.8849341],[121.6339688,38.8850995],[121.6336369,38.8852309],[121.6332702,38.8852604],[121.6330431,38.885206],[121.632263,38.8850723],[121.6316051,38.8850655]]]}},{"type":"Feature","id":"way/249408622","properties":{"leisure":"park","name":"山屏健身公园","id":"way/249408622"},"geometry":{"type":"Polygon","coordinates":[[[121.6737803,38.9027245],[121.6743056,38.9027426],[121.6743289,38.9024747],[121.6750935,38.9024837],[121.6752277,38.9026064],[121.6756362,38.9039008],[121.6747141,38.9043777],[121.6736682,38.9043531],[121.6735585,38.9041097],[121.6736227,38.9031968],[121.6737803,38.9027245]]]}},{"type":"Feature","id":"way/377000346","properties":{"leisure":"park","name":"黑石礁广场","id":"way/377000346"},"geometry":{"type":"Polygon","coordinates":[[[121.5510187,38.871063],[121.5510736,38.8710082],[121.5511481,38.8709337],[121.5517462,38.8709239],[121.5518039,38.8714735],[121.5518389,38.8718072],[121.5518558,38.8719678],[121.5517275,38.8718715],[121.5513876,38.8716164],[121.5513728,38.8716053],[121.5511701,38.8714491],[121.5511276,38.8713557],[121.5510364,38.8711553],[121.5510187,38.871063]]]}},{"type":"Feature","id":"way/377001129","properties":{"leisure":"park","name":"黑石礁公园","name:en":"Heishijiao Park","name:zh":"黑石礁公园","id":"way/377001129"},"geometry":{"type":"Polygon","coordinates":[[[121.5524381,38.868659],[121.5524376,38.868477],[121.5524394,38.8681172],[121.5524583,38.868037],[121.5533193,38.8682859],[121.5533397,38.8682535],[121.5536008,38.8683209],[121.5537597,38.867952],[121.5537687,38.8676824],[121.5538246,38.867689],[121.5538614,38.867816],[121.5544292,38.8684163],[121.55481,38.8687512],[121.5551336,38.8689839],[121.5552766,38.8690333],[121.5553397,38.8690763],[121.5554128,38.8690956],[121.5554042,38.8691469],[121.5553471,38.8692368],[121.5551533,38.8692791],[121.5551141,38.8692838],[121.5551104,38.8693248],[121.5551628,38.8693318],[121.5553431,38.8693559],[121.5554307,38.8693601],[121.5554908,38.8692983],[121.5555345,38.8692711],[121.5556607,38.8692364],[121.5557275,38.8692517],[121.5558166,38.8693285],[121.5559679,38.8692229],[121.5560402,38.8691049],[121.5561178,38.8690701],[121.5561884,38.8688832],[121.5562817,38.8687461],[121.5563934,38.8686939],[121.5569685,38.8686505],[121.5570234,38.8688996],[121.5571448,38.8689715],[121.5571887,38.8690996],[121.5574575,38.8691679],[121.5575278,38.8693321],[121.5576669,38.86932],[121.557773,38.8694195],[121.557751,38.8694813],[121.5577427,38.8695608],[121.5575672,38.8696505],[121.5576385,38.8697743],[121.5578359,38.8698042],[121.5580224,38.8700263],[121.5577153,38.87018],[121.5575836,38.8703465],[121.5576234,38.8704433],[121.5578963,38.8705643],[121.5579018,38.8706583],[121.5574794,38.8707565],[121.5575692,38.871148],[121.5579109,38.8717208],[121.5581086,38.8720069],[121.5583855,38.8723047],[121.55852,38.8723251],[121.5584541,38.8723728],[121.5584954,38.8724354],[121.558562,38.8724317],[121.5585788,38.8724487],[121.5585352,38.872468],[121.5586782,38.8726317],[121.5587587,38.8726801],[121.5591175,38.8730075],[121.5591579,38.8730017],[121.5592719,38.8729662],[121.5594028,38.8729852],[121.5594205,38.8730166],[121.5596544,38.8730186],[121.5594782,38.8731423],[121.5594228,38.8731201],[121.5593407,38.873177],[121.5592757,38.8732151],[121.5591458,38.8732414],[121.5591836,38.8733753],[121.5593061,38.8734797],[121.5592991,38.8735733],[121.5591818,38.8736463],[121.5590953,38.8736684],[121.5590716,38.8736983],[121.5590146,38.8737134],[121.558921,38.8737424],[121.558672,38.873659],[121.5585278,38.8735931],[121.5585365,38.8734343],[121.558624,38.8732482],[121.5587202,38.8732618],[121.5586648,38.8730167],[121.5584724,38.8725946],[121.5570237,38.8710946],[121.5570849,38.8710242],[121.5570908,38.8706157],[121.5571624,38.8701817],[121.5563535,38.8700985],[121.5563647,38.8700851],[121.5562722,38.8700757],[121.5562822,38.8699365],[121.5561175,38.8698479],[121.5558413,38.869753],[121.5556727,38.8696861],[121.5551244,38.8696685],[121.5548398,38.8696165],[121.5545131,38.8694911],[121.5532377,38.8690474],[121.5532128,38.8690368],[121.5530684,38.8689751],[121.5530084,38.8689401],[121.5526187,38.868832],[121.5524832,38.8687477],[121.5524381,38.868659]]]}},{"type":"Feature","id":"way/412356174","properties":{"leisure":"park","name":"劳模花园","id":"way/412356174"},"geometry":{"type":"Polygon","coordinates":[[[121.5431911,38.940223],[121.543074,38.9392931],[121.5438751,38.93925],[121.5439561,38.939458],[121.54406,38.9397245],[121.544097,38.9403524],[121.5436225,38.9402421],[121.5431911,38.940223]]]}},{"type":"Feature","id":"way/425872305","properties":{"natural":"water","water":"lake","id":"way/425872305"},"geometry":{"type":"Polygon","coordinates":[[[121.7013714,38.8882536],[121.701348,38.8881855],[121.7013568,38.8880585],[121.7013976,38.8879972],[121.7014792,38.8876274],[121.7015637,38.8875639],[121.701657,38.8875661],[121.7017649,38.8877295],[121.7017474,38.8880358],[121.7018581,38.8881107],[121.7018552,38.8883149],[121.7018814,38.8883988],[121.7016774,38.8885667],[121.701587,38.8885213],[121.7013714,38.8882536]]]}},{"type":"Feature","id":"way/426712153","properties":{"natural":"water","water":"lake","id":"way/426712153"},"geometry":{"type":"Polygon","coordinates":[[[121.6938642,38.8967741],[121.6941715,38.896397],[121.6943432,38.8965025],[121.6946665,38.8964757],[121.6945806,38.8966764],[121.6949663,38.8967408],[121.6954422,38.8968528],[121.6950082,38.8969038],[121.694615,38.8970518],[121.6944925,38.8969991],[121.6942755,38.8970736],[121.6945881,38.8974682],[121.6944484,38.8979573],[121.6942518,38.8974649],[121.6939972,38.897306],[121.69398,38.8971923],[121.6939252,38.8971329],[121.6939231,38.8968654],[121.6938642,38.8967741]]]}},{"type":"Feature","id":"way/460425651","properties":{"leisure":"park","name":"住区小游园","id":"way/460425651"},"geometry":{"type":"Polygon","coordinates":[[[121.5759176,38.897802],[121.5761277,38.8975138],[121.5765964,38.8976614],[121.5769764,38.8978089],[121.5771711,38.8978869],[121.5772493,38.8979318],[121.5772367,38.8979684],[121.577127,38.8981645],[121.5770009,38.8983132],[121.5759176,38.897802]]]}},{"type":"Feature","id":"way/460427587","properties":{"leisure":"park","name":"住区小游园","id":"way/460427587"},"geometry":{"type":"Polygon","coordinates":[[[121.5772134,38.8983763],[121.5773502,38.8980841],[121.5786027,38.8981592],[121.5790689,38.8982564],[121.578989,38.8988314],[121.5788066,38.8989524],[121.5786081,38.8989441],[121.5784418,38.8988397],[121.5772134,38.8983763]]]}},{"type":"Feature","id":"way/460427588","properties":{"leisure":"park","name":"住区广场","id":"way/460427588"},"geometry":{"type":"Polygon","coordinates":[[[121.5774517,38.8965883],[121.5774017,38.8965921],[121.5773436,38.8965841],[121.5772728,38.8965442],[121.5772322,38.8965156],[121.577179,38.8964069],[121.577195,38.8963267],[121.577222,38.8962743],[121.5772649,38.8962575],[121.5773302,38.8962248],[121.577405,38.8962067],[121.577489,38.896203],[121.5775684,38.8962285],[121.5776244,38.8962575],[121.5776644,38.8962989],[121.5776992,38.8963411],[121.5776992,38.8964175],[121.5776898,38.8964647],[121.5776525,38.8965192],[121.5775643,38.8965728],[121.5774517,38.8965883]]]}},{"type":"Feature","id":"way/460427589","properties":{"leisure":"park","name":"住区公园","id":"way/460427589"},"geometry":{"type":"Polygon","coordinates":[[[121.577744,38.8964873],[121.5777532,38.8962678],[121.5785568,38.8962765],[121.5793351,38.8963005],[121.5794894,38.8963456],[121.579495,38.8964399],[121.5794491,38.8964506],[121.5791639,38.896475],[121.5788116,38.8964848],[121.5785572,38.8964841],[121.5783034,38.8964917],[121.5780635,38.8964878],[121.577744,38.8964873]]]}},{"type":"Feature","id":"way/460427590","properties":{"leisure":"park","name":"思想公园","id":"way/460427590"},"geometry":{"type":"Polygon","coordinates":[[[121.5800699,38.8967313],[121.5801477,38.8950731],[121.5802014,38.8950548],[121.5802486,38.8952289],[121.580363,38.8955872],[121.5805512,38.8959931],[121.5808768,38.8966157],[121.5807706,38.8967258],[121.5800699,38.8967313]]]}},{"type":"Feature","id":"way/466073068","properties":{"leisure":"park","id":"way/466073068"},"geometry":{"type":"Polygon","coordinates":[[[121.5598652,38.9490004],[121.5599985,38.9489162],[121.5602466,38.9491227],[121.5603708,38.9492448],[121.5600523,38.9497216],[121.5601426,38.9499695],[121.5603373,38.9501291],[121.5604965,38.9501174],[121.5605888,38.9501045],[121.5606941,38.9502634],[121.5608012,38.9503899],[121.5609061,38.9505057],[121.5615327,38.950281],[121.5618723,38.9502432],[121.5626852,38.9502195],[121.5632335,38.9502175],[121.5641135,38.9502293],[121.5642501,38.9502765],[121.5645611,38.9505538],[121.5650286,38.9509389],[121.5651882,38.9508248],[121.5651688,38.9508077],[121.5652603,38.9507126],[121.5656583,38.9508506],[121.5657371,38.9510937],[121.5658545,38.9511252],[121.5657865,38.9513585],[121.5656499,38.951243],[121.5649512,38.951482],[121.5651307,38.9518513],[121.5648858,38.9517486],[121.5644665,38.9518685],[121.5643843,38.9517624],[121.5638149,38.9519776],[121.5638701,38.9520572],[121.5636679,38.952248],[121.5627754,38.9526054],[121.562539,38.9526415],[121.5625306,38.9525496],[121.5621381,38.952582],[121.5621625,38.9526828],[121.5618983,38.9527308],[121.5616542,38.9523704],[121.5612914,38.9518045],[121.5608438,38.950955],[121.5605327,38.9509373],[121.5598727,38.9496275],[121.5597893,38.9494193],[121.5598061,38.9491454],[121.5598652,38.9490004]]]}},{"type":"Feature","id":"way/484624354","properties":{"leisure":"park","id":"way/484624354"},"geometry":{"type":"Polygon","coordinates":[[[121.5638935,38.8970698],[121.5641363,38.8969467],[121.5643214,38.8971575],[121.5644354,38.8972452],[121.5646727,38.8973986],[121.5650295,38.8976157],[121.5650442,38.8976658],[121.5649865,38.8978662],[121.564426,38.8978182],[121.5643656,38.8977838],[121.5638935,38.8970698]]]}},{"type":"Feature","id":"way/484624355","properties":{"leisure":"park","id":"way/484624355"},"geometry":{"type":"Polygon","coordinates":[[[121.5637697,38.8977011],[121.5638241,38.8974903],[121.5640802,38.8975303],[121.5641946,38.8976866],[121.5642039,38.8977184],[121.5641736,38.8977447],[121.5641187,38.8977556],[121.5637697,38.8977011]]]}},{"type":"Feature","id":"way/587661997","properties":{"leisure":"park","id":"way/587661997"},"geometry":{"type":"Polygon","coordinates":[[[121.5565518,38.8854676],[121.5556434,38.8853644],[121.5557478,38.8848747],[121.5558296,38.8848374],[121.5559199,38.8848374],[121.5559848,38.8848681],[121.5565518,38.8854676]]]}},{"type":"Feature","id":"way/680086586","properties":{"leisure":"park","id":"way/680086586"},"geometry":{"type":"Polygon","coordinates":[[[121.5504668,38.8888442],[121.5500224,38.8884433],[121.5505215,38.8880956],[121.5506013,38.8879892],[121.5509067,38.8880921],[121.5510138,38.8884912],[121.5504668,38.8888442]]]}},{"type":"Feature","id":"way/680086605","properties":{"leisure":"park","id":"way/680086605"},"geometry":{"type":"Polygon","coordinates":[[[121.5626755,38.8851125],[121.5628737,38.8847755],[121.5631085,38.884818],[121.5631062,38.8852083],[121.5626755,38.8851125]]]}},{"type":"Feature","id":"way/680086610","properties":{"leisure":"park","id":"way/680086610"},"geometry":{"type":"Polygon","coordinates":[[[121.5473653,38.8867361],[121.5479306,38.8862901],[121.548198,38.8860998],[121.5483241,38.8859333],[121.5484081,38.8857728],[121.5484272,38.8856628],[121.5485609,38.8856687],[121.5490994,38.8870513],[121.5473653,38.8867361]]]}},{"type":"Feature","id":"way/682419732","properties":{"leisure":"park","name":"新有公园","id":"way/682419732"},"geometry":{"type":"Polygon","coordinates":[[[121.5750098,38.93189],[121.5763924,38.9311926],[121.5767839,38.9324303],[121.5761904,38.9327937],[121.5750098,38.93189]]]}},{"type":"Feature","id":"way/813804872","properties":{"leisure":"park","name":"明珠公园","id":"way/813804872"},"geometry":{"type":"Polygon","coordinates":[[[121.5268127,38.9495866],[121.5257197,38.9463492],[121.5256616,38.9461593],[121.5257546,38.9460146],[121.5259988,38.9458789],[121.5291212,38.9453939],[121.5294392,38.9455139],[121.5296898,38.9457387],[121.5301717,38.946968],[121.5303548,38.9477625],[121.5304415,38.9486544],[121.5303741,38.9494339],[121.5302488,38.9495988],[121.530056,38.9496588],[121.5269817,38.9496513],[121.5268127,38.9495866]]]}},{"type":"Feature","id":"way/814427432","properties":{"name":"石灰石矿湖","natural":"water","water":"lake","id":"way/814427432"},"geometry":{"type":"Polygon","coordinates":[[[121.6036444,38.9879811],[121.6034345,38.9878614],[121.6033207,38.9876343],[121.6029882,38.9876134],[121.6026208,38.9874305],[121.6025078,38.9871213],[121.6023093,38.9869212],[121.6019622,38.986958],[121.6015578,38.9870571],[121.6009531,38.9870296],[121.6003852,38.9868533],[121.6004555,38.9866131],[121.5999754,38.9864692],[121.5994308,38.9859466],[121.5991931,38.9852876],[121.5993377,38.984556],[121.5996407,38.9838327],[121.6001873,38.9834434],[121.6010373,38.9833137],[121.601821,38.9832665],[121.6019848,38.9834154],[121.6023295,38.9834563],[121.6025463,38.9834604],[121.6028551,38.9836194],[121.6033955,38.9837867],[121.6034575,38.9836929],[121.6037092,38.9839425],[121.6042317,38.9838578],[121.6045801,38.9839593],[121.6057293,38.9846782],[121.6062965,38.9849828],[121.6063543,38.9850234],[121.6067774,38.9851609],[121.6068548,38.9853121],[121.607621,38.9854054],[121.6083984,38.9853492],[121.6086607,38.98528],[121.6095696,38.9855027],[121.610608,38.9854442],[121.611327,38.9854141],[121.6120576,38.9856192],[121.6133906,38.9857077],[121.6139349,38.9854831],[121.6150198,38.9856868],[121.61652,38.9855386],[121.6169692,38.9856369],[121.6176232,38.985739],[121.6181266,38.9855931],[121.618722,38.9856687],[121.6195687,38.9858367],[121.6207925,38.9860968],[121.6210337,38.9862335],[121.6216689,38.9863266],[121.6227448,38.9862889],[121.6231224,38.9863925],[121.6235833,38.9863857],[121.6243683,38.9858778],[121.6248792,38.9857568],[121.6252731,38.9857331],[121.6254927,38.9855892],[121.6262643,38.9861546],[121.6264419,38.9865529],[121.626554,38.9869057],[121.626657,38.9869853],[121.6265272,38.9877816],[121.6263428,38.9878474],[121.6263029,38.9879695],[121.626137,38.9880964],[121.6261142,38.9883202],[121.625849,38.988536],[121.6254339,38.9887984],[121.625002,38.9890888],[121.6247931,38.9891662],[121.624591,38.9893054],[121.6244338,38.9898335],[121.6243374,38.990394],[121.6242941,38.9904476],[121.6242597,38.9906493],[121.6241786,38.9907261],[121.6241067,38.9908365],[121.623825,38.9909155],[121.6235369,38.991045],[121.6233377,38.9910256],[121.6230502,38.9910693],[121.6226883,38.9910884],[121.6210434,38.9908898],[121.6186351,38.9908558],[121.616934,38.9907341],[121.6159618,38.9907551],[121.6151917,38.9906773],[121.6148265,38.990711],[121.6144885,38.9906716],[121.6138503,38.9906581],[121.6134105,38.9906255],[121.6128389,38.9905845],[121.6123617,38.9906241],[121.6118456,38.9906],[121.6114647,38.9905458],[121.6110855,38.9905606],[121.6107042,38.9904857],[121.6104655,38.9903557],[121.6089965,38.9899878],[121.6086556,38.989846],[121.6079129,38.9895447],[121.606935,38.9889992],[121.606365,38.9887249],[121.6059208,38.9885032],[121.6051737,38.9883153],[121.6042025,38.9881226],[121.6036444,38.9879811]]]}},{"type":"Feature","id":"way/814428106","properties":{"leisure":"park","name":"钻石湾世界滨海公园","id":"way/814428106"},"geometry":{"type":"Polygon","coordinates":[[[121.6141324,38.9517181],[121.611901,38.9512285],[121.6105423,38.9508677],[121.6087086,38.9501461],[121.6077659,38.9497302],[121.607996,38.9493857],[121.611179,38.9499345],[121.6147856,38.9505204],[121.6146798,38.9507145],[121.6141694,38.9516503],[121.6141324,38.9517181]]]}},{"type":"Feature","id":"way/815791637","properties":{"leisure":"park","name":"人民广场站公园","id":"way/815791637"},"geometry":{"type":"Polygon","coordinates":[[[121.6064348,38.9106231],[121.6064684,38.9104447],[121.6069511,38.9105512],[121.6069066,38.9107293],[121.6064348,38.9106231]]]}},{"type":"Feature","id":"way/817406921","properties":{"leisure":"park","name":"航空博览园","id":"way/817406921"},"geometry":{"type":"Polygon","coordinates":[[[121.7147762,38.911693],[121.7122309,38.911491],[121.7121611,38.9114289],[121.7122908,38.9108542],[121.7124306,38.910761],[121.7124904,38.9105512],[121.7123607,38.9103726],[121.7124106,38.9099144],[121.7124559,38.9099105],[121.7142845,38.9097852],[121.7147762,38.911693]]]}},{"type":"Feature","id":"way/840409392","properties":{"leisure":"park","name":"枣园公园","id":"way/840409392"},"geometry":{"type":"Polygon","coordinates":[[[121.5835259,38.9833629],[121.5809064,38.9815446],[121.5820277,38.9808608],[121.5841486,38.9802107],[121.5842054,38.9802088],[121.5847312,38.9811043],[121.5848809,38.9811301],[121.5862227,38.9806204],[121.5870056,38.9817399],[121.5854301,38.982311],[121.5835259,38.9833629]]]}},{"type":"Feature","id":"way/867165043","properties":{"leisure":"park","id":"way/867165043"},"geometry":{"type":"Polygon","coordinates":[[[121.6995068,38.9208937],[121.6996994,38.9213775],[121.6997241,38.9214396],[121.6938232,38.9231597],[121.6929559,38.9234125],[121.6843093,38.9259385],[121.6837215,38.9261256],[121.6786458,38.9275836],[121.6786269,38.9275498],[121.6785001,38.9273227],[121.6784138,38.9271682],[121.6785466,38.9271568],[121.6789066,38.9270718],[121.6793653,38.9269137],[121.6794659,38.9268791],[121.6796083,38.92683],[121.6797114,38.9267945],[121.6802796,38.9265987],[121.6809402,38.9263577],[121.6812494,38.9262449],[121.6816769,38.9261094],[121.6823807,38.9258862],[121.6829034,38.9257256],[121.6834342,38.9255671],[121.6840275,38.9253925],[121.684867,38.9251442],[121.6855961,38.9249286],[121.6861442,38.9247665],[121.6871219,38.9244773],[121.6875081,38.9243631],[121.6878239,38.9242746],[121.6905866,38.9234282],[121.6962804,38.921783],[121.6965781,38.9216953],[121.6991055,38.9209598],[121.6994755,38.9208521],[121.6995068,38.9208937]]]}},{"type":"Feature","id":"way/892144013","properties":{"leisure":"park","name":"老年活动健身广场","id":"way/892144013"},"geometry":{"type":"Polygon","coordinates":[[[121.5780117,38.9362559],[121.5772109,38.9356028],[121.5783091,38.934788],[121.5791099,38.935441],[121.5780117,38.9362559]]]}},{"type":"Feature","id":"way/892160184","properties":{"leisure":"park","name":"梭鱼湾公园","id":"way/892160184"},"geometry":{"type":"Polygon","coordinates":[[[121.5925609,38.9497475],[121.5913331,38.9492546],[121.5904683,38.949039],[121.5897686,38.9489261],[121.5889963,38.9489723],[121.5883889,38.9491365],[121.587742,38.9493881],[121.5874714,38.9494394],[121.5872865,38.9494035],[121.587709,38.947889],[121.5878014,38.9478582],[121.5896168,38.9484178],[121.5902769,38.9485051],[121.5911549,38.9485],[121.5915641,38.9484435],[121.5924685,38.9481971],[121.5925609,38.9497475]]]}},{"type":"Feature","id":"way/892160209","properties":{"leisure":"park","name":"周北公园","id":"way/892160209"},"geometry":{"type":"Polygon","coordinates":[[[121.5755186,38.965498],[121.5750785,38.96564],[121.5750195,38.9655477],[121.5752019,38.9655008],[121.5750866,38.9651327],[121.5742311,38.9651474],[121.5742459,38.9655935],[121.5734963,38.965572],[121.5734759,38.9649486],[121.5733193,38.9649484],[121.5733176,38.9649132],[121.5730769,38.9649033],[121.5729569,38.9648381],[121.5732562,38.9643314],[121.5733998,38.9643607],[121.5738071,38.9638793],[121.5746172,38.9637145],[121.5753052,38.9637197],[121.5758434,38.9639472],[121.5763555,38.9639471],[121.5768743,38.9639575],[121.5769604,38.963958],[121.5769936,38.9640659],[121.5765467,38.9642901],[121.5761109,38.9644461],[121.5759102,38.9648603],[121.5758596,38.9650172],[121.5759528,38.9650502],[121.5758581,38.9651708],[121.5757771,38.9652238],[121.5757511,38.9652745],[121.575665,38.9653886],[121.5755186,38.965498]]]}},{"type":"Feature","id":"way/921542458","properties":{"leisure":"park","name":"欣乐公园","id":"way/921542458"},"geometry":{"type":"Polygon","coordinates":[[[121.5510025,38.9742498],[121.5507524,38.9741191],[121.5505061,38.9739399],[121.5503114,38.9735259],[121.5502915,38.9731274],[121.5503438,38.9729058],[121.5504231,38.9726842],[121.552628,38.9732324],[121.5536095,38.9734416],[121.5535141,38.9736804],[121.5534197,38.9738484],[121.5532836,38.9740163],[121.5530994,38.9741596],[121.5528224,38.9743046],[121.5525667,38.9744003],[121.5523041,38.9744725],[121.5520097,38.9744787],[121.5517162,38.974439],[121.5514505,38.9743814],[121.5510025,38.9742498]]]}},{"type":"Feature","id":"way/923997249","properties":{"leisure":"park","name":"北辰公园","id":"way/923997249"},"geometry":{"type":"Polygon","coordinates":[[[121.5483001,38.9837317],[121.5494104,38.9837015],[121.5499785,38.9831496],[121.5501463,38.9832299],[121.55105,38.9828586],[121.5525089,38.9879364],[121.5517859,38.9880669],[121.5516052,38.9890102],[121.5503141,38.9891808],[121.5485712,38.9885887],[121.5483905,38.9892209],[121.5485841,38.9897728],[121.5487391,38.9902545],[121.54688,38.990124],[121.5427874,38.9885686],[121.5424646,38.9847352],[121.5417687,38.9845254],[121.5416513,38.9824471],[121.5419482,38.9821862],[121.5447885,38.9819052],[121.5471007,38.982136],[121.5483001,38.9837317]]]}},{"type":"Feature","id":"way/924700143","properties":{"leisure":"park","name":"金家街公园","id":"way/924700143"},"geometry":{"type":"Polygon","coordinates":[[[121.591285,38.9689361],[121.5904804,38.9690326],[121.590583,38.9696036],[121.5909502,38.9695658],[121.5909826,38.9697044],[121.5912256,38.969633],[121.591339,38.9703803],[121.5901132,38.9705777],[121.5901348,38.970859],[121.591231,38.9706952],[121.5914794,38.9707456],[121.591609,38.9708841],[121.5915167,38.9710234],[121.5893987,38.9709281],[121.5892599,38.9708883],[121.5892491,38.9705189],[121.5890439,38.9705315],[121.5888333,38.9688227],[121.5890169,38.9688059],[121.5890061,38.9687052],[121.5894273,38.9686716],[121.5893895,38.968512],[121.5908908,38.9683693],[121.590907,38.9684784],[121.5911932,38.9684448],[121.591285,38.9689361]]]}},{"type":"Feature","id":"way/924746955","properties":{"leisure":"park","name":"光明公园","id":"way/924746955"},"geometry":{"type":"Polygon","coordinates":[[[121.6279214,38.9775929],[121.627045,38.9776426],[121.6270815,38.9773871],[121.6266251,38.9769542],[121.6263512,38.9770678],[121.6258582,38.9759039],[121.6268624,38.975549],[121.6270359,38.9749883],[121.6272641,38.9748961],[121.6277753,38.9750025],[121.6277206,38.9752651],[121.6286882,38.9755348],[121.6286791,38.9758329],[121.6289073,38.9762942],[121.6286974,38.9768761],[121.6279537,38.9771952],[121.6279214,38.9775929]]]}},{"type":"Feature","id":"way/926428287","properties":{"leisure":"park","name":"富民公园","id":"way/926428287"},"geometry":{"type":"Polygon","coordinates":[[[121.5570768,38.9247833],[121.5579814,38.924841],[121.5580296,38.9251207],[121.5585524,38.9251496],[121.55909,38.9260812],[121.5590269,38.9264014],[121.5588119,38.92656],[121.5586562,38.9266062],[121.5571213,38.9265398],[121.5566652,38.9263523],[121.5565837,38.9261158],[121.5566133,38.9258995],[121.5569136,38.9255447],[121.5570137,38.9252678],[121.5570768,38.9247833]]]}},{"type":"Feature","id":"way/926428288","properties":{"leisure":"park","name":"书香苑教育公园","id":"way/926428288"},"geometry":{"type":"Polygon","coordinates":[[[121.5631,38.9228038],[121.5621166,38.9229262],[121.5617851,38.9227076],[121.5610489,38.9227732],[121.5608241,38.9229306],[121.5602678,38.9229874],[121.5602509,38.9228825],[121.5594361,38.9228038],[121.5591607,38.9228869],[121.5579918,38.9228082],[121.5577109,38.9223579],[121.5576884,38.9220824],[121.5588292,38.9219863],[121.5587561,38.921807],[121.559127,38.9217196],[121.5606274,38.9216802],[121.560678,38.9218463],[121.5609871,38.9217895],[121.561032,38.9216409],[121.5619424,38.9215665],[121.5622964,38.9218245],[121.5633248,38.9218026],[121.5643644,38.9215316],[121.5646398,38.9213567],[121.5659716,38.9212692],[121.5664268,38.9214397],[121.5664268,38.9220518],[121.5631,38.9228038]]]}},{"type":"Feature","id":"way/940206541","properties":{"leisure":"park","id":"way/940206541"},"geometry":{"type":"Polygon","coordinates":[[[121.6589973,38.9878502],[121.6589496,38.9878502],[121.658633,38.9861981],[121.6587241,38.9861745],[121.6586416,38.985716],[121.6587501,38.9857092],[121.658698,38.985308],[121.6589192,38.9852608],[121.6589366,38.9853991],[121.6590841,38.9856182],[121.6591752,38.9856047],[121.6594614,38.985925],[121.6595178,38.9860902],[121.6595655,38.9864105],[121.6595699,38.9865757],[121.6594831,38.986741],[121.6594441,38.9869028],[121.6594831,38.9870343],[121.6595439,38.987213],[121.6597694,38.987658],[121.6601598,38.9881064],[121.6599126,38.9881739],[121.6596263,38.9878907],[121.6595092,38.9879277],[121.6593573,38.9876715],[121.6589973,38.9878502]]]}},{"type":"Feature","id":"way/988493691","properties":{"leisure":"park","name":"海纳百川—大连国际雕塑公园","name:ru":"Международный парк скульптур в Даляне","id":"way/988493691"},"geometry":{"type":"Polygon","coordinates":[[[121.5390646,38.852882],[121.5391833,38.8528714],[121.5395256,38.8529424],[121.539731,38.8530384],[121.5398132,38.8530029],[121.5402149,38.8532588],[121.5406576,38.8536783],[121.5408813,38.8541048],[121.5409543,38.8544816],[121.5409133,38.8548868],[121.5407766,38.8552057],[121.5406556,38.8553879],[121.5408073,38.8554658],[121.5407444,38.8555601],[121.5405184,38.8554721],[121.5403877,38.8556694],[121.5402602,38.8559409],[121.5401876,38.8562123],[121.5401624,38.8563643],[121.540155,38.8566367],[121.5401991,38.8568995],[121.5402602,38.8571453],[121.5403972,38.8574005],[121.5405807,38.8576767],[121.5408008,38.8579015],[121.5410576,38.858111],[121.5413756,38.8582938],[121.5417523,38.8584595],[121.5421657,38.85857],[121.5425742,38.8586405],[121.5430243,38.8586462],[121.5434401,38.858591],[121.5438828,38.8584748],[121.5442449,38.8583472],[121.5444234,38.8582443],[121.5443759,38.8581855],[121.5442742,38.8580596],[121.544421,38.8579776],[121.5444323,38.8579907],[121.5445408,38.8581167],[121.5448295,38.8579986],[121.5450765,38.8579834],[121.5453138,38.8580157],[121.5455804,38.8580996],[121.5457272,38.8582024],[121.5454238,38.858337],[121.5433291,38.8594167],[121.5426951,38.8592088],[121.5419795,38.8590847],[121.541479,38.8589432],[121.5407857,38.858643],[121.5403037,38.8582619],[121.5399329,38.8578462],[121.539666,38.857312],[121.5395103,38.8567606],[121.5395807,38.8562525],[121.5397476,38.8556953],[121.5401851,38.8548204],[121.5403148,38.8544104],[121.5401851,38.8539283],[121.5397476,38.8534865],[121.5394435,38.8532411],[121.5390646,38.852882]]]}},{"type":"Feature","id":"way/997161309","properties":{"leisure":"park","name":"甘井子公园","id":"way/997161309"},"geometry":{"type":"Polygon","coordinates":[[[121.6109953,38.9724411],[121.6155014,38.9726141],[121.6154696,38.9729601],[121.6145954,38.9729169],[121.6143729,38.9734112],[121.6145,38.9735656],[121.6148179,38.9736583],[121.6148497,38.9739425],[121.6152868,38.9742947],[121.6155252,38.9743441],[121.6156444,38.9750114],[121.6156365,38.975623],[121.6153106,38.9764324],[121.6137848,38.9760123],[121.6124576,38.9763521],[121.6114829,38.9756253],[121.6115488,38.9752906],[121.6117848,38.9744231],[121.6121556,38.9737942],[121.6120591,38.9737379],[121.6122821,38.9731807],[121.6118695,38.9729354],[121.6119728,38.9727809],[121.6109953,38.9724411]]]}},{"type":"Feature","id":"way/997174375","properties":{"leisure":"park","name":"香锦公园-老年健身广场","id":"way/997174375"},"geometry":{"type":"Polygon","coordinates":[[[121.5894151,38.9298511],[121.5894173,38.9305586],[121.5893499,38.9305521],[121.589319,38.9303772],[121.5889684,38.9303757],[121.588974,38.9301047],[121.5889431,38.9300675],[121.5893252,38.9296697],[121.5894207,38.9297003],[121.5894151,38.9298511]]]}},{"type":"Feature","id":"way/997644081","properties":{"leisure":"park","id":"way/997644081"},"geometry":{"type":"Polygon","coordinates":[[[121.5505631,38.9402611],[121.55081,38.9395481],[121.5522394,38.9398307],[121.5519479,38.9404303],[121.5505631,38.9402611]]]}},{"type":"Feature","id":"way/997662335","properties":{"leisure":"park","id":"way/997662335"},"geometry":{"type":"Polygon","coordinates":[[[121.672661,38.9168367],[121.6726971,38.9167399],[121.6728544,38.9165113],[121.6729323,38.9164825],[121.6734699,38.9166815],[121.673177,38.9171085],[121.6728754,38.9169744],[121.6728507,38.9169302],[121.6727128,38.9168927],[121.672661,38.9168367]]]}},{"type":"Feature","id":"way/1009936085","properties":{"natural":"water","water":"lake","id":"way/1009936085"},"geometry":{"type":"Polygon","coordinates":[[[121.551599,38.904076],[121.5515297,38.9040078],[121.551431,38.9039765],[121.5512777,38.9038486],[121.5512484,38.9037918],[121.5510731,38.903661],[121.5510403,38.9036184],[121.5510403,38.9035673],[121.5510512,38.9035218],[121.5511206,38.9035047],[121.5511827,38.9035474],[121.5514712,38.9037264],[121.5516538,38.903806],[121.5519131,38.9038628],[121.5523696,38.9038685],[121.5524755,38.9039452],[121.5524975,38.9040021],[121.5524427,38.9041215],[121.5522747,38.9043289],[121.5521797,38.9043289],[121.5519716,38.9042863],[121.5518912,38.9042096],[121.551599,38.904076]]]}},{"type":"Feature","id":"way/1009936100","properties":{"leisure":"park","name":"幽谷山体公园/东语社区公园","id":"way/1009936100"},"geometry":{"type":"Polygon","coordinates":[[[121.5498196,38.8956277],[121.548111,38.8948307],[121.5484389,38.8941994],[121.5493249,38.8939218],[121.5506365,38.8941546],[121.5510565,38.8941098],[121.5524027,38.8943561],[121.5525868,38.8942487],[121.5529319,38.8944322],[121.55307,38.8947636],[121.5527306,38.8949874],[121.5514189,38.89548],[121.5512463,38.8952203],[121.5498196,38.8956277]]]}},{"type":"Feature","id":"way/820379132","properties":{"name":"马栏河","waterway":"river","id":"way/820379132"},"geometry":{"type":"LineString","coordinates":[[121.5396679,38.923806],[121.5397798,38.9234182],[121.5398708,38.923246],[121.5400904,38.9229916],[121.5402198,38.9229482],[121.5404645,38.9225994],[121.5406288,38.9223814],[121.540944,38.9218979],[121.5410742,38.9215896],[121.5411807,38.9212861],[121.5412796,38.9209023],[121.5414278,38.9201563],[121.5416679,38.9192601],[121.5420508,38.9184737],[121.5423296,38.9180731],[121.542563,38.9178517],[121.5431111,38.9175057],[121.5435826,38.9172562],[121.5447939,38.916586],[121.5455806,38.9161923],[121.5467064,38.9157417],[121.5477505,38.9153144],[121.5507714,38.9135398],[121.5510801,38.9133995],[121.5514112,38.913217],[121.551751,38.9130145],[121.5527451,38.9124662],[121.5547932,38.9113386],[121.5555054,38.9109073],[121.5570645,38.9102407],[121.5578823,38.9098404],[121.5590131,38.909348],[121.5605147,38.9086886],[121.561344,38.9084132],[121.5620508,38.9082881],[121.563131,38.9080913],[121.5638158,38.9079707],[121.5649201,38.9077912],[121.5656558,38.9076895],[121.5660527,38.9076593],[121.5668774,38.9077598],[121.5675917,38.9078523],[121.5685794,38.9079761],[121.5689829,38.9080343],[121.5693381,38.9080763],[121.5697895,38.9080336],[121.570234,38.9079613],[121.5708879,38.9077707],[121.5714855,38.9075918],[121.5716807,38.9075717],[121.5718328,38.907546],[121.5719413,38.9075499],[121.5720511,38.9075733],[121.5723997,38.9074966],[121.5726116,38.9074255],[121.5726875,38.9074202],[121.5727915,38.9073663],[121.573062,38.9072824],[121.5733575,38.9071917],[121.5735978,38.9071098],[121.5750803,38.9066166],[121.576921,38.906012],[121.5773237,38.9058234],[121.5774118,38.9057274],[121.5783818,38.9051239],[121.580773,38.9035695],[121.5814501,38.9031659]]}},{"type":"Feature","id":"way/915709188","properties":{"waterway":"river","id":"way/915709188"},"geometry":{"type":"LineString","coordinates":[[121.5906969,38.9413495],[121.5905777,38.9434325],[121.5906413,38.9439425],[121.59072,38.9445884],[121.5910308,38.9450827],[121.5911817,38.9454235],[121.5913679,38.9458985],[121.5913915,38.9463654],[121.5915199,38.9468385],[121.5916169,38.947336],[121.5916487,38.9473922]]}},{"type":"Feature","id":"way/933215477","properties":{"waterway":"river","id":"way/933215477"},"geometry":{"type":"LineString","coordinates":[[121.5926738,38.9897723],[121.5930209,38.9897846],[121.5932898,38.9898095],[121.5935186,38.9898725],[121.5939951,38.9901382],[121.5949109,38.99075],[121.5962099,38.9916201],[121.5967288,38.9918998],[121.5972062,38.9921632],[121.5979949,38.9924482],[121.6016478,38.9936097]]}},{"type":"Feature","id":"way/1304273315","properties":{"layer":"-1","waterway":"river","id":"way/1304273315"},"geometry":{"type":"LineString","coordinates":[[121.6873317,38.9231351],[121.6870211,38.9232377],[121.6856322,38.9237309],[121.6840138,38.9242307],[121.6839682,38.9242599],[121.6839092,38.9243433],[121.6839548,38.9246396],[121.684054,38.9248024],[121.6844537,38.9246897],[121.6844912,38.9247461],[121.6857572,38.924335],[121.6858726,38.9243037],[121.6856322,38.9237309]]}},{"type":"Feature","id":"way/1304273316","properties":{"layer":"1","waterway":"river","id":"way/1304273316"},"geometry":{"type":"LineString","coordinates":[[121.6870211,38.9232377],[121.6873934,38.9238342],[121.6891931,38.9232895],[121.6894426,38.9231915],[121.6893755,38.9230391],[121.689118,38.9226114],[121.6874524,38.9231414],[121.6873317,38.9231351]]}},{"type":"Feature","id":"way/1304273319","properties":{"waterway":"river","id":"way/1304273319"},"geometry":{"type":"LineString","coordinates":[[121.6893755,38.9230391],[121.6897292,38.9229265]]}}]}