{"type":"FeatureCollection","features":[{"type":"Feature","properties":{"pier":"yes","deepwater":"yes","name":"码头2","id":9301},"geometry":{"coordinates":[121.65589687175031,38.9346349198139],"type":"Point"}},{"type":"Feature","properties":{"truckroad":"yes","name":"主路段","choices":"[1922, 1912]","id":1911,"stroke":"#05610b","stroke-width":2,"stroke-opacity":1,"choices2":"[]"},"geometry":{"coordinates":[[121.65500925217475,38.93437811797676],[121.65581021099507,38.9358629864146],[121.65567928163178,38.93591879532106],[121.65321386042669,38.931541006110756],[121.65307370123547,38.9314009008438],[121.65229242257516,38.93113049270153],[121.65158637348401,38.93082106992485],[121.65148932564644,38.93063983699231],[121.65698594644655,38.92893694020208],[121.65544830559367,38.92590355587248],[121.64653433217995,38.92310294571624],[121.63997130957506,38.92108339341499],[121.63953050869213,38.92138823577008],[121.63877135161579,38.92159781412968],[121.63808566135242,38.921426340972715],[121.63774281622239,38.9208738135365],[121.63781628303536,38.920378440452936],[121.63534458715037,38.919592831353896],[121.63496804739259,38.91963552702467],[121.6348228564973,38.919706871767886],[121.63448662495057,38.919647417819505],[121.63416567665519,38.91943932861065],[121.63398991925521,38.91932042021648],[121.63346264705717,38.91915394813117],[121.6314036870906,38.918546444223125],[121.62696282439657,38.916906949621136],[121.62604373905208,38.91612373885678],[121.62536536653647,38.914455130580336],[121.62413991941162,38.91270134694338],[121.62317660341489,38.91234999527987],[121.61568084792168,38.91230314782993],[121.60577119774018,38.91003005869132],[121.60247530210461,38.909192743605274],[121.59013961669598,38.90375330368789],[121.58501791625605,38.90095411860631]],"type":"LineString"}},{"type":"Feature","properties":{"shipway":"yes","name":"大连-烟台","id":2002,"topier":1},"geometry":{"coordinates":[[121.65557025836904,38.933921675480406],[121.65552795321443,38.933788492439945],[121.65547952617993,38.93365451572501],[121.6556098813058,38.93350539809228],[121.65591659924632,38.93350539809228],[121.65646485756724,38.933964679396155],[121.65712430114081,38.93486533929038],[121.65765538440144,38.935569290741824],[121.65811108322316,38.93615162661021],[121.65888547813728,38.93673417295577],[121.65995497536767,38.937269479299545],[121.66125739733297,38.937627684156695],[121.6624617442153,38.93779767838578],[121.66451479217972,38.93781237382174],[121.66778283285362,38.937613982006525],[121.67014722694057,38.93752697084662],[121.67109674111668,38.937481854300444],[121.67332792006852,38.937336473394566],[121.67615038802944,38.937137441196626],[121.68267792753619,38.93658008279908],[121.6913365486518,38.93554437957701],[121.6963636055732,38.93479486245738],[121.70158977940781,38.93379288538969],[121.70565472270135,38.93279662923953],[121.70919075025228,38.93152593125981],[121.71300806454354,38.929723054968974],[121.71588040548914,38.928037402010375],[121.71872755046138,38.926077290061926],[121.72386063154545,38.92075395962897],[121.72630483563472,38.91659773407525],[121.72811358776733,38.91231474764888],[121.7300824927762,38.905780270946735],[121.73120145850447,38.90024609338411],[121.73192123022932,38.8925676694256],[121.73236128106913,38.88163337564197],[121.7323516452218,38.880109802152674],[121.73219774864589,38.87274634847796],[121.73202137697916,38.86798263922515],[121.73184500516658,38.865079200000736]],"type":"LineString"}},{"type":"Feature","properties":{"shipway":"yes","name":"大连-仁川","id":2005,"topier":3},"geometry":{"coordinates":[[121.65826216741101,38.9330767985233],[121.65722329104108,38.93359969885077],[121.65686681385444,38.934003755554414],[121.65663255741742,38.93451080384716],[121.65675807502362,38.93511046903774],[121.65725384622806,38.93601608210932],[121.65766271965754,38.93657359104836],[121.65832566738572,38.93720384996959],[121.65918197486718,38.9376944453665],[121.65997066091148,38.938006878577255],[121.66081315698148,38.93818950730861],[121.66187243659641,38.93832415553743],[121.6629950059808,38.93833718777816],[121.67756680375425,38.937722152342275],[121.68767991784085,38.937181777743575],[121.69049532494364,38.93705556846939],[121.69922970373597,38.93589418414015],[121.70412735677525,38.935006042244936],[121.7070719579902,38.93435161478391],[121.71001655920315,38.93339333510619],[121.7128312836478,38.932233739765365],[121.7166171994923,38.93034048407338],[121.72010264582798,38.928470552305214],[121.72367871935728,38.925727677938454],[121.72599233459715,38.92355373624318],[121.73024346439837,38.91830158376263],[121.7326689541477,38.91435564808114],[121.73392158377061,38.911002858410114],[121.73544838390887,38.90574864302761],[121.7373510856649,38.89787888489778],[121.73946519033711,38.88594919253262],[121.73996081900208,38.88194831599674],[121.74009491115868,38.86627226565494]],"type":"LineString"}},{"type":"Feature","properties":{"pier":"yes","deepwater":"yes","name":"码头3","id":1029},"geometry":{"coordinates":[121.658311786578,38.93307324590819],"type":"Point"}},{"type":"Feature","properties":{"pier":"yes","deepwater":"yes","name":"码头1"},"geometry":{"coordinates":[121.65557432629134,38.93392523812844],"type":"Point"}},{"type":"Feature","properties":{"shipway":"yes","name":"大连港-烟台打捞局码头","id":2001,"topier":4},"geometry":{"coordinates":[[121.6560735212268,38.93032543960311],[121.65602414584669,38.93042237813907],[121.65595360163542,38.93070985934429],[121.65599348818648,38.93125356233307],[121.65647772458607,38.93274892979602],[121.65773980138715,38.93511267977459],[121.65841391752872,38.93592395953215],[121.65920250622099,38.936517572987356],[121.66018188249978,38.93700235362269],[121.66143111739046,38.93735077023837],[121.66322452070835,38.93751895783757],[121.66584976704553,38.93743657036751],[121.67052856872209,38.937162486461716],[121.68473415716596,38.93572745268],[121.69210197865891,38.934738776288015],[121.69770360745065,38.933842412656446],[121.70228093840586,38.932821540276905],[121.70644214836506,38.931651253862015],[121.71071140586258,38.92978475739068],[121.7148237954134,38.927466533926776],[121.71714818950619,38.92589009869661],[121.72000898223786,38.9233399087135],[121.72175399754047,38.921537835332344],[121.72396178102088,38.91838870179299],[121.72703755150326,38.91149408720298],[121.72954643091157,38.90217213780781],[121.73024831925613,38.897706256531336],[121.7310426784436,38.88594463596078],[121.73101261559424,38.871761790799326],[121.73062226172107,38.865063275323195]],"type":"LineString"}},{"type":"Feature","properties":{"shipway":"yes","name":"大连港-威海港","id":2004,"topier":2},"geometry":{"coordinates":[[121.65594234187523,38.93465792887292],[121.65602063651801,38.93472715097276],[121.6560986608132,38.93479257731224],[121.65618369233778,38.93487336866957],[121.6566735899404,38.93530889026118],[121.65778555136109,38.93629323711343],[121.65846568461717,38.93690163238497],[121.65960490770152,38.93746593286687],[121.66091318924236,38.93784652944012],[121.66238114336574,38.93807136545587],[121.66438150374034,38.93805598994436],[121.66757681921143,38.93792878401322],[121.67221185417293,38.93766776115376],[121.67782329797376,38.9373285455018],[121.68428230185009,38.93681867891746],[121.68947966556601,38.936399713021274],[121.69687023883631,38.93540360417035],[121.7020063128598,38.934428650054485],[121.70587654553236,38.933546642016836],[121.70859029808821,38.93278141445256],[121.71186702706348,38.93155671927002],[121.71434139711931,38.93028258964574],[121.71691533137863,38.92882198491009],[121.71918969874014,38.927323029297554],[121.72202909574321,38.92473037384676],[121.72453057925253,38.9220741768176],[121.72757685579984,38.91801187329949],[121.73051481394111,38.91294630439512],[121.7321509164629,38.90809256752834],[121.7339103882141,38.900733952329375],[121.73541241934447,38.89221130052357],[121.73663154889931,38.88544166058756],[121.7367450475395,38.88479009370596],[121.73685698413811,38.88268560038637],[121.73703058883268,38.87798410240987],[121.7370150622931,38.873115826698836],[121.73703278427053,38.86522441934639]],"type":"LineString"}},{"type":"Feature","properties":{"truckroad":"yes","name":"至右侧港口方向","id":1912,"choices":"[1923,1924]"},"geometry":{"coordinates":[[121.65499537250935,38.93433224387212],[121.65508384932389,38.93438672886023],[121.65515020693425,38.93441540515366],[121.65525342988155,38.93443547855131],[121.65534927976347,38.93441540515366],[121.65568844088278,38.93430356754581]],"type":"LineString"}},{"type":"Feature","properties":{"truckroad":"yes","id":1923,"name":"至右侧港口左侧码头","choices":"[]","choices2":"[]","topier":1},"geometry":{"coordinates":[[121.65571110273231,38.93428593203532],[121.65557008694361,38.93394043212572]],"type":"LineString"}},{"type":"Feature","properties":{"truckroad":"yes","id":1924,"name":"至右侧港口右侧码头","topier":2},"geometry":{"coordinates":[[121.65571657842622,38.934298171479696],[121.6558954199171,38.93460731505482]],"type":"LineString"}},{"type":"Feature","properties":{"truckroad":"yes","id":1922,"choices":"[1925,1926]","name":"至左侧港口方向"},"geometry":{"coordinates":[[121.65497328709205,38.93430499735254],[121.65357699058103,38.93183098456083],[121.65352716937502,38.9310854685674],[121.65355066513564,38.931001182969766],[121.6535982146707,38.93094419998792],[121.65368560300533,38.930894214878805],[121.65636392812524,38.930007429349104]],"type":"LineString"}},{"type":"Feature","properties":{"truckroad":"yes","id":1925,"name":"至左侧港口里侧码头","topier":4},"geometry":{"coordinates":[[121.65637098414066,38.930014818397666],[121.65637098414066,38.930104682044316],[121.65625416737356,38.93022685603282],[121.65609841168396,38.93030359330649]],"type":"LineString"}},{"type":"Feature","properties":{"truckroad":"yes","id":1926,"name":"至左侧港口外侧码头","topier":3},"geometry":{"coordinates":[[121.65637740163743,38.93000143180802],[121.6565254975676,38.929952057820685],[121.65667359349601,38.92999594581073],[121.65681816333193,38.93014132458458],[121.65849853091828,38.93297959371384],[121.65831777352435,38.93304602258519]],"type":"LineString"}},{"type":"Feature","properties":{"pier":"yes","deepwater":"no","name":"码头4","id":1231},"geometry":{"coordinates":[121.65610004628286,38.93031327202368],"type":"Point"}}]}