{"type":"FeatureCollection","features":[{"type":"Feature","geometry":{"type":"Polygon","coordinates":[[[121.5636808722687,38.87390112712679,0],[121.5641574068374,38.87394111105289,0],[121.5643955778384,38.87430794025293,0],[121.5644811659181,38.87493381895488,0],[121.5644009385335,38.87532838115825,0],[121.5639271122548,38.87553969546436,0],[121.564620500549,38.87622662421049,0],[121.5653353939494,38.87663546346434,0],[121.5666385644961,38.87717283304278,0],[121.568085110036,38.87736046260165,0],[121.5689396713885,38.87740673722246,0],[121.5695888409886,38.87723840250872,0],[121.5699042944593,38.87705790126681,0],[121.5699772727669,38.87687359017449,0],[121.5699394986134,38.87673702183231,0],[121.5699963904646,38.87661532611507,0],[121.5698019001273,38.87644814765497,0],[121.5697954859108,38.87611478752917,0],[121.5700019597188,38.87617893370056,0],[121.5701644496467,38.87643041795017,0],[121.5708376936029,38.87605501416734,0],[121.5710268607515,38.87601339254034,0],[121.571409958182,38.87577884917486,0],[121.5715885035644,38.87579625102698,0],[121.5719220027228,38.87554275966701,0],[121.5720860357033,38.87555913548388,0],[121.5719992327734,38.87615083989635,0],[121.5720239798743,38.87669677117182,0],[121.5724622814935,38.87721763707317,0],[121.5723505095224,38.87742585743684,0],[121.5721205630466,38.87747670012507,0],[121.5718487303324,38.87817393598571,0],[121.5716510037629,38.87857100270103,0],[121.5718742579738,38.87876113602058,0],[121.5733509684787,38.87927768460559,0],[121.5742261031488,38.87933463230147,0],[121.5743191445331,38.87756548185475,0],[121.5751772374762,38.87669509094626,0],[121.5752725404868,38.87653512603698,0],[121.5753711888922,38.87557392837792,0],[121.575043649527,38.87545925388755,0],[121.5741622289677,38.87538251136306,0],[121.5736394840897,38.87527915272288,0],[121.5753225812208,38.87535522667378,0],[121.5769720879193,38.87545030726291,0],[121.5769606033771,38.87553929956778,0],[121.5766753213856,38.87556278231086,0],[121.5761407076711,38.8755246611496,0],[121.5759220901698,38.87555472546958,0],[121.5759112654868,38.87592399757139,0],[121.5762590025858,38.87625210844946,0],[121.5771830281241,38.87671299909475,0],[121.5780714614034,38.87690145908287,0],[121.5794783678711,38.87670464437169,0],[121.5801877878016,38.87644499604913,0],[121.5803019213342,38.87582507354961,0],[121.5794853285651,38.87572100930942,0],[121.5795298633354,38.87566835645518,0],[121.5795703500325,38.87561470637835,0],[121.5814378596763,38.87571283986136,0],[121.5814233690804,38.87582146790457,0],[121.5807850892148,38.87582757232034,0],[121.5805991844966,38.87580809171927,0],[121.5805207087943,38.87582868238001,0],[121.5805049045038,38.87590160532845,0],[121.5805290028924,38.87608809226978,0],[121.5806133169561,38.8761743239183,0],[121.5805418132818,38.87649158268749,0],[121.581210179144,38.8768517904311,0],[121.5821105792036,38.87712600685369,0],[121.5830617028182,38.87732698599536,0],[121.5838971933711,38.87727294525284,0],[121.5848804025937,38.87688601400775,0],[121.5849172322609,38.87669533663606,0],[121.5852271590574,38.87655629712511,0],[121.5852990503951,38.87634264401107,0],[121.585711861997,38.87610911407304,0],[121.5860010918807,38.87610724063448,0],[121.5865946737286,38.87576079611237,0],[121.587497773119,38.87600336971871,0],[121.5880806465941,38.87564446148829,0],[121.5885713228975,38.87471148791989,0],[121.5892026673731,38.87462202721296,0],[121.5893725756474,38.87476391940488,0],[121.5899445174325,38.87584373183949,0],[121.5910835268636,38.87551056314283,0],[121.5915148606268,38.87500307462729,0],[121.5925984825875,38.87477751070226,0],[121.5953641364517,38.87473216972915,0],[121.5953549044252,38.87507551250579,0],[121.5957884240344,38.87528802395626,0],[121.5962121929929,38.87534900544937,0],[121.5966086215939,38.87529228709423,0],[121.5971272378964,38.87471701117436,0],[121.5973748155,38.87449607219864,0],[121.6012054896045,38.87403498299638,0],[121.6043562548084,38.87337266184693,0],[121.6050364627449,38.87299572840828,0],[121.6052758796367,38.87277075699618,0],[121.6056213673819,38.87267163560666,0],[121.6063760026373,38.87267274393298,0],[121.6067068716472,38.87239548823803,0],[121.6073456639657,38.87229974840996,0],[121.6087650249342,38.87164973069967,0],[121.6099316569528,38.87078005130174,0],[121.6102211882262,38.87006742679056,0],[121.6100824572002,38.86958643927652,0],[121.6114188800604,38.86911051775754,0],[121.6125447005372,38.8684925980363,0],[121.6134673385465,38.86848993969335,0],[121.6159747739599,38.86706613685824,0],[121.6165977101069,38.86577243222482,0],[121.6173631389774,38.86480259373318,0],[121.6187936185617,38.86464263635349,0],[121.6197187641559,38.86386741165187,0],[121.6203742875218,38.86430380380113,0],[121.6224447955993,38.86451251682024,0],[121.6234198340923,38.86453442880724,0],[121.6249739220532,38.86434400669248,0],[121.6260427812411,38.86393124555421,0],[121.6262010086017,38.86356171241459,0],[121.6267031026091,38.86366898943729,0],[121.6272902271467,38.86358679045293,0],[121.6279327086036,38.86317304432727,0],[121.6291775498968,38.86358494895136,0],[121.6307405317017,38.86421560157606,0],[121.6324103903485,38.86452676657648,0],[121.6339193275571,38.86474308993029,0],[121.6343781186416,38.86435023099817,0],[121.6352067779989,38.86208403429409,0],[121.6369715300436,38.86273155636832,0],[121.6394011427648,38.86313471015197,0],[121.6418454464639,38.86312312262212,0],[121.6436070148933,38.86364209752704,0],[121.6447486610264,38.86339676488837,0],[121.6454900943177,38.86363044125803,0],[121.6471646628654,38.86350557649452,0],[121.6480939796104,38.86380432213348,0],[121.6492626672628,38.86358166182128,0],[121.6516808206103,38.86296401529187,0],[121.6531130924054,38.86297928624782,0],[121.6534520904049,38.86299893818214,0],[121.6538921070003,38.86270420488564,0],[121.6539627522855,38.86268715273138,0],[121.6540355146833,38.86268455807165,0],[121.6541797904162,38.86280883633378,0],[121.6542890247643,38.86282054765685,0],[121.6547476152619,38.86268151704069,0],[121.6555416083057,38.86256236770317,0],[121.6557190702231,38.86250046157931,0],[121.656073206068,38.86228649008518,0],[121.6569586796554,38.86207789709362,0],[121.6577627107809,38.86199428194233,0],[121.6580784333526,38.86207467559227,0],[121.6582610281782,38.86203105351444,0],[121.6585877281081,38.86182368479986,0],[121.6587519875312,38.86176564861222,0],[121.6588955119443,38.86177084066168,0],[121.6590924963364,38.86189923522267,0],[121.6591763780425,38.86191869702677,0],[121.65920207351,38.86194203997903,0],[121.6593808886639,38.86205050424621,0],[121.6594696011521,38.86205005209903,0],[121.6595671194361,38.86202070407407,0],[121.6596241316003,38.86198249383911,0],[121.6611229855765,38.86203374471092,0],[121.6609756913598,38.86233958191346,0],[121.6610984638039,38.86277093342012,0],[121.6613770162243,38.86302941050312,0],[121.6616936732883,38.86307093958921,0],[121.6622812352309,38.86334717699165,0],[121.6635352174792,38.86375593055467,0],[121.6645761375455,38.86400770131206,0],[121.665549420373,38.86402901647523,0],[121.6660464858779,38.86451670746489,0],[121.6662261634068,38.86475266027923,0],[121.6663166352012,38.86481789136568,0],[121.6664624234862,38.86488917339338,0],[121.6667780285741,38.86501125368725,0],[121.6669811700037,38.8650100868384,0],[121.6679681608407,38.86473612241719,0],[121.6681086210883,38.86457047644996,0],[121.6683841780354,38.86435758133242,0],[121.6684104160136,38.86425907975289,0],[121.6684823478356,38.86426036566337,0],[121.6685680132992,38.86421949061838,0],[121.6686340925001,38.86397845202625,0],[121.668763283437,38.86398637902328,0],[121.6688930323738,38.86401496869172,0],[121.6688995117215,38.86441799439251,0],[121.6691288919233,38.86465382686525,0],[121.6693850963326,38.8646846850105,0],[121.669396465496,38.86469929333137,0],[121.6695074596096,38.8647219942082,0],[121.6696761613451,38.86472023937554,0],[121.6704377785573,38.86481358435557,0],[121.6711438915795,38.86484501818642,0],[121.6717133632903,38.8649394924084,0],[121.672264575153,38.86499411161088,0],[121.6736534628441,38.86465225455209,0],[121.6739873549776,38.86452530797231,0],[121.6741473018517,38.86446846710681,0],[121.6741710112467,38.86440801448978,0],[121.6742681200702,38.8643049969915,0],[121.67434059043,38.86421246934223,0],[121.6745078300621,38.86407607105918,0],[121.6750887521552,38.86397036178234,0],[121.6756889090715,38.86379501588142,0],[121.6759746662818,38.86384085837927,0],[121.6762848587081,38.86397842955998,0],[121.6765091949421,38.86418732607702,0],[121.6765005683339,38.8642201198849,0],[121.6765352706962,38.86445278220116,0],[121.6766237784889,38.86481389676057,0],[121.6767239581549,38.86525440378117,0],[121.6767827460234,38.8654230520502,0],[121.6768994093578,38.86556477896247,0],[121.6769939524994,38.86571962211317,0],[121.6772187666912,38.86590546615543,0],[121.6777610575704,38.86621586949299,0],[121.6779566627485,38.86682696773792,0],[121.6784081047998,38.86726901899981,0],[121.6793586721426,38.86782942475079,0],[121.679820113072,38.86797797485247,0],[121.6799596742472,38.86804127186727,0],[121.6800571008253,38.86812853867507,0],[121.6801126429018,38.86822693766378,0],[121.680141566119,38.86832474127214,0],[121.6801666589261,38.86907010601029,0],[121.6801197422567,38.86977018824947,0],[121.6800491848489,38.8700372213184,0],[121.6795579223008,38.87077219591784,0],[121.6793253950672,38.87105135440083,0],[121.6791759540022,38.87120170446405,0],[121.6788892659706,38.87140021969834,0],[121.6788551255172,38.87144823331469,0],[121.6788490076751,38.87152422704369,0],[121.6789125937348,38.87200480683661,0],[121.6789123176225,38.87206761468229,0],[121.6788587235302,38.87209210901186,0],[121.679078400206,38.87228269238836,0],[121.6784195719002,38.87272904349915,0],[121.6781604081042,38.87293147329508,0],[121.6775942310067,38.87294123669951,0],[121.677465846637,38.87299948643498,0],[121.6773816688358,38.87306982180648,0],[121.6772583980116,38.8730698705849,0],[121.67721434832,38.87300137361031,0],[121.67708946703,38.87297964512497,0],[121.6770149207191,38.87299185210411,0],[121.6768574842334,38.87279632388034,0],[121.6767494629897,38.87263011177522,0],[121.6766388328176,38.87265982278279,0],[121.6757794639894,38.87402350077087,0],[121.6756242144721,38.87417186073328,0],[121.6754800576038,38.8742782641228,0],[121.674760566389,38.87463502492145,0],[121.6745915976361,38.87468133229688,0],[121.6744016014535,38.87469978796872,0],[121.674283408447,38.87469529227879,0],[121.6741937089669,38.8752385499532,0],[121.6745241381484,38.87537386577974,0],[121.6747610734419,38.87538853829619,0],[121.6749460685332,38.87547828291715,0],[121.6750869566049,38.87559085833431,0],[121.6751793601019,38.87572483845035,0],[121.6753241442113,38.87607369303575,0],[121.6754590802265,38.87622431470659,0],[121.6757226929163,38.87645226004295,0],[121.6757075976509,38.87655147294944,0],[121.6756223971162,38.87666106586173,0],[121.6756037064878,38.87677728972034,0],[121.6756099838595,38.87688224512571,0],[121.6756510893791,38.87696116249653,0],[121.6756521529599,38.87708677765355,0],[121.6755647876048,38.87746969833622,0],[121.6755587797248,38.87764763067864,0],[121.6755533177101,38.87780736793764,0],[121.6755600975937,38.87803072745957,0],[121.6755794575323,38.87805928034619,0],[121.6756103716961,38.87806931840205,0],[121.675718830425,38.8780779863669,0],[121.6758308442669,38.87806863358067,0],[121.6759209089607,38.87804923538436,0],[121.6759590043914,38.87798963109805,0],[121.675978551779,38.87781796160528,0],[121.6760649186969,38.87754335599029,0],[121.6762458527311,38.87724649614061,0],[121.676481722426,38.87703002810509,0],[121.6766841135508,38.87689424303087,0],[121.6770194642829,38.87672946959374,0],[121.6770686006915,38.87668058167858,0],[121.6770800236791,38.87663029349063,0],[121.6770593681303,38.87658078550614,0],[121.6770597432587,38.87653015367213,0],[121.677089197358,38.87644879943128,0],[121.6770733678468,38.87641036728173,0],[121.6770225731838,38.87636921684895,0],[121.6768224743763,38.87618590607158,0],[121.6765181429796,38.87593960154853,0],[121.6765297846507,38.8758901589695,0],[121.6765693902645,38.87588002281737,0],[121.6766906008467,38.87596990786297,0],[121.6768444682372,38.87606709024169,0],[121.6770868949265,38.87624117963838,0],[121.6772115500834,38.87630167183801,0],[121.6774198975501,38.87623784407909,0],[121.6775268825269,38.87575976309693,0],[121.677604277402,38.87556106611706,0],[121.6777861630702,38.87536603492249,0],[121.6781752481153,38.87505011487368,0],[121.67871184165,38.87479015848334,0],[121.678880480791,38.87477686380761,0],[121.6790216403837,38.87484812943363,0],[121.6791196636835,38.87480863257801,0],[121.6798076093386,38.87418129053373,0],[121.680292618091,38.87450606891757,0],[121.6808046224576,38.87434793585243,0],[121.6810541592889,38.8744101403485,0],[121.6821193713345,38.87568322426912,0],[121.6820364478562,38.87586032689821,0],[121.6819187041605,38.87602247992854,0],[121.6818685815926,38.87616012682245,0],[121.6818490254913,38.87635721851293,0],[121.6818643497511,38.87649730605894,0],[121.6820624048449,38.87660585164939,0],[121.6821615208946,38.87666064539894,0],[121.6822728869081,38.87673964343065,0],[121.682460459847,38.87680647715759,0],[121.6826849831543,38.87684659331366,0],[121.683201744946,38.87691029796814,0],[121.683556898093,38.87691941534406,0],[121.6838144017403,38.87691844304877,0],[121.6838679515715,38.8769156708664,0],[121.6840199348738,38.87690993468526,0],[121.6840117786731,38.87674429806359,0],[121.6841210954149,38.87670647478135,0],[121.6841282689007,38.87690928310002,0],[121.6842450070591,38.87690994385417,0],[121.6843921587006,38.876910071968,0],[121.6843896835851,38.87668308063048,0],[121.6845696539581,38.87666676523543,0],[121.6847331146896,38.87659802029857,0],[121.6848369604112,38.87652593368683,0],[121.6849348823866,38.87643777619594,0],[121.6850215402945,38.87633676186056,0],[121.6850522330886,38.87623307678088,0],[121.6850359902666,38.87613148786637,0],[121.6849653599651,38.87602441436058,0],[121.6851087227979,38.87598497521603,0],[121.6852297997279,38.87600073200115,0],[121.6853763380217,38.87599644585598,0],[121.6854965853291,38.87594163113223,0],[121.6855735335618,38.87573479277815,0],[121.685814805411,38.8751140025464,0],[121.6858833107566,38.87484681430979,0],[121.6857292408726,38.87441151053321,0],[121.68448017014,38.87358376941084,0],[121.6841500200783,38.87327478798141,0],[121.6836330248491,38.87318139829239,0],[121.6836549212019,38.87303239031412,0],[121.6842188286421,38.8731316697566,0],[121.6861015689871,38.87448725295368,0],[121.6865520902428,38.87448641744285,0],[121.6866476105345,38.87445289432016,0],[121.6869284525109,38.87442462751764,0],[121.6871386094212,38.87433184782864,0],[121.6875468746643,38.87405783362919,0],[121.6876229674567,38.87398157714698,0],[121.6877619966504,38.87387673947894,0],[121.6879647936809,38.87375439128185,0],[121.6880900130327,38.87372037725603,0],[121.6883366355174,38.87367031941397,0],[121.688471478566,38.87360935849517,0],[121.6882189739115,38.87305917627691,0],[121.6881188868622,38.87293252726255,0],[121.6879040465497,38.87212829593923,0],[121.6884392698927,38.87065704945793,0],[121.6880296413432,38.8695916226208,0],[121.688223486914,38.86854572073515,0],[121.6887293370544,38.86775815453527,0],[121.6887932342046,38.86768997888609,0],[121.6900632085142,38.86715917254445,0],[121.6916424336047,38.86737561764962,0],[121.692986659101,38.86775689827514,0],[121.6944998843693,38.86803733093127,0],[121.6951412394077,38.8679519295161,0],[121.6957326015364,38.86752995884316,0],[121.696037005842,38.86694091544847,0],[121.6959352235319,38.86638399350812,0],[121.6954051380627,38.86618867973617,0],[121.6952578976954,38.86584029035419,0],[121.6952918446591,38.86528434215955,0],[121.6963998652909,38.86500716034333,0],[121.6971566213111,38.86523870368877,0],[121.6978496903735,38.86549549646674,0],[121.6978659743666,38.86561479943866,0],[121.69731723075,38.86543138288367,0],[121.6972393026849,38.86544049534279,0],[121.6972267530615,38.86556363246083,0],[121.6978998429319,38.86581647070842,0],[121.6979200806786,38.86592361376249,0],[121.6980602660033,38.86607110674294,0],[121.698057464919,38.86615090178218,0],[121.6981390049687,38.86621863986834,0],[121.6982295158263,38.86622037178361,0],[121.6982519455839,38.86621121011121,0],[121.699138706352,38.86648178778913,0],[121.699985961681,38.86703520294781,0],[121.7008294330551,38.86745601492126,0],[121.7013416791877,38.86780921982204,0],[121.7012784893606,38.86806419460297,0],[121.7012307409471,38.86803045345366,0],[121.7010625348966,38.86796790256739,0],[121.7009297116861,38.86796989565707,0],[121.7007364901147,38.86817032778544,0],[121.7007086154701,38.86825273942161,0],[121.7007109127247,38.86836159011494,0],[121.7007525110103,38.86848098595381,0],[121.7008253323453,38.86853696640526,0],[121.7013135343005,38.8686984332082,0],[121.7015494867191,38.8692093832795,0],[121.7010514368125,38.86944093229718,0],[121.7007755083518,38.86949386676116,0],[121.7006988596426,38.86958253519508,0],[121.7006789995003,38.8696785206693,0],[121.7007000382059,38.86977500059497,0],[121.7008129297026,38.86989122441479,0],[121.7009919919008,38.86995060319466,0],[121.7011774085038,38.86999587513726,0],[121.7013625334862,38.87059453738214,0],[121.701302986654,38.87092816009386,0],[121.7012896232825,38.87099980992734,0],[121.7013197376106,38.87104202478728,0],[121.7012255822115,38.87122673231097,0],[121.701189340288,38.87137306845002,0],[121.7011986845727,38.87152859224135,0],[121.7012499304431,38.87162964419496,0],[121.7013526245425,38.87165920499432,0],[121.7014483002929,38.87164615054947,0],[121.7015952248349,38.87156004244994,0],[121.7017512941168,38.87148532854952,0],[121.7018989370498,38.87148829122855,0],[121.7020729831585,38.87170096173853,0],[121.7020461177181,38.87201376960843,0],[121.7021069131024,38.8721138873446,0],[121.7021980088895,38.87221786106538,0],[121.7023672995375,38.87221891329332,0],[121.7025353718386,38.8721110491305,0],[121.7026587584485,38.87199831198821,0],[121.7028603178046,38.87178576549365,0],[121.7031959526908,38.87176235873663,0],[121.7050177121268,38.87186262976139,0],[121.7052499812349,38.87198807993779,0],[121.7054101179834,38.8722395082697,0],[121.7055569618618,38.87270702420697,0],[121.7055914138774,38.87313994343403,0],[121.7056675119014,38.87328664991195,0],[121.7057827353945,38.87340782648135,0],[121.7059214909759,38.87341800419481,0],[121.7062990039566,38.87342103914932,0],[121.7064869076446,38.87339834816394,0],[121.7066481644134,38.87335667641232,0],[121.7070095728651,38.87336971672562,0],[121.7071270963607,38.87347635959185,0],[121.7072193383069,38.87357968998477,0],[121.7073438223243,38.87360879457229,0],[121.7074696646407,38.87359706253008,0],[121.7075627460184,38.87355316285221,0],[121.7076629219164,38.87345162329486,0],[121.7079881216321,38.87350278631346,0],[121.7080992922146,38.87362411728848,0],[121.7081401117882,38.87415183187861,0],[121.708190303165,38.87449268814446,0],[121.708226759075,38.87457168032393,0],[121.7082814571456,38.87494173077032,0],[121.7083336451279,38.87512466487689,0],[121.7084230720035,38.87526847892086,0],[121.7084718718639,38.87534710370529,0],[121.7085105326422,38.87539337573881,0],[121.7086683746444,38.87558165929247,0],[121.7088853624731,38.87583635033035,0],[121.7090236140372,38.87599701872207,0],[121.7090891124022,38.87606457231599,0],[121.7094892715337,38.87658906646723,0],[121.7097501834924,38.8772168075329,0],[121.7098767742428,38.87767599458621,0],[121.7099118616539,38.87796861211157,0],[121.7099100126933,38.87818896782858,0],[121.7098971219013,38.87830986154231,0],[121.7098413898981,38.8784868283837,0],[121.709739188116,38.87864241761933,0],[121.7096978645516,38.87875295821539,0],[121.709689724951,38.87902644620167,0],[121.709774152703,38.87945147158931,0],[121.7099682126626,38.87985479645749,0],[121.710088118483,38.88013685834381,0],[121.7102656998408,38.88036756079747,0],[121.710663314572,38.88068980334792,0],[121.711006430153,38.8808762015981,0],[121.7115480023305,38.88088265483616,0],[121.7119544132935,38.88053414696998,0],[121.7121869642846,38.88074405082419,0],[121.7122059449796,38.88161277498489,0],[121.7123476693975,38.88245351989957,0],[121.712686765141,38.88374627222065,0],[121.7122543246853,38.88464005552918,0],[121.7118520390612,38.88481458130023,0],[121.7114588187058,38.88498504254837,0],[121.711451189112,38.88499366265265,0],[121.7112858542334,38.88504477910177,0],[121.7110971364701,38.88528053448247,0],[121.7110285020068,38.88605556118582,0],[121.7107926351163,38.88744604846424,0],[121.7117750045714,38.89014450615087,0],[121.7119530999573,38.89028457037537,0],[121.7123446756245,38.89071285135456,0],[121.7124818520969,38.89085691335563,0],[121.7126552672269,38.89109286021799,0],[121.7127111416438,38.89122956075375,0],[121.7127312924799,38.89137002415894,0],[121.7128430051318,38.89160201439457,0],[121.7128708337233,38.89164919084841,0],[121.7129186730942,38.89171785924147,0],[121.7129555983408,38.8917752179528,0],[121.7130833699776,38.89189641602737,0],[121.7132813026479,38.89204775356212,0],[121.7135871534911,38.89220617784074,0],[121.7138295094194,38.89234948536203,0],[121.7142507831457,38.89275465720979,0],[121.71443432202,38.89296494301711,0],[121.7144844113129,38.89302932309478,0],[121.7146034253742,38.89340411753476,0],[121.715100739398,38.89389670241891,0],[121.7158704082931,38.89468170485517,0],[121.7163646099142,38.89561479581772,0],[121.7162219200323,38.89601283575906,0],[121.7164067568617,38.89633010318036,0],[121.7166596937524,38.89651189702348,0],[121.7172933827379,38.89666901784334,0],[121.7175220365375,38.89738098032986,0],[121.7174777773418,38.89742004974443,0],[121.7174804803042,38.8975195371459,0],[121.7175960754769,38.89765481741943,0],[121.7176677478963,38.89776079731751,0],[121.7177712122493,38.8978050685086,0],[121.7178721261751,38.8979300886581,0],[121.7186280013773,38.89799278545595,0],[121.7187823498088,38.8981821516096,0],[121.7187796171495,38.89830027547443,0],[121.7190653914364,38.89866277443834,0],[121.7192249595976,38.89886309226421,0],[121.7193008928113,38.89893423799024,0],[121.7195121926312,38.89943941357247,0],[121.7193661534548,38.90027225906028,0],[121.7206892807648,38.90249634004187,0],[121.7222402496159,38.90534023971787,0],[121.7221353059761,38.9054193157004,0],[121.7218725087124,38.90551836379905,0],[121.7216469766883,38.90561261671724,0],[121.7215061211724,38.90572728086713,0],[121.7211592373395,38.90587418887608,0],[121.7208544363156,38.90593312339006,0],[121.7206342735938,38.90594803085007,0],[121.7201642182098,38.90605711898114,0],[121.7198260890608,38.90615484545326,0],[121.7196311053336,38.90624521456566,0],[121.7190642204218,38.90677634482659,0],[121.718985922665,38.90682245474139,0],[121.718448615634,38.90692966518328,0],[121.7197372286477,38.91117962713048,0],[121.720786562773,38.91475004984247,0],[121.7208555347291,38.91583422578574,0],[121.7205424127349,38.91666805119129,0],[121.7200056877251,38.91753011555351,0],[121.7195976457117,38.91792240064674,0],[121.7187003815683,38.91839160758637,0],[121.716772477422,38.91896061697909,0],[121.7121027289148,38.92033230750429,0],[121.7120343201964,38.92007964014002,0],[121.7142482389218,38.91936738764663,0],[121.7135088486441,38.91788119619136,0],[121.7115453723746,38.91880887831598,0],[121.709716144066,38.91928590942972,0],[121.7086882883677,38.91960842935375,0],[121.7074356251922,38.91987784085268,0],[121.7053509743733,38.92058595994209,0],[121.7057649320422,38.92140246353396,0],[121.7063551292515,38.92126813747519,0],[121.7066551622223,38.92178392561394,0],[121.6971303839142,38.92452756246968,0],[121.6901240728628,38.92660318686261,0],[121.6834374461148,38.92852635999152,0],[121.6830273501013,38.92846863001708,0],[121.6819546469617,38.92785273282885,0],[121.6785059541671,38.92885437059109,0],[121.6791944796462,38.93026065529038,0],[121.6790556851045,38.93053059700158,0],[121.6780983516344,38.9319625281406,0],[121.6780801450797,38.93198843602901,0],[121.6780747482764,38.93202534445865,0],[121.6780002184722,38.93205029153177,0],[121.6779033662394,38.93221309994011,0],[121.6778733615883,38.9328133547756,0],[121.6776264687938,38.93329400758498,0],[121.677517063369,38.93343526032271,0],[121.6767214925573,38.93329283301118,0],[121.6760990026827,38.93317842798135,0],[121.6757793182689,38.93308679576199,0],[121.6753361600212,38.9330514781154,0],[121.674796925015,38.9330474278372,0],[121.6744149560151,38.93300752236947,0],[121.6737074922978,38.93280177487542,0],[121.6721830054676,38.93192759479825,0],[121.6709793162501,38.93219255125708,0],[121.6711225167661,38.93244901242659,0],[121.6710194979957,38.93256576029565,0],[121.6715085548135,38.93338906871589,0],[121.6711578201953,38.93351321000668,0],[121.6711289204098,38.93347245939789,0],[121.6698890547834,38.93394613780741,0],[121.6696978935227,38.93400445694021,0],[121.6683428369606,38.93181559147754,0],[121.6668847172188,38.92911873744227,0],[121.6633568276664,38.93035771389261,0],[121.6658386324702,38.93535552395608,0],[121.6651177743125,38.93564176007529,0],[121.6644277690236,38.93588106681688,0],[121.6615463511129,38.93081608538588,0],[121.6589086653852,38.93176749924267,0],[121.6615179774294,38.93678239739717,0],[121.6609926950196,38.93696062757859,0],[121.6603149612156,38.93719952969809,0],[121.6601798866765,38.93707612765839,0],[121.6601387402159,38.93698907155159,0],[121.6600756160539,38.93697303089188,0],[121.6598503347364,38.93676287967836,0],[121.6593595617575,38.93586273755206,0],[121.6592513546007,38.93557820122326,0],[121.6590802880778,38.93528816379192,0],[121.6590804286948,38.9351057073151,0],[121.6575538730194,38.93219682819609,0],[121.6547769211396,38.93315717982048,0],[121.6572834384221,38.93822357512543,0],[121.6553902397066,38.938889034957,0],[121.6516145585171,38.93234704174308,0],[121.651439955753,38.93226533649714,0],[121.6513460661473,38.93216838778283,0],[121.6509879742772,38.93197556230026,0],[121.6504954878274,38.93174570516622,0],[121.6502180113949,38.93161509767536,0],[121.6499321198968,38.9315209675545,0],[121.6487608819867,38.93135602056955,0],[121.6476468743887,38.93113499450856,0],[121.6471598616161,38.93246092011184,0],[121.6470535110992,38.93252975771773,0],[121.6469496617508,38.93253098681735,0],[121.6468376492522,38.93251918697364,0],[121.6459818799539,38.93218276719901,0],[121.645392453251,38.93199054150629,0],[121.6452777781946,38.9320088178343,0],[121.6452280410456,38.93203933313332,0],[121.6452344196387,38.93210487369378,0],[121.6464523034289,38.93252413282347,0],[121.6465489180472,38.93258750533933,0],[121.6465399863094,38.93337282169133,0],[121.6468413005872,38.93334307696026,0],[121.6471145134385,38.9336969221962,0],[121.6475128607892,38.93357922982429,0],[121.6475904647264,38.93373615061147,0],[121.6474028125701,38.93382886351207,0],[121.6474968254027,38.93397217357735,0],[121.6473889319088,38.93407834882053,0],[121.6473153265785,38.93416772836769,0],[121.6476257468615,38.93452057154168,0],[121.6478999842874,38.93442825341374,0],[121.6481539492614,38.93448241270505,0],[121.6502817932858,38.93363367117465,0],[121.6504881110371,38.93410683662542,0],[121.6494933700882,38.93464892180404,0],[121.6473443376899,38.93556827934705,0],[121.6488451856378,38.93728946849517,0],[121.6514482178581,38.94013350376488,0],[121.6502624993393,38.94074328957729,0],[121.6505407713966,38.94122356903468,0],[121.6471843940872,38.94305943527069,0],[121.6426461967047,38.93966211899353,0],[121.6417404066124,38.9404222257989,0],[121.6410564911724,38.94015172712734,0],[121.6410135099503,38.94008301504411,0],[121.6367814402311,38.93844543779848,0],[121.6332928774418,38.93719107223329,0],[121.6332153121708,38.93708149038361,0],[121.633224188754,38.93687901862826,0],[121.6333550984877,38.93657099219279,0],[121.6337854256622,38.93585152419217,0],[121.6339405681396,38.93573513819673,0],[121.6340853888795,38.93572005810463,0],[121.6341793742522,38.93573879721706,0],[121.6342991132389,38.93572590786519,0],[121.6344049053872,38.93563538974663,0],[121.6344698800854,38.93546635207001,0],[121.6344777728305,38.93529008474456,0],[121.6344606958691,38.93519154716318,0],[121.6344010237239,38.93515997661914,0],[121.6342462100769,38.93518034409194,0],[121.6340554024248,38.93522083105839,0],[121.6337794465557,38.93529097939255,0],[121.6335095002087,38.93533054615786,0],[121.6332391858231,38.93533010488554,0],[121.6330067618444,38.93529316389673,0],[121.6329029320052,38.93524348197534,0],[121.6328011044615,38.93520189322886,0],[121.6326864681301,38.93516955243443,0],[121.6325963511796,38.93516829422292,0],[121.6325408091817,38.9352201217342,0],[121.6324099270784,38.93542699311062,0],[121.6322596095356,38.93568988022407,0],[121.632160509158,38.93572026972441,0],[121.6319998139719,38.93565817356234,0],[121.6314860786409,38.93541898474582,0],[121.6299951747388,38.93476945478827,0],[121.6305351188757,38.93383544932683,0],[121.6307067916742,38.9335439760735,0],[121.6308531145168,38.93329829862784,0],[121.6309094440067,38.93319716421898,0],[121.630922443401,38.93315014498361,0],[121.6309496349219,38.93305233529443,0],[121.6309314023289,38.93294368341268,0],[121.6308618734052,38.93285480309964,0],[121.6307774761216,38.93278778483233,0],[121.6303150735488,38.93266042360318,0],[121.6296076520211,38.93239971024685,0],[121.6294519164351,38.9324031164949,0],[121.6293386684568,38.9324665841258,0],[121.629320132171,38.93249558235325,0],[121.6292400133993,38.93250887174399,0],[121.6292098454816,38.93255627658381,0],[121.6274437277107,38.93544969037534,0],[121.625454508535,38.93467099002278,0],[121.626076049124,38.9337373805498,0],[121.6262402852274,38.93336853976242,0],[121.6265401114321,38.93235160836529,0],[121.626861301859,38.93162993235769,0],[121.6243964741437,38.93075094305028,0],[121.6228801827745,38.93276158120105,0],[121.6222385157896,38.93251766069422,0],[121.622206939918,38.93242022159071,0],[121.6230042984863,38.93104369504469,0],[121.6234480397324,38.93043734746403,0],[121.6233693680005,38.93039857846888,0],[121.6234200692878,38.93030965644128,0],[121.6228777915791,38.93006202895033,0],[121.6224412757103,38.9298494160625,0],[121.6221970198156,38.93024867652256,0],[121.6221732113589,38.93024131915558,0],[121.6220047231536,38.93048963159684,0],[121.6217971706972,38.93041094733141,0],[121.6217415935858,38.93050147798308,0],[121.6216406444929,38.93046728546438,0],[121.6213792965008,38.93096550290915,0],[121.621003359369,38.93079431899445,0],[121.6211888574966,38.93039531191884,0],[121.6213473755568,38.93014499925303,0],[121.6209298724639,38.92995941025803,0],[121.6207747483973,38.93018817971102,0],[121.6192094851135,38.92951662400185,0],[121.6197076990407,38.92854092273755,0],[121.6194524132841,38.92844700802443,0],[121.6188370854336,38.92945737144441,0],[121.616571386008,38.92854854844682,0],[121.6155602969701,38.92927757748148,0],[121.61533220208,38.92916161767556,0],[121.6150926885787,38.92930578809924,0],[121.6141943650674,38.93040399908471,0],[121.6131190917828,38.93120573356554,0],[121.6129666079426,38.9312246232155,0],[121.6114771237923,38.93056617155291,0],[121.6107587394955,38.9299835488926,0],[121.609899675588,38.92952171365254,0],[121.6097691471753,38.92954919582407,0],[121.6096804045302,38.92959841436619,0],[121.609547490241,38.92976145510367,0],[121.6095305712668,38.92983869768442,0],[121.6095436857702,38.92991213994195,0],[121.6095809567418,38.93004077371514,0],[121.60955262515,38.93019048188961,0],[121.6095498343068,38.93033345231746,0],[121.6095674105006,38.93040648150899,0],[121.6099095232799,38.93069122190066,0],[121.6102854355242,38.93098016214372,0],[121.6105226279304,38.93104792843285,0],[121.6118303677561,38.93200888529869,0],[121.6114946770387,38.93253194235464,0],[121.613323480382,38.93289001824553,0],[121.6124683967338,38.93449837731502,0],[121.6160120999817,38.93540600266088,0],[121.6156604552343,38.93639323673214,0],[121.6198952888107,38.9374855029431,0],[121.6197625164151,38.93801071982136,0],[121.620419836748,38.93816844824559,0],[121.6196722965337,38.94044963664176,0],[121.6169941886268,38.93998450951426,0],[121.6155308867007,38.93973334670907,0],[121.6140717688829,38.93948070706152,0],[121.6141086630715,38.93960604319098,0],[121.6140226385641,38.93959501631387,0],[121.6139821772938,38.93959786008072,0],[121.6139652767712,38.93961996692527,0],[121.6141215892277,38.94016096634244,0],[121.6143154003229,38.94081571318414,0],[121.6143201153661,38.94034612811954,0],[121.6146850909203,38.94161762399676,0],[121.6145933636067,38.94280062134786,0],[121.6162862518644,38.9431858616981,0],[121.6154500220922,38.94589666962215,0],[121.6174183470195,38.94631282271934,0],[121.6169325583679,38.94817724126792,0],[121.5642446805361,38.94537906596332,0],[121.5634230663919,38.9305766513755,0],[121.5636740438781,38.91222400420764,0],[121.5631557590463,38.89169292064349,0],[121.5636808722687,38.87390112712679,0]]]},"properties":{"name":"未命名的多边形","natural":"coastline","styleUrl":"#__managed_style_3670D01C623ABE866A56","fill-opacity":0.25098039215686274,"fill":"#ffffff","stroke-opacity":1,"stroke":"#fbc02d","stroke-width":2,"icon-offset":[64,128],"icon-offset-units":["pixels","insetPixels"],"icon":"https://earth.google.com/earth/document/icon?color=1976d2&id=2000&scale=4"},"id":"09ED1509D23ABE866A50"}]}